Place_Id,Place_Name,Culinary_Ratings,Category,Address,Description,Coordinate,Lat,Long,Gmaps_Address,Image_Address
1,Purnawarman Restaurant,4.5,Seafood,"Cicendo, Kota Bandung","Menyajikan menu buffet dengan hidangan seafood, sushi, sop buntut dan pilihan menu internasional lainnya.","{'lat': -6.907839576390254, 'lng':107.59639803207173}",-6.907839576,107.596398,https://maps.app.goo.gl/JtJTxhjhFJNz5eJx5,https://lh5.googleusercontent.com/p/AF1QipPJP2df0lrCzjIDuliTI6iedeCICE-HM-RuLCmz=w122-h92-k-no
2,Dakken Restaurant,4.5,Western,"Bandung Wetan, Kota Bandung","Makanan yang disajikan pun beragam, dari spaggeti, chiken maryland dan masih banyak lagi. Bumbu yang sangat lezat dan harga yang cukup terjangkau membuat tempat ini ramai dikunjungi.","{'lat':-6.90017082728352, 'lng':107.61768404299065}",-6.900170827,107.617684,https://maps.app.goo.gl/jNdM6dwB75VYEwgJ7,https://lh5.googleusercontent.com/p/AF1QipMgArJO4XLcHdLR4hmston3fju71aKnFsdegGqX=w163-h92-k-no
3,Warung Suluh Restaurant,4.4,Indonesian,"Cicendo, Kota Bandung","Tempat makanan ini menyediakan beragam menu yang dapat dipilih sesuai keinginan para pecinta kuliner. Menu tersedia mulai dari variasi nasi goreng, olahan ayam, sapi, bebek, roti goreng, roti bakar, nasi dan mie, ikan, iga, sate, penyetan, oseng, aneka minuman dan masih banyak lagi.","{'lat':-6.9037495923328835, 'lng':107.59948793688255}",-6.903749592,107.5994879,https://maps.app.goo.gl/noWxDLUkQ6BZNSe26,https://lh5.googleusercontent.com/p/AF1QipNRV4As4xg8w3OMey01WE51jMcNh75KNQ6JgLLP=w122-h92-k-no
4,Miss Bee Providore,4.5,Cafe,"Cidadap, Kota Bandung","Cafe luas dengan area duduk terbuka & tertutup kaca yang menyajikan hidangan lokal & gaya Barat, plus kue.","{'lat':-6.864075995849507, 'lng':107.60888107249602}",-6.864075996,107.6088811,https://maps.app.goo.gl/CjcYvVrmaduM4qdcA,https://lh5.googleusercontent.com/p/AF1QipOiksDfOd_JoTD909q9olcx3x-U3mP1xvhuj4nX=w92-h92-k-no
5,Braga Permai,4.5,Western,"Sumur Bandung, Kota Bandung",Hidangan internasional disajikan di restoran bergaya minimalis dengan teras & musik live pada akhir pekan.,"{'lat':-6.913126165281592, 'lng':107.60888107249602}",-6.913126165,107.6088811,https://maps.app.goo.gl/K4G2PQGaLLoiz6A29,https://lh5.googleusercontent.com/p/AF1QipO08xDs6MAxCO1TCsVw_mRb-OonDXaNsG9WQA_6=w122-h92-k-no
6,Nara Park Bandung,4.5,Cafe,"Cidadap, Kota Bandung","Destinasi pinggiran kota kelas atas dengan restoran, lounge, dan kedai kopi di taman yang luas.","{'lat':-6.8649365688081545, 'lng':107.6093144657346}",-6.864936569,107.6093145,https://maps.app.goo.gl/Jn3SdXqnA71anxTK8,https://lh5.googleusercontent.com/p/AF1QipNFD_FYuWdkDD00yM_fkkFKAjl11HS6wqpkj3S3=w163-h92-k-no
7,Saffron Restaurant,4.7,Western,"Bandung Wetan, Kota Bandung","Menyediakan pengalaman bersantap internasional yang lengkap dengan stasiun memasak langsung, Saffron Restaurant di Four Points by Sheraton Bandung adalah destinasi makan sepanjang hari yang luas dan menarik untuk difoto. Dengan desain neo-kolonial yang memikat, ruang makan ini menampilkan langit-langit tinggi yang dihiasi dengan lampu gantung bergaya retro yang kontras dengan dekorasi yang ringan serta lantai keramik hitam dan putih. Tempat duduk dalam yang nyaman dilengkapi dengan teras bergaya, menggunakan kayu gelap dan rotan dengan sentuhan kuning yang mencolok. Sementara itu, teras luar dilengkapi dengan perabotan klasik untuk menciptakan suasana yang unik.","lat':-6.895916157437927, 'lng':107.61083134206967}",-6.895916157,107.6108313,https://maps.app.goo.gl/QthU6YitPbLsWzE8A,https://lh5.googleusercontent.com/p/AF1QipPCFCxvvcPggaV-X54RPGaSgPshQltLAj-WTvDY=w140-h92-k-no
8,Kehidupan Tidak Pernah Berakhir,4.5,Indonesian,"Cicendo, Kota Bandung",Tempat makan santai ini menyajikan aneka menu vegan dengan sistem prasmanan; tersedia menu paket.,"{'lat':-6.90129435212265, 'lng':107.59761284829263}",-6.901294352,107.5976128,https://maps.app.goo.gl/hHsNd7vL2WnCUp6U7,https://lh5.googleusercontent.com/p/AF1QipOf1ghNC1Kqh9-R6gSmLO8lQ_Ix04b70v4RjifL=w122-h92-k-no
9,Raja Rasa,4.5,Seafood,"Sukasari, Kota Bandung","Sundanese restaurant yang sering kali disebut oleh teman-teman dari luar kota sebagai yang paling terkenal adalah Raja Rasa. Banyak yang mengatakan bahwa makanan di sini sangat segar, bumbunya lezat, dan layanan pelanggan yang cepat. Meskipun selalu ramai, tetapi suasana tetap nyaman, dengan interior yang cenderung terang dan cocok untuk acara berkumpul. Suasana di Raja Rasa berbeda dengan Sundanese restaurant lainnya.","{'lat':-6.875263322877598, 'lng':107.58374426465767}",-6.875263323,107.5837443,https://maps.app.goo.gl/XD8pg9cv51BA4C1v7,https://lh5.googleusercontent.com/p/AF1QipOD_k4H8-MR5RmfEIKmec9_U9nycBVHASs4YmXK=w122-h92-k-no
10,The Stone Cafe,4.4,Western,"Cimenyan, Kabupaten Bandung",Restoran kasual terbuka yang menyajikan masakan internasional di bangunan bertingkat tiga & berpanorama indah.,"}'lat':-6.859342816769343, 'lng':107.62816707161336}",-6.859342817,107.6281671,https://maps.app.goo.gl/ptJ8XdUtuJBb44Zq5,https://lh5.googleusercontent.com/p/AF1QipPggug0aZw-HhQsgXNJgfiDWxNJCf_HIgkvnxb6=w122-h92-k-no
11,Karnivor Restaurant,4.5,Western,"Bandung Wetan, Kota Bandung","Restoran yang menyajikan aneka hidangan steak dan barbeque dengan saus spesial, juga jasa antar.","{'lat':-6.902800235686768, 'lng':107.62404983584673}",-6.902800236,107.6240498,https://maps.app.goo.gl/sxVZerXCWJfkV6Et6,https://lh5.googleusercontent.com/p/AF1QipPxz7rgiG1IABl2uLIKRudDZRozkElcwyX1Mphy=w122-h92-k-no
12,Feast Restaurant,4.5,Western,"Coblong, Kota Bandung","Dengan desain minimalisnya, garis prasmanan di restoran Feast terlihat lebih elegan melalui gaya yang stylish. Menawarkan sarapan, makan malam prasmanan, brunch, dan A la carte, restoran Feast bisa menjadi pilihan terbaik untuk Anda dan keluarga Anda.","{'lat':-6.870960535935802, 'lng':107.61928251022222}",-6.870960536,107.6192825,https://maps.app.goo.gl/apPZ5SSU4sA9wKfX9,https://lh5.googleusercontent.com/p/AF1QipNItXToMLXDCC8akJTbI3QBuXmr9FTGGOnPPAgv=w115-h92-k-no
13,The Restaurant - Padma Hotel Bandung,4.6,Western,"Cidadap, Kota Bandung","Baru-baru ini direka ulang, The Restaurant adalah outlet makan sepanjang hari yang terkini di Padma Hotel Bandung. Terletak dengan pemandangan lembah yang hijau, konsep baru ini dirancang untuk meningkatkan pengalaman makan Anda, baik itu sarapan, makan siang, teh sore, atau saat berbagi makan malam romantis dengan pemandangan yang mempesona. Nikmati koleksi camilan ringan yang indah, hidangan Asia dan Eropa, disertai dengan berbagai kopi panggang, teh pilihan, jus segar, anggur terpilih, dan cerutu. The Restaurant juga merupakan tempat yang ideal untuk pertemuan informal dan perayaan.","{'lat':-6.856863427890192, 'lng':107.6090095714825}",-6.856863428,107.6090096,https://maps.app.goo.gl/oFiZ1kVfbqhcCteu6,https://lh5.googleusercontent.com/p/AF1QipOrcFn1n1O0iqZctXfJ0Di3vYUk8k30MzDsjJtZ=w122-h92-k-no
14,Alas Daun Restaurant,4.3,Sundanese,"Bandung Wetan, Kota Bandung","Dengan tagline ""Makan Tanpa Piring,"" restoran ini menawarkan pengalaman unik di mana setiap pengunjung menikmati hidangan mereka dengan menggunakan daun pisang sebagai alas di setiap meja. Pelayan akan berkeliling dan menuangkan nasi serta pilihan kuah, seperti kuah cumi atau rendang, sesuai dengan porsi yang diinginkan oleh masing-masing pengunjung.","{'lat':-6.8903379610906255, 'lng':107.62502508548927}",-6.890337961,107.6250251,https://maps.app.goo.gl/1sq8roCpChtLAij96,https://lh5.googleusercontent.com/p/AF1QipOv2rhkmDqZz9o8f5iBlcpbaP4jOQ1XoH3dpagp=w163-h92-k-no
15,Gormeteria,4.6,Western,"Cicendo, Kota Bandung","Berlokasi di lantai pertama The Hotel Kaliki, Gormeteria adalah Cafetaria kontemporer yang menarik di pusat Kota Bandung. Tempat ini menawarkan beragam hidangan dan minuman berkualitas tinggi. Desain interiornya bergaya industri, dilengkapi dengan mural sepanjang 18 meter yang menggambarkan habitat Gorila. Gormeteria juga menonjolkan dapur terbuka yang mewah, serta kursi makan yang dirancang untuk memberikan pengalaman gourmet yang maksimal.","{'lat':-6.892430041067953, 'lng':107.59594428374015}",-6.892430041,107.5959443,https://maps.app.goo.gl/B8zAJF8ehMBhyUYJ8,https://lh5.googleusercontent.com/p/AF1QipPVcPzQa6frGwe_icEjxWsnEHLUOL-ItbvfufRL=w163-h92-k-no
16,Cocorico Cafe and Resto,4.4,Cafe,"Cimenyan, Kabupaten Bandung","Keunikan tempat ini yakni mengusung konsep cafe kebun yang menyajikan pemandangan dari atas puncak bukit kota Bandung. Dengan desain arsitektur yang unik namun tetap mengedepankan sisi modern nan indah, membuat tempat ini diminati oleh tiap kalangan seperti anak muda, keluarga, maupun turis.","{'lat':-6.8551896393990095, 'lng':107.63008261622825}",-6.855189639,107.6300826,https://maps.app.goo.gl/VuL5MPDYmWGWHjtM9,https://lh5.googleusercontent.com/p/AF1QipOgaOs-mYUJ0cOjgCTes9hmrg5dJ3fu51qK_H5N=w80-h100-k-no
17,Rose Flower Restaurant,4.5,Seafood,"Lengkong, Kota Bandung","Rose Flower Restaurant menyediakan menu masakan oriental, utamanya seafood, dengan citarasa tak kalah dari masakan Chinese original. Porsinya pun terkenal besar dengan harga menu yang sebanding.","{'lat':-6.910839946395775, 'lng':107.61870317206555}",-6.910839946,107.6187032,https://maps.app.goo.gl/eeG6sbubabETHZyo6,https://lh5.googleusercontent.com/p/AF1QipNHqX92mYppEr7lExtMmT4O_XV59-IHyftzXEre=w122-h92-k-no
18,Congo Gallery & Cafe,4.6,Indonesian,"Cibeunying Kaler, Kota Bandung",Restoran modern dengan hidangan lokal disajikan di tempat elegan bernuansa kayu dengan latar belakang rimbun.,"{'lat':-6.858955655235582, 'lng':107.62671092906893}",-6.858955655,107.6267109,https://maps.app.goo.gl/pmV3PDsQtJXJJgrD9,https://lh5.googleusercontent.com/p/AF1QipNnJR443D7uRzs2gu6VPYzWNlmiRfZpNZIGQnCV=w138-h92-k-no
19,Kalpa Tree Dine and Chill,4.4,Western,"Cidadap, Kota Bandung","Restoran internasional trendi dan luas dengan dinding kaca, tanaman & anggur, serta kolam renang & taman.","{'lat':-6.855608087072957, 'lng':107.61027395416725}",-6.855608087,107.610274,https://maps.app.goo.gl/SEWqLEASi58NKdeB8,https://lh5.googleusercontent.com/p/AF1QipPCfniOdieo6PveZWe7jbEEcjzhd42T6Y_SH3Vn=w163-h92-k-no
20,Bebek Kaleyo Bandung,4.5,Indonesian,"Cicendo, Kota Bandung","Restoran yang luas ini menyajikan berbagai menu bebek, ayam & aneka sambal, serta melayani pesan antar.","{'lat':-6.89619576175592, 'lng':107.59847304910964}",-6.896195762,107.598473,https://maps.app.goo.gl/dPJPRgFqG4rZDLAB8,https://lh5.googleusercontent.com/p/AF1QipMTH0aAaCZPAPfgp7pBcIdh42coaF3MUm-YUKk=w122-h92-k-no
21,Tizi Cake Shop & Restaurant,4.5,Western,"Coblong, Kota Bandung","Tizi menyajikan berbagai pilihan steak dalam menu hidangan utamanya. Daging yang disajikan di sini meliputi daging sapi, ikan dory, dan ayam. Anda dapat memilih antara Sirloin Steak, Tenderloin Steak, Steak Burger, Bratwurst (sosis Jerman), dan favorit saya sepanjang masa: Wiener Schnitzel. Atau Fish Fillet Tarragon jika Anda menginginkan hidangan ikan. Untuk Anda yang lebih suka ayam, tersedia Oven-Baked Chicken dan Oriental Grilled Chicken. Satu hidangan yang mencolok di menu ini adalah Lidah dengan Saus Jamur. Setiap hidangan disajikan dengan sayuran yang dimasak dan pilihan kentang goreng atau kentang tumbuk sesuai selera Anda. Keduanya enak.","{'lat':-6.873600989182598, 'lng':107.61406710222148}",-6.873600989,107.6140671,https://maps.app.goo.gl/k51vqXr6hy2b3HyN8,https://lh5.googleusercontent.com/p/AF1QipPUbMNCi5c1cywT3aaPBEhACyWg9rQs3nGbhDf-=w137-h92-k-no
22,Glosis Restaurant,4.5,Western,"Bandung Wetan, Kota Bandung","Glosis Restaurant adalah destinasi kuliner yang menyajikan hidangan Western dengan sentuhan khas yang memikat lidah. Terletak di Jl. Citarum No.12, restoran ini menawarkan pengalaman makan yang tak terlupakan dengan rating 4.5. Suasana yang nyaman dan elegan menciptakan atmosfer yang ideal untuk bersantap, baik itu dalam acara romantis, pertemuan bisnis, atau hanya untuk menikmati waktu bersama keluarga dan teman. Menu Glosis Restaurant menggabungkan keahlian dalam memasak Western dengan bahan-bahan berkualitas, menghasilkan hidangan lezat yang memanjakan selera setiap pengunjung. Dengan pelayanan ramah dan profesional, Glosis Restaurant menjadi pilihan utama bagi pecinta kuliner yang mencari pengalaman kuliner yang istimewa di tengah kota.","{'lat':-6.896614173318232, 'lng':107.62249632011978}",-6.896614173,107.6224963,https://maps.app.goo.gl/AGYdDjPYAiooGRBP6,https://lh5.googleusercontent.com/p/AF1QipOaNlvPyYmqgnBWsGi1Kr9pKpHeHkkN5qYAC6DU=w163-h92-k-no
23,Hummingbird Eatery & Space,4.6,Indonesian,"Bandung Wetan, Kota Bandung","Hummingbird Eatery & Space adalah tempat kuliner yang menawarkan pengalaman makan yang unik dan memuaskan dengan rating 4.6, terletak di Jl. Progo No.16. Restoran ini tidak hanya menghidangkan hidangan lezat, tetapi juga menciptakan ruang yang nyaman dan menarik untuk dinikmati bersama keluarga, teman, atau bahkan untuk pertemuan bisnis yang santai. Dengan suasana yang hangat dan dekorasi yang menawan, Hummingbird Eatery & Space menciptakan lingkungan yang cocok untuk berbagai kesempatan. Menu mereka mencakup beragam hidangan dari berbagai masakan, memenuhi selera setiap tamu. Pelayanan yang ramah dan atmosfer yang menyenangkan membuat setiap kunjungan menjadi pengalaman kuliner yang tak terlupakan. Dengan lokasi yang strategis, restoran ini menjadi pilihan ideal bagi mereka yang mencari kombinasi sempurna antara cita rasa makanan yang lezat dan suasana yang mengesankan.","{'lat':-6.8945221118113915, 'lng':107.6199675547503}",-6.894522112,107.6199676,https://maps.app.goo.gl/HKsyLWEQWZryVt5i9,https://lh5.googleusercontent.com/p/AF1QipOW4_HN73erdt72WHR0Jci7o6MZ1R26fwj8Ezct=w122-h92-k-no
24,Queen Restaurant,4.6,Chinese,"Lengkong, Kota Bandung","Restoran Chinese food ini terletak di Jalan Dalem Kaum. Meskipun sudah berdiri cukup lama, bangunan restoran ini tetap mempertahankan penampilannya yang klasik. Dengan dua lantai, restoran ini dihiasi dengan berbagai dekorasi khas oriental. Setiap kali memasuki restoran, aroma lezat masakan Chinese food langsung tercium, mengundang selera para pengunjung. Lantai 2 seringkali digunakan untuk pesta perkawinan. Beberapa masakan andalan di restoran ini termasuk leng pan atau hidangan dingin, sup asparagus kepiting, dan sate Shanghai.","{'lat':-6.91544231077843, 'lng':107.60732372790285}",-6.915442311,107.6073237,https://maps.app.goo.gl/Wn4drVbp2Lxqp9gw6,https://lh5.googleusercontent.com/p/AF1QipPGnTcWAIT944f2gfJUwbApEbBS75Sblmq_pJvK=w122-h92-k-no
25,Atmosphere Resort Café,4.5,Cafe,"Lengkong, Kota Bandung","Masakan internasional di area luas dengan kayu berpolesan, gazebo, dan taman rindang.","{'lat':-6.919626239490575, 'lng':107.61322418043166}",-6.919626239,107.6132242,https://maps.app.goo.gl/ozXEoJv9idndaXRd6,https://lh5.googleusercontent.com/p/AF1QipP8XgskLlbPB3Fe4J-goowBxwA4z4QY6djONEcf=w138-h92-k-no
26,Skyline Best View Resto,4.5,Indonesian,"Cimenyan, Kabupaten Bandung","Restoran luas & sejuk di lantai atas yang berpanorama indah dengan burger, kentang goreng, dan makanan lezat.","{'lat':-6.848912880214403, 'lng':107.63935475591639}",-6.84891288,107.6393548,https://maps.app.goo.gl/jifXLFvv1xcewAgXA,https://lh5.googleusercontent.com/p/AF1QipPBeVdvfiHqJcwCUJvCgxqdpvisj8Lag1kIHbq3=w122-h92-k-no
27,Parc de Ville Restaurant,4.9,Indonesian,"Sumur Bandung, Kota Bandung","Parc de Ville Restaurant berlokasikan di Jl. Merdeka no. 25-29 Best Western Premier La Grande Hotel, Bandung 40117 Indonesia. Rata-rata biaya yang diperlukan berkisaran Rp 5.000 / Orang, jam buka pada 6:00 - 23:00 dan merupakan Italia di area Bandung. Restoran ini memang adalah destinasi wisata kuliner di area Bandung. Di sini tersedia berbagai makanan enak and memang layak dikunjungi.","{'lat':-6.899124634930225, 'lng':107.60732372790285}",-6.899124635,107.6073237,https://maps.app.goo.gl/a7dzjYGWRUcv51Jo9,https://lh5.googleusercontent.com/p/AF1QipN3Hf76g1Y9rdIngzQx63M3APs13vVk7at_dMpO=w80-h106-k-no
28,Rijsttafel Resto,4.4,Indonesian,"Cicendo, Kota Bandung",Tempat makan yang menghidangkan aneka hidangan khas Belanda-Indonesia yang berkualitas dan buatan rumah.,"{'lat':-6.9007982686110525, 'lng':107.5976301273198}",-6.900798269,107.5976301,https://maps.app.goo.gl/SLuND4XEvW5t17kt9,https://lh5.googleusercontent.com/p/AF1QipPfOMrzN8kYaXq9DOCsW5KzokRhf59lXOtfsjEs=w122-h92-k-no
29,Sadrasa Kitchen & Bar,5,Western,"Bandung Wetan, Kota Bandung","Nikmati pilihan menu internasional dan lokal kami yang beragam dengan variasi ala carte. Menu ini mengutamakan bahan-bahan organik lokal dan mendukung keberlanjutan, sambil mempertahankan keaslian warisan lokal. Semua hidangan disajikan dengan sentuhan teknik memasak klasik, menawarkan pengalaman rasa terbaik dari masakan Indonesia-Sunda yang segar. Temukan juga ragam minuman pilihan yang disiapkan dengan antusiasme oleh bartender kami.","{'lat':-6.891593210184938, 'lng':107.62333924190962}",-6.89159321,107.6233392,https://maps.app.goo.gl/dEw9YqfuKYk8Tuks9,https://lh5.googleusercontent.com/p/AF1QipMidZxzG5xcO94yNPt_uWX4ivA90bdbPS6Lp36Y=w122-h92-k-no
30,Pago Restaurant,4.8,Cafe,"Lengkong, Kota Bandung","Pago Restaurant mengusung konsep dapur terbuka yang interaktif namun modern, menciptakan suasana santai. Dengan kapasitas hingga 198 orang, restoran ini menyajikan beragam pilihan prasmanan dan menu a la carte. Keunikan tempat makan ini terletak pada lima kios memasak live dengan konter yang menawarkan masakan Asia dan Internasional, disertai dengan berbagai opsi minuman menyegarkan.","{'lat':-6.913768728916549, 'lng':107.6203890156452}",-6.913768729,107.620389,https://maps.app.goo.gl/54EcZQMCZG7VMZH2A,https://lh5.googleusercontent.com/p/AF1QipM8l2OCOuULpUcON7H6BjfTCQEBcl7Uf2LtUh1y=w137-h92-k-no
31,The Square Restaurant Bandung,4.4,Western,"Bandung Wetan, Kota Bandung","Sebuah restoran yang berlokasi di Hotel Novotel, Lantai 1, Jl. Cihampelas No. 23 – 25, Cihampelas, Bandung. Restoran ini menyajikan berbagai menu Indonesia, Barat, dan Cina, Seperti nasi hainam, dim sum, roasted chicken, dan pizza²?. Restoran ini juga memiliki suasana yang nyaman dan bersih, dengan nuansa klasik dan musik live di malam hari. ","{'lat':-6.8987062255856895, 'lng':107.60437350163845}",-6.898706226,107.6043735,https://maps.app.goo.gl/R95FKL4ozDECc5zS7,https://lh5.googleusercontent.com/p/AF1QipNq1ItdT-Yza29BxF9xgFYpemq5DBFI12CLLSoH=w122-h92-k-no
32,Dapur Dahapati,4.5,Indonesian,"Coblong, Kota Bandung","Hidangan klasik seperti sup buntut, salad, dan iga di tempat santai dengan teras tertutup yang rindang.","{'lat':-6.878203715271188, 'lng':107.60437350163845}",-6.878203715,107.6043735,https://maps.app.goo.gl/kbU2hwJvXDMnDxkj9,https://lh5.googleusercontent.com/p/AF1QipPAbhIP3OObY2WqkhQ9o-PDex2qD0uejB7fYpHk=w122-h92-k-no
33,Cafe Bali,4.4,Cafe,"Bandung Wetan, Kota Bandung","Cafe yang telah beroperasi sejak tahun 1999 ini merupakan tempat yang ideal untuk acara berkumpul, pertemuan, arisan, atau waktu berkualitas bersama orang terkasih. Dengan kapasitas hingga 100 orang, Cafe Bali menyediakan fasilitas lengkap, termasuk live music, mushola, parkir, ruang VIP, smoking area, dan non-smoking area. Lokasinya yang strategis di Bandung membuatnya mudah diakses, menambah kenyamanan saat berkunjung.","{'lat':-6.907074342206919, 'lng':107.62923969443841}",-6.907074342,107.6292397,https://maps.app.goo.gl/wvMDzirVqAXtJ2Ae7,https://lh5.googleusercontent.com/p/AF1QipP9QbxbpOo0o5Gt-UpSXwCfX3AQuZBQXDQAcUUF=w122-h92-k-no
34,Belle Vue Roof Top 24 Hours French & Italian Bistro,4.6,Western,"Cidadap, Kota Bandung","Di Belle Vue Elevate, para pengunjung dapat menikmati keindahan pemandangan Kota Kembang dari ketinggian karena restoran ini berada di atap bangunan. Desain interior yang bergaya Renaissance dengan nuansa mewah akan menambahkan sentuhan romantis selama pengalaman kuliner di tempat ini. Terlebih lagi, kunjungan di malam hari akan memperindah pemandangan, menciptakan suasana yang semakin memukau.","{'lat':-6.839706817368053, 'lng':107.59805158821472}",-6.839706817,107.5980516,https://maps.app.goo.gl/g9hvXQcX3cNEB3ko7,https://lh3.googleusercontent.com/gps-proxy/AFm_dcRTMx_V3l1azrD5JmHYp0CvJQNpmfNcCJbXmjBAkq0upigQt55Rj2C1MXCwt7qLT1lxfT2MJkZ6LCq1-H3nSkbq5vuxt6a6CCqSCj3MTkfUOcqb4XWf6DA6O9j0gWFfyI-366jYMpPQSdsNg5YLAufds7VtaBOjoKXWzbOhIRg2Dfkcvya0Hooycg=w216-h92-k-no
35,Steak Ranjang Dipatiukur - Steak Enak di Bandung,4.4,Steak,"Coblong, Kota Bandung","Restoran simpel yang menyajikan hidangan daging klasik, plus ayam & spageti.","{'lat':-6.884061665782935, 'lng':107.61954609385539}",-6.884061666,107.6195461,https://maps.app.goo.gl/n4sQUhKH77g8DQkM8,https://lh5.googleusercontent.com/p/AF1QipO2KpcWbBophdAWWM-fickewHM8eqleyGRBUVll=w204-h92-k-no
36,Al Jazeerah Signature Middle East Restaurant And Cafe Bandung,4.4,Indonesian,"Bandung Wetan, Kota Bandung","Kari, hidangan nasi & makanan pembuka tradisional lainnya ditawarkan di interior yang luas dan keren.","{'lat':-6.899124634930225, 'lng':107.62628946817402}",-6.899124635,107.6262895,https://maps.app.goo.gl/H7JXpURZq6exjUKRA,https://lh5.googleusercontent.com/p/AF1QipOHYjwBMY7ABEDQUx_p9mH0Ifdi9EjQo5rgjr-Q=w122-h92-k-no
37,Mie Rica Kejaksaan,4.4,Indonesian,"Sumur Bandung, Kota Bandung","Mie Rica Kejaksaan telah menjadi bagian dari kuliner selama lebih dari 32 tahun. Nama ""mie rica"" diambil dari salah satu menu andalannya, yakni mie rica dengan daging B2. Untuk yang mencari mie halal, tenang saja, tersedia opsi tersebut di sini. Keistimewaan mie ini terlihat pada bentuknya yang bulat dan cukup besar, mirip dengan mie goreng. Teksturnya tak diragukan lagi, kenyal dan lembut di mulut, terutama setelah dicampur dengan bumbu dan topping khasnya. Pilihan menu mie meliputi mie ayam, mie caciang, mie rica B2, mie rica ayam, mie pedas udang goreng, mie pedas casao, dan mie iga sapi. Untuk variasi, kamu juga dapat mengganti mie dengan bihun sesuai selera.","{'lat':-6.908329546935115, 'lng':107.60521642342827}",-6.908329547,107.6052164,https://maps.app.goo.gl/1nAMoKfHhkPi4F416,https://lh5.googleusercontent.com/p/AF1QipOTZIlGOGrxvSkzsmX0cvESKyHd7aRdEaJ_CV0R=w147-h92-k-no
38,WaLe Warung Lela,4.5,Indonesian,"Cibeunying Kaler, Kota Bandung","Warung Lela, atau yang biasa disebut Wale, adalah restoran mie yang telah lama menjadi populer di Bandung. Ketenarannya tidak hanya di kalangan warga Bandung, tetapi juga mencakup wisatawan dari luar kota. Spesialisasi mereka melibatkan menu yamien, mie baso, yahun, dan mie ayam. Selain variasi mie, Wale juga menyajikan sop buntut, sop ayam, semur lidah, nasi tim, dan berbagai camilan lainnya.","{'lat':-6.863976963364571, 'lng':107.63092553801809}",-6.863976963,107.6309255,https://maps.app.goo.gl/WfSbchCsazSu9y298,https://lh5.googleusercontent.com/p/AF1QipPFzdYhmGII6kh0SN2x3f5A_WemLH55w6_UREu4=w163-h92-k-no
39,Tilu Kitchen and Patisserie,4.6,Western,"Riau, Kota Bandung","Restoran luas bernuansa hangat dengan camilan internasional, makanan penutup gaya Eropa, dan halaman.","{'lat':-6.8945221118113915, 'lng':107.61828171117064}",-6.894522112,107.6182817,https://maps.app.goo.gl/Xj9g9jJM8wZbhuLi9,https://lh5.googleusercontent.com/p/AF1QipOCwWktlCwIal2hqQq1oT-Bi0fFv7ej4-LyLcFI=w163-h92-k-no
40,Bandung Suki,4.4,Korean,"Sumur Bandung, Kota Bandung","Restoran Bandung Suki, yang telah berdiri selama 13 tahun sejak tahun 2006, merupakan salah satu restoran suki ternama di Kota Bandung. Fokus utama restoran ini adalah menyajikan Sukiyaki sebagai menu utama, dan juga menawarkan pilihan menu lainnya seperti Dimsum dan Chinese Food.","{'lat':-6.905819134147613, 'lng':107.6090095714825}",-6.905819134,107.6090096,https://maps.app.goo.gl/QPNR7g4NuPo9kPjUA,https://lh5.googleusercontent.com/p/AF1QipMl0ILYXHoCPgYuamZek5PpqLN6A7j2Abbow9UK=w122-h92-k-no
41,de sanirasa - Restoran Nusantara Bandung,4.9,Sundanese,"Sukajadi, Kota Bandung","Restoran penuh cahaya yang menawarkan masakan Sunda klasik, plus teras rindang.","{'lat':-6.876948430759986, 'lng':107.60142327537403}",-6.876948431,107.6014233,https://maps.app.goo.gl/m9jLY44ZjNjPz8bBA,https://lh5.googleusercontent.com/p/AF1QipMy-zOg_UrJKDUMH2BMPbJ1CifkMvDfWI6kIjsX=w163-h92-k-no
42,Jing Paradise Chinese Fine Dining Restaurant,4.6,Chinese,"Sukasari, Kota Bandung",Santaplah hidangan Cina terbaik di Jing Paradise Chinese Fine Dining yang dipadukan dengan sentuhan modern terbaik. Jing Paradise menawarkan ruang VIP untuk makan siang bisnis atau pertemuan eksekutif Anda. Tempat ini juga cocok untuk merayakan pernikahan atau acara spesial Anda.,"{'lat':-6.845146785055598, 'lng':107.5951013619503}",-6.845146785,107.5951014,https://maps.app.goo.gl/JRE9mftL2zKU1p2SA,https://lh5.googleusercontent.com/p/AF1QipOW9JFrgNbKNRjdv_g60Uzxx_65Rv9bEhDD9Wr2=w122-h92-k-no
43,"Marugame Udon, Riau Bandung",4.6,Japanese,"Bandung Wetan, Kota Bandung","Restoran Marugame Udon di Riau, Bandung, sangat direkomendasikan bagi para penggemar udon. Restoran ini menyediakan area parkir yang luas untuk mobil dan motor, serta memiliki ruang indoor dan outdoor yang bersih dan luas. Menu yang ditawarkan mencakup beragam pilihan udon atau nasi, dengan opsi untuk menambahkan makanan pendamping seperti shumay, nori, chicken katsu, dan lainnya dengan tambahan biaya.","{'lat':-6.899961452510137, 'lng':107.62713238996385}",-6.899961453,107.6271324,https://maps.app.goo.gl/zNUnyFi5wyLPQP6y5,https://lh5.googleusercontent.com/p/AF1QipMgeQbm36SzJurgkysO5PRSK1qIZuZXvHwrrSW7=w80-h106-k-no
44,Tanggo Pork Resto,4.5,Indonesian,"Sumur Bandung, Kota Bandung","Restoran ini cocok untuk kunjungan bersama rombongan, dengan berbagai pilihan menu yang menarik. Mulai dari babi saksang, rendang babi, babi rica, babi arsik, babi kecap, tanggo crispy, kangkung kriuk, babi panggang, hingga mi uji nyali. Tidak hanya itu, restoran juga menyajikan beragam minuman seperti badak minuman berkarbonasi, lemon tea, es lidah buaya, dan es tape spesial.","{'lat':-6.907074342206919, 'lng':107.61364564132657}",-6.907074342,107.6136456,https://maps.app.goo.gl/YH9Vr53Gs4KwaygZ7,https://lh5.googleusercontent.com/p/AF1QipMWIpJuB0WklPWID-s03Mo0s8Ac9zRt9bG1nMqH=w122-h92-k-no
45,Eastern Restaurant,4.6,Chinese,"Cicendo, Kota Bandung","Orang-orang yang telah mengunjungi dan mencicipi hidangan di tempat ini merasa puas dengan citarasa beragam menu yang disajikan. Eastern Restaurant Pasir Kaliki menawarkan berbagai pilihan, termasuk dimsum, buffet, Chinese food, dan konsep all-you-can-eat. Menu-menu favorit yang sering dipesan oleh pengunjung meliputi sup burung dara, udang extreme ala Szechuan (114.8k), dan beragam dim sum.","{'lat':-6.895777349824066, 'lng':107.59467990105539}",-6.89577735,-6.89577735,https://maps.app.goo.gl/erhiYwV8D4afRAH38,https://lh5.googleusercontent.com/p/AF1QipNm61ViOrAlPoTt6N7NN5U9Dedw1atPUG08TT8b=w122-h92-k-no
46,Batagor Kingsley,4.2,Cafe,"Sumur Bandung, Kota Bandung",Batagor Kingsley adalah hidangan khas Bandung yang harus dicoba ketika berkunjung ke kota ini. Rasanya yang unik selalu mengundang pelanggan untuk kembali menikmati sajian ini. Makanan ini menjadi salah satu produk kebanggaan warga Jawa Barat dan seringkali dibeli sebagai oleh-oleh khas Bandung.,"{'lat':-6.911258345009883, 'lng':107.61238125864182}",-6.911258345,107.6123813,https://maps.app.goo.gl/wPjQQHwyiA4NE3c97,https://lh5.googleusercontent.com/p/AF1QipMNQ_nFuQ5-i7EudQPEyowUXGgHw6ubt64Dd_Uh=w80-h142-k-no
47,Golden Flower Hotel - Lotus Garden Restaurant,4.4,Western,"Sumur Bandung, Kota Bandung","Sebuah restoran mewah dengan pilihan menu lengkap yang menyajikan masakan Barat, Asia, dan Indonesia, Lotus Garden Restaurant adalah pengalaman bersantap istimewa yang sempurna untuk acara santai atau formal. Selain itu, Lotus Garden Restaurant juga melayani acara Anda mulai dari pesta ulang tahun hingga pernikahan.","{'lat':-6.914605520588526, 'lng':107.60100181447912}",-6.914605521,107.6010018,https://maps.app.goo.gl/6PotyLkYk3Brwtkj8,https://lh5.googleusercontent.com/p/AF1QipOiKGV9EoGUWGpCHiY6R1x4so3QDfeOjSdf_j52=w122-h92-k-no
48,MASA Restaurant,4.4,Indonesian,"Bandung Wetan, Kota Bandung","Masa Restaurant & Bar Bandung menawarkan konsep yang bernuansa classy, menciptakan tampilan yang mewah dan elegan. Tempat ini sangat cocok untuk dinikmati baik saat makan siang maupun makan malam. Selain estetika yang mewah dan elegan, Masa Restaurant & Bar Bandung menawarkan daya tarik lainnya. Diantaranya adalah keberadaan live music, yang dapat meningkatkan suasana saat menikmati hidangan menjadi lebih syahdu.","{'lat':-6.892430041067953, 'lng':107.61195979774692}",-6.892430041,107.6119598,https://maps.app.goo.gl/2hpkm33me2fSA59V9,https://lh5.googleusercontent.com/p/AF1QipPaMt8It899LqEXFkAGDHYkfQGyYjLeFMmuPWCs=w80-h106-k-no
49,Sierra Cafe & Lounge,4.4,Cafe,"Cimenyan, Kabupaten Bandung","Sierra Café and Lounge, yang terletak di Jalan Bukit Pakar Timur No. 33, Bandung, Indonesia, merupakan sebuah restoran yang menonjolkan keunggulan dengan pemandangan perbukitan Bandung yang indah. Dengan tiga lantai dan kapasitas total 500 tempat duduk, restoran ini menjadi tempat yang ideal untuk berbagai acara, mulai dari Makan Malam Cahaya Lilin Romantis, Pertemuan Keluarga atau Kelompok, Pesta Ulang Tahun, hingga Pesta Pernikahan.","{'lat':-6.851005142456292, 'lng':107.62755385085877}",-6.851005142,107.6275539,https://maps.app.goo.gl/tQd6aZqLpZJKJ3td9,https://lh5.googleusercontent.com/p/AF1QipP7nj5RsfNazX_UGdXJpqWSB5ARuXHQ4uGB9lgz=w122-h92-k-no
50,Bornga Korean Restaurant,4.6,Korean,"Cicendo, Kota Bandung","Korean food kini sudah menjadi hal yang akrab di telinga kita, dan Bornga Korean merupakan salah satu tempat di mana Anda dapat menemukan berbagai macam hidangan khas Korea. Dalam pilihan menu yang luas ini, daging panggang mereka memuncaki daftar dalam hal rasa. Restoran ini memiliki ruangan yang luas dengan dua lantai, di mana lantai bawah digunakan untuk umum dan lantai dua untuk VIP. Harga yang ditawarkan bervariasi tergantung pada set menu yang Anda pesan.","{'lat':-6.89619576175592, 'lng':107.59425844016047}",-6.896195762,107.5942584,https://maps.app.goo.gl/1Q3JuqPMM6H7SsZL7,https://lh5.googleusercontent.com/p/AF1QipPmNSBoqRADcOX1WAfhOsN2Pmc_9hlrkhnyTgb8=w122-h92-k-no
51,Sajian Sambara,4.4,Indonesian,"Bandung Wetan, Kota Bandung",Sajian Sambara Trunojoyo telah menjadi bagian dari kuliner sejak tahun 2006 dan setia menyajikan beragam hidangan Nusantara dengan kelezatan yang terletak di lokasi yang strategis. Semua menu yang ditawarkan disajikan dalam bentuk paketan.,"{'lat':-6.890756377824672, 'lng':107.61575294580115}",-6.890756378,107.6157529,https://maps.app.goo.gl/BizZczfUKK68KDUz6,https://lh5.googleusercontent.com/p/AF1QipMxAWthSkqVxHJYBmH3ObIgTATLIXREA-BaZjef=w163-h92-k-no
52,Tepian Rasa Live Seafood Bandung,4.7,Seafood,"Bandung Wetan, Kota Bandung","Di Restoran Tepian Rasa, Anda dapat menikmati berbagai hidangan seafood segar dengan cita rasa yang luar biasa. Mulai dari cumi-cumi, kepiting laut, ikan laut dan tawar, lobster, hingga berbagai jenis kerang dan udang, semuanya tersedia dalam kondisi segar sejak masih hidup.","{'lat':-6.896614173318232, 'lng':107.61870317206555}",-6.896614173,107.6187032,https://maps.app.goo.gl/v6eufLKaTNq73gzk7,https://lh5.googleusercontent.com/p/AF1QipM0PeDDstLV0oNYxTYxKlTuGgkWrl2Rb8q-BY8i=w136-h92-k-no
53,Midori Japanese Restaurant Bandung,4.4,Japanese,"Bandung Wetan, Kota Bandung","Midori Japanese Restaurant adalah tempat yang sangat direkomendasikan untuk dikunjungi setelah seharian berkeliling ke berbagai tempat wisata di Bandung. Terletak di Jalan Sultan Tirtayasa No. 31, Citarum, Kota Bandung, restoran ini menyajikan hidangan ala Jepang, termasuk menu sushi. Salah satu menu andalannya adalah Salmon Crispy Roll, sejenis sushi dengan porsi besar yang terbuat dari ikan salmon.","{'lat':-6.893685284622261, 'lng':107.6144885631164}",-6.893685285,107.6144886,https://maps.app.goo.gl/F557hHFJRUgrfyoeA,https://lh5.googleusercontent.com/p/AF1QipPJcoxbdi8_2LhQx91ptLC6NWIMX7VfsKSbtoKs=w122-h92-k-no
54,Streats Restaurant,4.8,Indonesian,"Sumur Bandung, Kota Bandung","Streats Restaurant, yang berlokasi di lantai mezzanine ibis Styles Bandung Braga, menawarkan kapasitas hingga 140 kursi. Restoran ini menyediakan sarapan prasmanan dengan beragam pilihan masakan internasional, serta menyajikan hidangan a la carte dengan nuansa Indonesia untuk sisa hari itu.","{'lat':-6.9129319357626615, 'lng':107.611538336852}",-6.912931936,107.6115383,https://maps.app.goo.gl/Sk35fnC6fa9wbBJD8,https://lh5.googleusercontent.com/p/AF1QipNJ7uoD1CqsfVmkCWAjr6ah-ZgTrds8r_Haq2tN=w122-h92-k-no
55,SODA Resto & Bar,4.6,Indonesian,"Bandung Wetan, Kota Bandung","Dengan konsep ""Charming, Entertaining, Happening,"" SODA Resto & Bar menjadi tempat yang sangat menyenangkan untuk hangout, merayakan pesta ulang tahun, reuni wisuda, dan sebagainya. Saat membicarakan tentang makanan, tidak ada tempat lain yang dapat mengimbangi. Para koki dan dapur yang telah memenangkan penghargaan kami siap untuk memuaskan selera Anda.","{'lat':-6.897450995334089, 'lng':107.61322418043166}",-6.897450995,107.6132242,https://maps.app.goo.gl/7DUQUcoMAN7abddu7,https://lh3.googleusercontent.com/gps-proxy/AFm_dcR58qXicPNz-7mUtE-mneA1m1E2Fn9qTj9aB54fr5XXi8724q5NMl3SR0PX2gRIUwiPgDmFLVdlPMBfQkHa2_CSR-B5P3mfsf0pfbdBLKED7MNhw6bgH0iPGAHd5hqfVIf2XMZFQrNzGB6Tu1PIqntVFY_gZzhbMeFsdr0U_9KOTaoRKKWxs2fWVw=w122-h92-k-no
56,Ayam Bakar Wong Solo Bandung,4.4,Indonesian,"Sumur Bandung, Kota Bandung","Ayam Bakar Wong Solo berlokasi di Jalan RE Marthadinata No 152, Bandung, dan buka dari pukul 09.00 hingga 22.00 WIB. Warung ayam bakar ini menyajikan berbagai pilihan menu ayam, termasuk ayam penyet, ayam goreng lombok ijo, ayam woku, ayam kecap, dan tongseng ayam. Selain itu, tersedia juga menu ikan, lele, dan sayuran untuk memenuhi variasi selera makan.","{'lat':-6.906655939890582, 'lng':107.62628946817402}",-6.90665594,107.6262895,https://maps.app.goo.gl/bpKtJgdKvw8u86PW8,https://lh5.googleusercontent.com/p/AF1QipPiovYpYnzH39AUu4d_oNo8yIgmb7dN3Vdd_gpy=w163-h92-k-no
57,Madame Sari Restaurant,4.5,Indonesian,"Coblong, Kota Bandung","Restoran di Dago yang menawarkan interior mewah dan nyaman, sambil menyajikan berbagai masakan lokal.","{'lat':-6.887827452933008, 'lng':107.61027395416725}",-6.887827453,107.610274,https://maps.app.goo.gl/gLuw3rLfv88orLYZ6,https://lh5.googleusercontent.com/p/AF1QipOMr4vqUP7EhyMpUAA6UqURkh6f-YAP8nvEGGEd=w92-h92-k-no
58,Spice Affair Bandung Indian Fusion Cuisine,4.7,Indonesian,"Sukajadi, Kota Bandung","Sebuah restoran yang menyajikan makanan khas India dengan harga terjangkau. Restoran ini berlokasi di Jalan Sukajadi No.186, Pasteur, Sukajadi, Kota Bandung. Restoran ini menyajikan berbagai menu lezat seperti nasi hainam, dim sum, udang goreng mentega, dan ayam nanjing. Restoran ini juga memiliki suasana yang nyaman dan bersih, dengan nuansa klasik dan ornamen khas India.","{'lat':-6.876111572576439, 'lng':107.59636574463507}",-6.876111573,107.5963657,https://maps.app.goo.gl/3keweVSwKZvbQHE37,https://lh5.googleusercontent.com/p/AF1QipMNMq4Ljix6dMYJwhJ_DUPdNoMyuDkQxkaewbxS=w104-h92-k-no
59,Shabu Hachi Cilaki Bandung,4.7,Japanese,"Bandung Wetan, Kota Bandung",Tempat makan all you can eat yang menyajikan aneka bahan segar untuk shabu-shabu dan yakiniku.,"{'lat':-6.896614173318232, 'lng':107.63050407712316}",-6.895358938,107.6275539,https://maps.app.goo.gl/dmUV5Hr5qWdA2mHG8,https://lh5.googleusercontent.com/p/AF1QipPhgJLv4HCYD8dFjGLPscThAWGdsDOkFu14ZvcB=w122-h92-k-no
60,OZT Pork Ribs Bandung,4.6,Indonesian,"Andir, Kota Bandung","Jika Anda tidak memiliki masalah dengan opsi makanan non-halal, Anda dapat mengunjungi OZT Pork Ribs di Paskal Bandung. Restoran ini menawarkan berbagai jenis menu non-halal, dengan menu pork ribs menjadi salah satu yang paling populer. Daging pork ribs diolah dengan matang namun tetap lembut, kemudian dipanggang dengan bumbu marinasi yang meresap sempurna, menciptakan hidangan yang lezat dan menggugah selera.","{'lat':-6.910003148056616, 'lng':107.58161461331304}",-6.910003148,107.5816146,https://maps.app.goo.gl/LdaQeyD1PaLggzTj6,https://lh5.googleusercontent.com/p/AF1QipNc3Twbq_0e040LCE8sbdAlDEYedhX9yh7wwTX_=w163-h92-k-no
61,Rumah Makan Khas Sunda Bale Gazeeboe Bandung,4,Sundanese,"Coblong, Kota Bandung","Rumah Makan Khas Sunda Bale Gazeeboe sangat terkenal dengan masakan Sunda yang lezatnya luar biasa. Mulai dari ikan bakar, lalapan, hingga sayur asemnya, semuanya memukau lidah kita. Jadi, bagi kamu yang sangat menyukai kuliner Sunda, tinggal datang ke Bale Gazeeboe untuk menikmati hidangan Sunda yang autentik.","{'lat':-6.889501126514835, 'lng':107.61870317206555}",-6.889501127,107.6187032,https://maps.app.goo.gl/2fZrDqj92TWoWS899,https://lh5.googleusercontent.com/p/AF1QipPjbHf0ADwrFVOu_7uel1aT8-qFtxeC7QTBIxXU=w122-h92-k-no
62,Royal Dynasty Restaurant,4.6,Chinese,"Andir, Kota Bandung",Destinasi penuh cahaya dengan suasana kontemporer yang menyajikan masakan tradisional China.,"{'lat':-6.9129319357626615, 'lng':107.59383697926557}",-6.912931936,107.593837,https://maps.app.goo.gl/q3HuALTfusgqnToC9,https://lh5.googleusercontent.com/p/AF1QipOXRTgkbar6_x9jxr0TfLUdrYGBly_Vkchgl2EZ=w122-h92-k-no
63,Warung Taru,4.3,Sundanese,"Coblong, Kota Bandung","Warung Taru menyajikan hidangan standar sarapan Indonesia seperti nasi uduk, nasi kuning, dan roti bakar. Namun, yang membuatnya istimewa adalah pemandangannya yang khas Bandung. Menikmati teh hangat di pagi hari sambil melihat perbukitan dapat menambah kebijaksanaan dan kesenangan pada pengalaman makan Anda.","{'lat':-6.8518420447829484, 'lng':107.61870317206555}",-6.851842045,107.6187032,https://maps.app.goo.gl/5zDDYTp4fRF4hZhW8,https://lh5.googleusercontent.com/p/AF1QipPiDZUdjzOIpImpCYl7-98hWvow5dHELmAe513z=w163-h92-k-no
64,Jiganasuki,4.6,Japanese,"Sukajadi, Kota Bandung","Restoran luas untuk makan daging bakar, hot pot & sushi sepuasnya di tempat bernuansa santai.","{'lat':-6.8723456925124395, 'lng':107.59552282284523}",-6.872345693,107.5955228,https://maps.app.goo.gl/56BApsPMPvGWxNXA8,https://lh5.googleusercontent.com/p/AF1QipMAdiBDQeP4lCcFffZub8D4gT8ECO_BIGPd95OS=w122-h92-k-no
65,Hong Sin Restaurant,4.2,Chinese,"Sumur Bandung, Kota Bandung","Bubur Hong Sin merupakan favorit di Kota Bandung, terkenal sebagai bubur malam karena buka pada malam hari. Ini merupakan sajian dari Restoran Hong Sin yang mengkhususkan diri dalam menyajikan Chinese Food. Bubur di Rumah Makan Hong Sin memiliki banyak pilihan, termasuk bubur ayam, bubur ikan, bubur sapi, bubur babi, bubur tirem, bubur pie tan, dan bubur samkitie.","{'lat':-6.90791114572921, 'lng':107.60479496253335}",-6.907911146,107.604795,https://maps.app.goo.gl/5EDt4QM872v2q6JJ6,https://lh5.googleusercontent.com/p/AF1QipMr5klPuls1Sol_4gygfBVWTShv81pjW9lTjzg-=w122-h92-k-no
66,Imperial Chinese Restaurant,4.5,Chinese,"Sumur Bandung, Kota Bandung","Restoran ini menawarkan menu dari negara yang identik dengan bambu dan panda. Makanan Cina yang kaya rasa dan lezat memberikan pengalaman seolah-olah Anda sedang mengunjungi negara tersebut. Harga menu makanan di sini relatif terjangkau, tergantung pada set menu yang Anda pesan. Ruang yang luas memberikan suasana yang nyaman, membuat Anda betah untuk berlama-lama di sini.","{'lat':-6.908747947770828, 'lng':107.6090095714825}",-6.908747948,107.6090096,https://maps.app.goo.gl/JEjxMU5Hq2iJJAtR6,https://lh5.googleusercontent.com/p/AF1QipNes-e3v8U9bhbcxLxKqXuA8WWSH302AtMtkoYI=w122-h92-k-no
67,Ahong Restaurant,4.5,Chinese,"Cicendo, Kota Bandung","Ahong Restaurant menyajikan beragam menu kuliner Tionghoa yang lezat, dengan gaya sajian khas yang dapat dinikmati. Restoran ini merupakan alternatif yang baik terutama karena lokasinya yang dekat dengan Stasiun Bandung. Selain menawarkan hidangan yang cocok sebagai comfort food, Ahong Restaurant juga menyajikan menu dengan porsi yang cukup besar. Dengan begitu, Anda bisa menikmati hidangan mereka sambil berbagi bersama teman atau keluarga.","{'lat':-6.902890302391534, 'lng':107.59678720552999}",-6.902890302,107.5967872,https://maps.app.goo.gl/zjTDS2xB9hbwNtNA9,https://lh5.googleusercontent.com/p/AF1QipOVt_shpDmR091MmuEGvUNupAfO0bpGBc-QOwGv=w163-h92-k-no
68,Giggle Box BIP - Bandung Indah Plaza (Bandung),4.3,Cafe,"Bandung Wetan, Kota Bandung","Menu di sini mencakup hidangan Western, Asia, dan Indonesian Food, baik itu untuk aneka snack, main course, dessert, maupun beragam minuman. Harga yang ditawarkan juga cukup ramah di kantong. Menurut ulasan pengunjung, selain menu yang beragam, tempat ini juga sangat cocok untuk bersantai sambil berburu foto dengan latar interior yang sangat instagramable.","{'lat':-6.898287815871483, 'lng':107.61027395416725}",-6.898287816,107.610274,https://maps.app.goo.gl/asxuWMSxq6H3GzR47,https://lh5.googleusercontent.com/p/AF1QipMNaa8JK9I84tsp20K1juO4UvFEdQh1SHc2rk4d=w194-h92-k-no
69,May Star Restaurant 23 Paskal,4.4,Chinese,"Andir, Kota Bandung","Ini adalah sebuah restoran makanan Cina klasik yang berlokasi di 23 Paskal Shopping Center, Lantai 1, Jl. Pasir Kaliki No. 25 – 27, Pasir Kaliki, Bandung. Restoran ini menyajikan berbagai menu lezat seperti nasi hainam, dim sum, udang goreng mentega, dan ayam nanjing. Restoran ini juga memiliki suasana yang nyaman dan bersih, meskipun tampak kuno. Restoran ini buka setiap hari dari jam 10:00 sampai 22:00. Jika Anda suka makanan Cina yang enak dan terjangkau, Anda bisa mencoba restoran ini. ","{'lat':-6.904563922757771, 'lng':107.59594428374015}",-6.904563923,107.5959443,https://maps.app.goo.gl/WpeR8kBKbXhDWfUv6,https://lh5.googleusercontent.com/p/AF1QipPe90KIVtnAQzHHvf1ImLYzQHqlsDxFbRi_wQKV=w122-h92-k-no
70,BMC 1928,4.3,Indonesian,"Sumur Bandung, Kota Bandung","sebuah restoran legendaris di Bandung yang berdiri sejak tahun 1928. Restoran ini terkenal dengan produk-produk susunya, seperti susu murni, yogurt, puff soup cream, kefir, dan milkshake. Restoran ini juga menyajikan berbagai menu makanan, seperti nasi hainam, dim sum, udang goreng mentega, ayam nanjing, dan kota. Restoran ini memiliki suasana yang nyaman dan bersih, dengan nuansa klasik dan musik live di malam hari. Anda bisa menemukan restoran ini di Jalan Aceh No. 30, Bandung. Restoran ini buka setiap hari dari jam 09:00 sampai 23:00²?. Jika Anda ingin menikmati minuman susu dan makanan lezat di tempat bersejarah, Anda bisa mengunjungi restoran ini.","{'lat':-6.902053489988893, 'lng':107.58161461331304}",-6.90205349,107.5816146,https://maps.app.goo.gl/CJgvw6ubwrXydawr8,https://lh5.googleusercontent.com/p/AF1QipOWV1_ZYvXqqX1r2QW5Y2qy_uWHq2w66A6WX1UV=w122-h92-k-no
71,Hotin,4.4,Chinese,"Andir, Kota Bandung","sebuah restoran makanan Cina klasik di Bandung. Restoran ini menyajikan berbagai menu lezat seperti nasi hainam, dim sum, udang goreng mentega, dan ayam nanjing. Restoran ini juga memiliki suasana yang nyaman dan bersih, meskipun tampak kuno. Anda bisa menemukan restoran ini di Jalan Jendral Sudirman No. 178-180, Kebon Jeruk, Andir, Bandung","{'lat':-6.908747947770828, 'lng':107.5951013619503}",-6.908747948,107.5951014,https://maps.app.goo.gl/SMsLPSKXdXtaZDjT6,https://lh5.googleusercontent.com/p/AF1QipNnDCSqwuvYecExlDGbhoJHeBjdgmYFqE1qrTRS=w122-h92-k-no
72,Sunda Bambu restaurant,3.8,Sundanese,"Sukajadi, Kota Bandung","Ini adalah salah satu rumah makan Sunda yang populer dan terjangkau di kota kembang. Rumah makan ini menyajikan berbagai menu khas Sunda seperti gurame goreng, kangkung pedas, pepes jamur, dan nasi liwet. Rumah makan ini juga memiliki suasana yang nyaman dan unik, karena menggunakan alas daun dan piring kaleng sebagai alat makan. ","{'lat':-6.883224820135404, 'lng':107.58456483957744}",-6.88322482,107.5845648,https://maps.app.goo.gl/rWbue8nkC9XiNvWcA,https://lh5.googleusercontent.com/p/AF1QipOpRfsflshatpRaG0N0dc-CuBx8EPSxC0toML9b=w122-h92-k-no
73,Cuisine Momiji Cafe Bandung,4.3,Cafe,"Coblong, Kota Bandung","Cafe yang menyajikan makanan Jepang dengan harga terjangkau. Cafe ini berlokasi di Dago Yui Café, Jalan Badak Singa No. 2, Dago Bawah, Bandung. Cafe ini buka setiap hari dari jam 11:00 sampai 23:00. Beberapa menu yang populer di Cafe ini adalah suki, yaki udon, dan hotplate. Cafe ini memiliki suasana yang cozy dan bersih, dengan wifi, area merokok, dan parkir lot.","{'lat':-6.886572193870874, 'lng':107.61491002401132}",-6.886572194,107.61491,https://maps.app.goo.gl/rdG7DFFyWD5gW59y9,https://lh5.googleusercontent.com/p/AF1QipN7ELprdGuz2E6OSRBpv9NgMjkT5rBAGy9sTZRg=w137-h92-k-no
74,He Fu Restaurant,4.4,Chinese,"Andir, Kota Bandung","Tempatnya luas dengan dekorasi yang khas restoran Chinese Food, didominasi warna merah dan emas, menciptakan suasana meriah dan hangat. Ruang VIP yang tersedia dapat menampung hingga sekitar 40 orang. Pada dinding sebelah kanan, terdapat lukisan-lukisan artistik yang khas Cina, masing-masing dengan filosofi tersendiri. Keunikan ini membuat kita menyukai makanan Chinese karena selain enak dan menarik secara visual, setiap hidangan juga membawa filosofi yang mendalam. Pembahasan mengenai filosofi dalam hidangan Chinese Food sangatlah luas dan kompleks, menunjukkan betapa mendalamnya warisan budaya dalam setiap aspek kuliner mereka.","{'lat':-6.904982326924403, 'lng':107.59678720552999}",-6.904982327,107.5967872,https://maps.app.goo.gl/19gnNZ7i3WFEnL7s8,https://lh5.googleusercontent.com/p/AF1QipMsWJFjNPfq3sjPbt225c088FW7xoP2oKmspFPp=w138-h92-k-no
75,Hara Café & Resto,4.5,Cafe,"Sukasari, Kota Bandung","Hara Cafe & Resto adalah restoran modern dan bergaya yang terletak di lantai lobi Kollektiv Hotel. Dengan area tempat duduk yang luas, koneksi Wi-Fi yang cepat, dan tentu saja estetika yang Instagrammable. Nuansa Skandinavia yang minimalis tercipta melalui dominasi warna putih dan material kayu, sementara sentuhan tanaman hijau menambahkan keindahan pada atmosfernya.","{'lat':-6.866906035312932, 'lng':107.58835798763167}",-6.866906035,107.588358,https://maps.app.goo.gl/BZESXCmm8JQoKdj7A,https://lh5.googleusercontent.com/p/AF1QipPtMPlFNC27CBVmZSKPfFla6-ovjjcXUJxCIMou=w122-h92-k-no
76,The Restaurant at The Trans Luxury Hotel Bandung,4.6,Cafe,"Batununggal, Kota Bandung","Silakan masuk ke The Restaurant dan rasakan pengalaman prasmanan mewah dengan hidangan yang disajikan dari bahan-bahan terbaik dan segar. Puaskan selera Anda dengan berbagai masakan Asia dan Barat, termasuk live cooking station, daging panggang yang lezat, pasta buatan sendiri, sushi dan sashimi segar, hidangan lokal terbaik, dan masih banyak lagi. Jangan lupa untuk melengkapinya dengan berbagai pilihan kue manis di toko kue, di mana Anda dapat menikmati kue-kue hangat, hidangan dicelupkan dalam air mancur coklat, serta beragam kue lezat lainnya yang diproduksi setiap hari oleh koki kue yang berdedikasi.","{'lat':-6.916697493283989, 'lng':107.63724745144182}",-6.916697493,107.6372475,https://maps.app.goo.gl/BXQPx9x4qLMWyUq87,https://lh5.googleusercontent.com/p/AF1QipMw4AH4RYFl7UzJN-zvc8TjWBG7cip5YUwH-aeZ=w170-h92-k-no
77,The 18th Restaurant and Lounge,4.5,Western,"Batununggal, Kota Bandung","Restoran ini menawarkan sebuah lounge teras yang mengagumkan sepanjang 100 meter, terletak di lantai 18 Trans Luxury Hotel, Bandung. Menyajikan pengalaman santai di bar dan ruang makan yang elegan, restoran ini memenuhi kebutuhan baik acara intim A La Carte maupun acara kelompok. Dengan pilihan Makanan & Minuman yang canggih, restoran ini dapat memenuhi kebutuhan Anda atau klien Anda, baik untuk keperluan bisnis maupun liburan. Nikmatilah masakan Internasional yang luar biasa, layanan yang sempurna, dan pemandangan kota yang memukau.","{'lat':-6.915860705317548, 'lng':107.63345430338758}",-6.915860705,107.6334543,https://maps.app.goo.gl/GXprNT39db9UeD996,https://lh5.googleusercontent.com/p/AF1QipMDSWg_XguOaBzJNtplLuX_nopxPtewR7SgemKi=w138-h92-k-no
78,Kedai Rimbun Restaurant,4.4,Indonesian,"Sukajadi, Kota Bandung","Nikmatilah pengalaman bersantap di restoran Kedai Rimbun yang menghidangkan aneka hidangan Nusantara yang lezat. Anda dapat menikmati berbagai menu spesial, termasuk beberapa hidangan khas Bandung yang terkenal seperti Nasi Liwet, ayam bakar, gurame goreng, Soto Bandung, dan sebagainya.","{'lat':-6.870671958462812, 'lng':107.58203607420795}",-6.870671958,107.5820361,https://maps.app.goo.gl/QV6bvPcsiC7QLd4u9,https://lh5.googleusercontent.com/p/AF1QipMwx3t20AvB_6sA_8PAL-T312WRP4WlmvXS5fvG=w122-h92-k-no
79,Roemah Legit,4.6,Indonesian,"Sumur Bandung, Kota Bandung","Kelebihan dari restoran ini adalah suasana yang nyaman, yang menjadi nilai tambah bagi pengunjung yang ingin benar-benar menikmati waktu santai bersama teman atau keluarga. Dengan beragam kuliner khas Indonesia, restoran ini menjadi pilihan utama bagi banyak pengunjung yang merindukan cita rasa khas dari berbagai daerah. Mulai dari masakan Padang, Manado, Sumatera, Jakarta, dan daerah lainnya, semua tersedia lengkap di restoran ini!","{'lat':-6.904982326924403, 'lng':107.61575294580115}",-6.904982327,107.6157529,https://maps.app.goo.gl/ZDW9ycWq7wJ6Cavv6,https://lh5.googleusercontent.com/p/AF1QipOXBF2O60oBRZSPwGNfySn_ModZ6j1zmze1g1vL=w122-h92-k-no
80,Pepper Lunch,4.1,Japanese,"Batununggal, Kota Bandung","Restoran ini menawarkan berbagai macam jenis makanan dan minuman, termasuk aneka nasi, ayam bebek, burger, sandwich, dan steak dengan sentuhan cita rasa Jepang, yang cocok dinikmati bersama teman atau sahabat. Tempat makan ini menyajikan berbagai menu masakan yang lezat dan nikmat, sementara harganya tetap terjangkau untuk berbagai kalangan.","{'lat':-6.881969548897625, 'lng':107.59299405747574}",-6.881969549,107.5929941,https://maps.app.goo.gl/8Lte8XeYBbv5W7kB7,https://lh5.googleusercontent.com/p/AF1QipNW2Vn3mNHbTn2JC2Duwzz23zpdVLzPt0zrCVjJ=w92-h92-k-no
81,KARE Curry House,4.4,Japanese,"Andir, Kota Bandung","KARE Curry House adalah restoran Jepang yang menghidangkan makanan khas Jepang dengan fokus pada hidangan kare. Di sini, Anda dapat mencoba Chicken Curry atau Beef Curry disajikan dengan nasi atau udon. Selain hidangan berbasis kare, restoran ini juga menyediakan pilihan makanan non-kare seperti Teriyaki, BBQ, dan Tonkatsu.","{'lat':-6.905819134147613, 'lng':107.59636574463507}",-6.905819134,107.5963657,https://maps.app.goo.gl/jc2kvk1kK5vdXmDSA,https://lh5.googleusercontent.com/p/AF1QipNAF7Zgl01U3x-5dsbLnrBbOp0RAGHuCpzKVtYP=w122-h92-k-no
82,Chingu Cafe,4.4,Korean,"Bandung Wetan, Kota Bandung","Restoran Korea ini menonjol dengan hidangan kelas atas dan ruang makan individu yang bernuansa K-pop, menciptakan pengalaman makan yang unik dan menyenangkan.","{'lat':-6.89619576175592, 'lng':107.61195979774692}",-6.896195762,107.6119598,https://maps.app.goo.gl/XZ6eZ5V3BFMLiw2f9,https://lh5.googleusercontent.com/p/AF1QipOBu1b-UgYVOHVLecODJgZj-q_LXqkcOn08iOYB=w122-h92-k-no
83,Pasar Cisangkuy | Food Market,4.3,Indonesian,"Bandung Wetan, Kota Bandung","Tidak selalu harus menuju ke Dago, Braga, atau Cihampelas, karena ada banyak pilihan tempat makan di Cisangkuy, Bandung. Terletak di pusat kota, Jalan Cisangkuy menghubungkan beberapa destinasi wisata seperti Gedung Sate, Taman Lansia, dan Museum Geologi. Tidak mengherankan jika di sepanjang kanan-kiri jalan terdapat banyak pilihan jajanan ringan hingga rumah makan. Selain itu, di sini juga terdapat Pasar Cisangkuy yang menjadi pusat makanan enak.","{'lat':-6.896614173318232, 'lng':107.63218992070284}",-6.896614173,107.6321899,https://maps.app.goo.gl/F4XGk2hct1pHk7D67,https://lh5.googleusercontent.com/p/AF1QipMJF97rxE3oCFXgLhY1Ey2HU4PIUpwXUCKxaCbH=w122-h92-k-no
84,HDL 293 Seafood,4.3,Seafood,"Bandung Wetan, Kota Bandung",Rumah makan ini merupakan tempat yang nyaman untuk menikmati berbagai hidangan seafood segar dan aneka minuman segar.,"{'lat':-6.888245871882184, 'lng':107.62376070280453}",-6.888245872,107.6237607,https://maps.app.goo.gl/S8p4ryjNJtmPHmZF9,https://lh5.googleusercontent.com/p/AF1QipPns_5nOit5DhJVxgRHDom6NZDeGfx6ahFLmsOE=w163-h92-k-no
85,Cafe D'Pakar,4.5,Indonesian,"Ciburial, Kota Bandung","Di sini, Anda dapat menemukan berbagai pilihan makanan, mulai dari roti bakar, singkong rebus, olahan mi instan, hingga hidangan berat yang siap menemani quality time Anda. Tidak hanya sebagai destinasi kuliner, Cafe yang berlokasi di Jalan Dago Pakar Utara, Sakejorang, Ciburial, Bandung, juga menambahkan sejumlah atraksi wisata lainnya yang dikenal sebagai Lembah Fantasi. Di dalam Lembah Fantasi, pengunjung dapat menemukan wahana yang mirip negeri dongeng, seperti rumah Hobbit dan rumah Hansel Gretel, yang menjadi daya tarik tersendiri.","{'lat':-6.8376145056047255, 'lng':107.65368442634349}",-6.837614506,107.6536844,https://maps.app.goo.gl/1HYTDbMtEFJxEsYp8,https://lh5.googleusercontent.com/p/AF1QipMMpWjO81B4lIjKWUQ6o6gdg2B_4VHV_iZ6ZDRL=w163-h92-k-no
86,Fortunate Coffee Bandung,4.5,Cafe,"Sumur Bandung, Kota Bandung","Cafe vegetarian yang menyajikan kopi arabika segar, the, dan minuman sehat lainnya, serta roti, makanan, dan camilan yang tidak mengandung bahan hewani. Cafe ini berlokasi di Jalan Kebon Sirih No. 21A, Cicendo, Bandung. Cafe ini buka setiap hari dari jam 10:00 sampai 21:00. Beberapa menu yang populer di Cafe ini adalah classic elegant, beancurd spaghetti, dan kwetiau siram. Cafe ini memiliki suasana yang nyaman dan bersih, dengan nuansa lucu dan alat makan yang unik.","{'lat':-6.908329546935115, 'lng':107.59215113568591}",-6.908329547,107.5921511,https://maps.app.goo.gl/UsTY868K5jzHZJ6T9,https://lh5.googleusercontent.com/p/AF1QipOBmlM2XbD2axVysPUggBHZ_eGZjcqNlQGuyEWp=w163-h92-k-no
87,Above and Beyond Paskal Hyper Square,4.5,Western,"Cicendo, Kota Bandung","Di Above and Beyond, Anda akan menemukan berbagai pilihan menu yang mencakup hidangan Asia, Indonesia, Western, dan fusion antara ketiganya. Beberapa pilihan makanan unik yang bisa Anda nikmati termasuk Memphis BBQ Pulled Beef, Scrambled Salmon Croissant, atau pilihan Indonesia seperti tahu cabai garam.","{'lat':-6.906655939890582, 'lng':107.59004383121133}",-6.90665594,107.5900438,https://maps.app.goo.gl/8vtieSJLT6XbCzv77,https://lh5.googleusercontent.com/p/AF1QipNAVatN8j7gc_QGFyBIN0vtr33hvS0lE7zQLg-2=w122-h92-k-no
88,Yogurt Columbia,4.3,Indonesian,"Bandung Wetan, Kota Bandung","Restoran yang menyajikan yogurt buatan sendiri yang lezat dan sehat, serta makanan Indonesia yang enak. Restoran ini berlokasi di Jalan Ir. H. Juanda No. 105, dekat dengan Masjid Salman ITB. Restoran ini buka setiap hari dari jam 07:30 sampai 19:00. Beberapa menu yang populer di restoran ini adalah yogurt lici, yogurt kota, dan lumpia. Restoran ini memiliki suasana yang nyaman dan bersih, dengan nuansa klasik dan alat makan yang unik.","{'lat':-6.8869906139273285, 'lng':107.61280271953673}",-6.886990614,107.6128027,https://maps.app.goo.gl/WXrFwrPAj4C4r8CWA,https://lh5.googleusercontent.com/p/AF1QipNsEdzWoSq-yyqeRU4jxdmZSlWr7KY-RQfb7D1L=w122-h92-k-no
89,Pasadena Steak Bandung,4.5,Steak,"Sukajadi, Kota Bandung","Restoran sederhana ini menyajikan hidangan steak rumahan lengkap dengan kentang goreng, saus, dan variasi pasta.","{'lat':-6.876948430759986, 'lng':107.59383697926557}",-6.876948431,107.593837,https://maps.app.goo.gl/nzpLxDwdkvkf8KGG8,https://lh5.googleusercontent.com/p/AF1QipNyx9nhnBlIYFV4XyeVkgxB-rS07JTDoy_xHpr3=w122-h92-k-no
90,Justus Steak House Braga,4.5,Steak,"Sumur Bandung, Kota Bandung","Restoran ini terkenal dengan hidangan steak berkualitas tinggi. Justus Steak House Braga menyajikan berbagai jenis daging pilihan yang diolah dengan sempurna, menjadikannya tempat yang ideal bagi para pencinta steak.","{'lat':-6.911258345009883, 'lng':107.60479496253335}",-6.911258345,107.604795,https://maps.app.goo.gl/MKvrTAozuXEYSx8k9,https://lh5.googleusercontent.com/p/AF1QipN8YGG4CorZkDFrOIphM7KdCglqJ0fFDbwlccr5=w163-h92-k-no
91,Padang Merdeka Bandung,4.6,Indonesian,"Bandung Wetan, Kota Bandung","Padang Merdeka terletak di Jalan Diponegoro Kel No.7, Citarum, Kecamatan Bandung Wetan, Kota Bandung, Jawa Barat. Restoran ini buka setiap hari mulai pukul 10.00 hingga 22.00. Padang Merdeka mengusung konsep warung Padang dengan menu-menu yang dihidangkan di atas meja.","{'lat':-6.8903379610906255, 'lng':107.61659586759097}",-6.890337961,107.6165959,https://maps.app.goo.gl/fkBaCkcBm4Ahytsv5,https://lh5.googleusercontent.com/p/AF1QipPMcOIZKDe1v-XwJZ4TuEZQbKt-lINJJZHBmmWH=w122-h92-k-no
92,Alam Desa (Sundanese Resto),4.1,Sundanese,"Bandung Kulon, Kota Bandung","Restoran yang menyajikan makanan khas Sunda yang lezat dan terjangkau. Restoran ini berlokasi di Jl. Nana Rohana No.60, Bandung. Restoran ini buka setiap hari dari jam 10:00 sampai 17:00. Beberapa menu yang populer di restoran ini adalah gurame bakar, kangkung pedas, dan pepes jamur. Restoran ini memiliki suasana yang nyaman dan unik, karena menggunakan alas daun dan piring kaleng sebagai alat makan,","{'lat':-6.91418712493778, 'lng':107.57824292615372}",-6.914187125,107.5782429,https://maps.app.goo.gl/qh3Q7Jaf8SuR7yez5,https://lh5.googleusercontent.com/p/AF1QipMAA08K4lghfPC9RAEruxknE7I-btFl0w-ADm4k=w138-h92-k-no
93,Naima Bandung,4.4,Western,"Buahbatu, Kota Bandung","Bandung, yang sering disebut sebagai Paris Van Java, terus menghadirkan tempat-tempat nongkrong dengan konsep yang unik dan menarik. Salah satunya adalah Naima Resto di kawasan Bandung Timur, yang kini menjadi tempat nongkrong yang sedang hits di media sosial. Naima Resto terkenal karena konsepnya yang berbeda dari tempat lainnya. Restoran ini mengusung konsep middle eastern casual dining, memberikan pengalaman seolah-olah berada di Negeri 1001 Malam.","{'lat':-6.937616710169148, 'lng':107.66000633976722}",-6.93761671,107.6600063,https://maps.app.goo.gl/9pFCzrPSMhyXc7TJ6,https://lh5.googleusercontent.com/p/AF1QipNNOwT9qy_s_pWjbYr14wr6Ns6blRilDB9DXnKy=w122-h92-k-no
94,Hongkong Restaurant,4.5,Chinese,"Astanaanyar, Kota Bandung","Restoran yang memiliki ruangan yang luas dan cocok untuk berbagai acara, menawarkan beragam menu hidangan China, termasuk pork hong.","{'lat':-6.916279099486068, 'lng':107.59973743179438}",-6.916279099,107.5997374,https://maps.app.goo.gl/z3wwKvUVjJ2Qx6zF7,https://lh5.googleusercontent.com/p/AF1QipPRHbJIucHceFJTu_FMQGyP9ts6HG0F5CpVg1XD=w122-h92-k-no
95,Ambrogio Patisserie,4.6,Cafe,"Bandung Wetan, Kota Bandung","Desain Cafe yang instagramable dan estetik dapat menciptakan suasana yang membuat kita betah berlama-lama. Saat memasuki ruangan cafe, kita akan disambut oleh display case patisserie yang menarik dan dihiasi dengan wangi butter yang menggugah selera. Beberapa pilihan menu yang bisa dicoba meliputi soto Betawi, iga garang asam, thai beef salad, thai beef rice, teh earl grey lavender, dan kopi es gula malaka.","{'lat':-6.902053489988893, 'lng':107.66632825319095}",-6.90205349,107.6663283,https://maps.app.goo.gl/2XtnnNcFmJJH3Big6,https://lh5.googleusercontent.com/p/AF1QipPF0UYQk3qn79zpXy_T1Fr6rVOdi5TAXCqoq04B=w92-h92-k-no
96,Hachi Grill Sutami Bandung,4.8,Korean,"Sukasari, Kota Bandung","Restoran BBQ Jepang yang santai menyajikan daging halal, serta dilengkapi dengan meja pemanggang dan area teras.","{'lat':-6.865232282121466, 'lng':107.58709360494692}",-6.865232282,107.5870936,https://maps.app.goo.gl/1UXgA3JVA46aEytj8,https://lh5.googleusercontent.com/p/AF1QipMsCwgKzVMQZiTQBE0qyU0i4ED3Bxc47IEC76uc=w122-h92-k-no
97,Shu Guo Yin Xiang Bandung,4.6,Chinese,"Coblong, Kota Bandung","Restoran modern dengan desain kontemporer yang menyajikan berbagai hidangan, termasuk sup, hot pot, dan hidangan tahu khas.","{'lat':-6.87904056976898, 'lng':107.61364564132657}",-6.87904057,107.6136456,https://maps.app.goo.gl/HXfE2Lv1v7fFyxhs8,https://lh5.googleusercontent.com/p/AF1QipM2CNaNduzgyNcTrKC5M3NIyY3Zgkmpifx-FenK=w122-h92-k-no
98,Kampung Muara Sunda Bandung,4.4,Sundanese,"Sumur Bandung, Kota Bandung","Restoran yang menyajikan makanan khas Sunda yang lezat dan terjangkau. Restoran ini berlokasi di Jl. Sumbawa No. 14, Riau, Bandung. Restoran ini buka setiap hari dari jam 10:00 sampai 21:00. Beberapa menu yang populer di restoran ini adalah gurame bakar, kangkung pedas, dan pepes jamur. Restoran ini memiliki suasana yang nyaman dan unik, karena menggunakan alas daun dan piring kaleng sebagai alat makan.","{'lat':-6.908329546935115, 'lng':107.61617440669605}",-6.908329547,107.6161744,https://maps.app.goo.gl/JchJAYUNFQebuPgd6,https://lh5.googleusercontent.com/p/AF1QipM59n3gimThhH6MdD_Rr1XF-_lH23nNFdGj942f=w323-h92-k-no
99,KFC Riau Bandung,4.5,Indonesian,"Bandung Wetan, Kota Bandung","Franchise restoran yang terkenal dengan ember ayam goreng, hidangan kombo, dan hidangan sampingan bisa jadi adalah KFC (Kentucky Fried Chicken). KFC dikenal sebagai restoran cepat saji yang mengkhususkan diri dalam hidangan ayam goreng dengan resep rempah khas mereka.","{'lat':-6.893266870473548, 'lng':107.62165339832995}",-6.89326687,107.6216534,https://maps.app.goo.gl/YVihuzw5kpHDgM3f9,https://lh5.googleusercontent.com/p/AF1QipMBufs3USv9GEgKqS4ttxZ-nkzMPnqOj-wAfCw8=w163-h92-k-no
100,Korean House Bandung,4.7,Korean,"Sukajadi, Kota Bandung","Korean House mempertahankan ciri khas tradisional Korea dengan menonjolkan jendela kayu berukuran besar di beberapa sudut ruangan. Beberapa menu yang menjadi signature di Korean House termasuk bulgogi (sirloin bakar), galbi (iga bakar), Dak Thwi Gim (ayam goreng madu), Jap Chae (bihun goreng khas Korea), Sam Gye Thang (sup ayam ginseng), Mul Neng Myon (bihun dingin), dan berbagai hidangan lainnya yang mencerminkan kekayaan kuliner Korea.","{'lat':-6.874019420669278, 'lng':107.59720866642489}",-6.874019421,107.5972087,https://maps.app.goo.gl/qUf76MbWe3zcMNLE7,https://lh5.googleusercontent.com/p/AF1QipNtvNiLMZyBN8Y1KACZdf9q4UuY-s6bNb5_pTzk=w163-h92-k-no
101,Balista Sushi & Tea Bandung - Jalan Ambon,4.2,Japanese,"Bandung Wetan, Kota Bandung","Balista Signature adalah Cafe yang menghidangkan ramen dan sushi, dengan menu dessert yang sangat diminati, yaitu dessert batox manis. Dessert ini disajikan dalam bentuk batok kelapa muda dan tersedia dalam 4 pilihan es krim, yaitu coklat, stroberi, green tea, dan vanila, dengan 42 pilihan topping yang berbeda.","{'lat':-6.897032584510964, 'lng':107.61659586759097}",-6.897032585,107.6165959,https://maps.app.goo.gl/5Y55YVb1JkhdZ5jd7,https://lh5.googleusercontent.com/p/AF1QipNYLVoYh5UsnzksE0-5JJ3upmugp0Y7SfPMvqGN=w163-h92-k-no
102,The Kiosk Setiabudhi,4.2,Indonesian,"Cidadap, Kota Bandung","Restoran ini menawarkan berbagai macam menu makanan dan minuman khas Bandung, dihadirkan dalam konsep taman kota yang bersuasana sejuk.","{'lat':-6.872764125104148, 'lng':107.60310911895371}",-6.872764125,107.6031091,https://maps.app.goo.gl/3o53DWd6aGzrNMBX9,https://lh5.googleusercontent.com/p/AF1QipMcFXXCBoU1E38eTBcPMHsxWfs5RnYI86MNuGEY=w154-h92-k-no
103,Rumah Miring,4.4,Indonesian,"Lembang, Kabupaten Bandung Barat","Rumah Miring adalah salah satu tempat makan yang populer karena menawarkan pemandangan alam yang indah dan udara yang sejuk. Pengunjung dapat menikmati pemandangan sawah yang masih hijau dan asri di sekitarnya. Banyak orang yang betah berlama-lama menikmati suasana di tempat makan ini. Rumah Miring memiliki berbagai variasi makanan yang dapat dicoba, mulai dari menu Asia hingga masakan Barat.","{'lat':-6.834685253744788, 'lng':107.631346998913}",-6.834685254,107.631347,https://maps.app.goo.gl/v5QeFEFqmsP1NXni8,https://lh5.googleusercontent.com/p/AF1QipPzKoPBCC1w-MC0t8Rkf5sycUwVchq7T-b_FTFK=w163-h92-k-no
104,Goldstar 360,4.3,Indonesian,"Sukajadi, Kota Bandung","Restoran ini menyajikan beragam hidangan mulai dari ala Barat, Asia, Nusantara, hingga Santorini. Steak dan sop iga menjadi favorit yang banyak dipesan oleh pelanggan. Namun, bagi yang ingin mencoba rasa baru, disarankan untuk mencicipi salah satu menu ala Santorini yang dapat memanjakan lidah. Selain itu, pilihan minuman cukup beragam, mulai dari kopi dengan berbagai varian, aneka minuman cokelat, hingga mocktail.","{'lat':-6.874856282537459, 'lng':107.58161461331304}",-6.874856283,107.5816146,https://maps.app.goo.gl/Gpo4BmES3xML16Q96,https://lh5.googleusercontent.com/p/AF1QipNkcdCJCtWNLtGck491TqdubmDuoeqZ5490csbK=w163-h92-k-no
105,Giggle Box Ciwalk - Bandung,4.2,Cafe,"Coblong, Kota Bandung","Cafe yang menyajikan berbagai menu Cafe, seperti kopi, the, minuman, roti, makanan, dan camilan. Cafe ini berlokasi di Cihampelas Walk, Lantai Lower Ground, Broadway Street, Jl. Cihampelas No. 160, Cihampelas, Bandung. Cafe ini buka setiap hari dari jam 10:00 sampai 20:30. Beberapa menu yang populer di Cafe ini adalah chicken cordon bleu, chicken schnitzel, ice americano, dan milky cotton candy.","{'lat':-6.884898509954816, 'lng':107.60985249327234}",-6.88489851,107.6098525,https://maps.app.goo.gl/8uCmbrdqm1NkA8BR6,https://lh5.googleusercontent.com/p/AF1QipNqB1--Hq5TaWeZb-irI725Z93ZPtZVanELQBvn=w163-h92-k-no
106,A&W Restoran - Bandung Indah Plaza,4.1,Cafe,"Bandung Wetan, Kota Bandung","A&W Restoran adalah salah satu restoran siap saji yang legendaris di Indonesia, sejajar dengan KFC dan McDonald's. Keistimewaan rempah dan kerenyahannya pada ayam A&W memberikan pengalaman unik, terlebih lagi dengan kehadiran menu khas seperti burger dan curly fries. Selain hidangan utama, waffle dan es krim di sini juga terkenal lezat, menciptakan rasa kangen yang menyenangkan.","{'lat':-6.8987062255856895, 'lng':107.61280271953673}",-6.898706226,107.6128027,https://maps.app.goo.gl/CZod9uPzZtXJG8iz8,https://lh5.googleusercontent.com/p/AF1QipPYVxRnW6qXXGPmMHBBESo3udvRAP9iPOeDb0k=w163-h92-k-no
107,"Sejiwa Coffee, Progo",4.4,Cafe,"Bandung Wetan, Kota Bandung","Tempat nongkrong bersuasana nyaman dan casual, menyajikan kopi, teh, dan aneka dessert dan snack.","{'lat':-6.897032584510964, 'lng':107.6203890156452}",-6.897032585,107.620389,https://maps.app.goo.gl/adonjuF23BmhbxhJ6,https://lh5.googleusercontent.com/p/AF1QipNbdZlWZ880xwO7fkEOlpIz5Pbtgo3dhOk86vRl=w122-h92-k-no
108,Sin Sin Chinese Food Restaurant,4.5,Chinese,"Andir, Kota Bandung",Tempat makanan khas Chinese food,"{'lat':-6.907074342206919, 'lng':107.59467990105539}",-6.907074342,107.5946799,https://maps.app.goo.gl/NYBLLhw6tpSQfbCr7,https://lh5.googleusercontent.com/p/AF1QipPP71nVMNCk2Bj-RSqeXYil2_rVlvbgkoaxHyBb=w80-h106-k-no
109,Giggle Box - Braga City Walk Bandung,4.4,Indonesian,"Sumur Bandung, Kota Bandung","Menu di sini mencakup hidangan Western, Asia, dan Indonesian Food, baik itu untuk aneka snack, main course, dessert, maupun beragam minuman. Harga yang ditawarkan juga cukup ramah di kantong. Menurut ulasan pengunjung, selain menu yang beragam, tempat ini juga sangat cocok untuk bersantai sambil berburu foto dengan latar interior yang sangat instagramable.","{'lat':-6.909166348236324, 'lng':107.60943103237742}",-6.909166348,107.609431,https://maps.app.goo.gl/fUWGz9P5heitnDbU7,https://lh5.googleusercontent.com/p/AF1QipOikgEA1VmWdTiCbH-U-PK_GWkeCOXlWytpqNVH=w122-h92-k-no
110,Saung Galih,4.2,Sundanese,"Ngamprah, Kabupaten Bandung Barat","Saung Galih adalah Sundanese restaurant yang terletak di Jalan Raya Pasirkihiang No.67, Desa Merkarsari, yang menawarkan pengalaman kuliner yang menyenangkan. Dengan rating 4.2, tempat ini telah menjadi favorit di kalangan penduduk lokal dan pengunjung. Nikmati diri Anda dalam cita rasa masakan Sunda yang kaya sambil menikmati suasana tenang.","{'lat': -6.831518553971285, 'lng': 107.50510609579862",-6.831518554,107.5051061,https://maps.app.goo.gl/8RtzKgv2s4hksw5s6,https://lh5.googleusercontent.com/p/AF1QipMM9knKeb_cwww5LBYesMiTPVf1YXMlkjn2SvAs=w408-h725-k-no
111,Rumah Makan Saung T&T,4.3,Indonesian,"Cisarua, Kabupaten Bandung Barat","Untuk pengalaman bersantap yang ramah keluarga, tidak perlu mencari tempat lain selain Rumah Makan Saung T&T. Berlokasi di Jalan Ciloa No.km. 3, restoran ini memiliki rating 4.3 yang patut dipuji. Lokasinya yang strategis, dan suasananya yang ramah menjadikannya tempat yang ideal bagi keluarga untuk berkumpul dan menikmati berbagai hidangan lezat.","{'lat': -6.824019020079131, 'lng': 107.51986897478876}",-6.82401902,107.519869,https://maps.app.goo.gl/D9nppJCekvo9T24JA,https://lh5.googleusercontent.com/p/AF1QipNGYDppezsd3nZrIMaxfgTt3O7iCHWxh2otAuWf=w408-h544-k-no
112,Lisung Gunung Resto,4.6,Sundanese,"Parongpong, Kabupaten Bandung Barat","Lisung Gunung Resto, yang terletak di Jalan Kolonel Masturi No.171, merupakan restoran terkemuka dengan rating 4.6 yang luar biasa. Menawarkan menu yang khas masakan sunda. Lisung Gunung Resto di Jawa Barat menyediakan suasana yang mengundang bagi para pengunjung untuk menikmati makanan mereka.","{'lat': -6.802773016548853, 'lng': 107.59440094117126}",-6.802773017,107.5944009,https://maps.app.goo.gl/sN8UjdR3VSwucQwh9,https://lh5.googleusercontent.com/p/AF1QipP1gE43ChPCtsBk-Uwp6WoM6sdLLJwIZ6p-2nDo=w408-h509-k-no
113,RM. Kiambang Raya,4.5,Indonesian,"Ngamprah, Kabupaten Bandung Barat","Manjakan diri Anda dengan sajian masakan Padang yang kaya rasa di RM. Kiambang Raya. Dengan rating 4,5, restoran yang terletak di Jalan Raya Cimareme No.256, telah mendapatkan reputasi positif di kalangan penggemar makanan. Menu yang beragam dan suasana yang mengundang membuat RM. Kiambang Raya menjadi tujuan utama bagi mereka yang mendambakan cita rasa Padang yang otentik.","{'lat': -6.8637008217414195, 'lng': 107.50483933640129}",-6.863700822,107.5048393,https://maps.app.goo.gl/5oCuAMZcx7XGeMYH6,https://lh5.googleusercontent.com/p/AF1QipN__eLKJVFeDkvaWGcuxa9Xv3Tga4aNcrowXa0=w408-h544-k-no
114,Purbasari Makan Di Tepi Danau,4.3,Sundanese,"Cisarua, Kabupaten Bandung Barat","Purbasari menawarkan pengalaman bersantap yang fantastis dengan pemandangan yang indah, tempat yang luas, dan staf yang penuh perhatian. Masakan Sunda, khususnya Gurame Abon Telur dan Udang Bakar, membuat pengulas terkesan dengan porsi yang memuaskan dan cita rasa yang patut dipuji. Meskipun harganya cukup terjangkau, kualitas restoran ini melampaui beberapa alternatif dengan harga yang lebih tinggi di daerah wisata lainnya. Secara keseluruhan, Purbasari direkomendasikan karena suasananya yang menyenangkan, hidangannya yang lezat, dan harganya yang terjangkau.","{'lat': -6.773087709679079, 'lng': 107.58016192969457}",-6.77308771,107.5801619,https://maps.app.goo.gl/RgiGxm4k5kcxUY7F9,https://lh5.googleusercontent.com/p/AF1QipM0QHMQBmD3Jujjgn5k1yetWUyXZNmJbr52Plp8=w408-h306-k-no
115,Saung Bbc,4,Sundanese,"Cisarua, Kabupaten Bandung Barat","Saung BBC adalah sebuah restoran khas Sunda yang terletak di Gantungan Purabaya. Tempat makan ini menjanjikan cita rasa masakan Sunda di daerah tertentu. Alamatnya yang terletak di lingkungan yang indah di Pasirhalang, menunjukkan bahwa Saung BBC menawarkan pengalaman kuliner yang otentik di Jawa Barat.","{'lat': -6.810588186684965, 'lng': 107.52797686907826}",-6.810588187,107.5279769,https://maps.app.goo.gl/3o7ERovkjq9goqnC6,https://lh5.googleusercontent.com/p/AF1QipPnxqaw_NP8ekOgglAB2vH9CjPSEqxVXHrXtx8a=w408-h544-k-no
116,Rumah Makan Alam Endah,4.2,Indonesian,"Cempakamekar, Kabupaten Bandung Barat","Rumah Makan Alam Endah, dengan rating 4.2, adalah restoran Ikan Bakar yang terletak di Jalan Raya Purwakarta No. 470, Padalarang. Restoran ini menjanjikan pengalaman bersantap yang menyenangkan, dengan spesialisasi ikan bakar.","{'lat': -6.8090051578297395, 'lng': 107.46199732290974}",-6.809005158,107.4619973,https://maps.app.goo.gl/PttyspieZneiXceX6,https://lh5.googleusercontent.com/p/AF1QipP-wNtTXyLzAOsVwh-OLcwacdJHEBZXWAI9AAdY=w408-h306-k-no
117,Saung Apung De Lempung Kuring,4.2,Indonesian,"Batujajar, Kabupaten Bandung Barat","Saung Apung De Lempung Kuring, yang memiliki rating 4,2, adalah restoran Ikan Bakar terkenal lainnya yang terletak di Jalan Pangauban, Pangauban, Kec. Batujajar, Kabupaten Bandung Barat. Terletak di tengah-tengah lingkungan Batujajar yang indah, restoran ini menawarkan suasana yang indah untuk melengkapi sajian ikan bakarnya.","{'lat': -6.87808164827596, 'lng': 107.44420611387838}",-6.878081648,107.4442061,https://maps.app.goo.gl/mHSe4xnjmUvcbbGc6,https://lh5.googleusercontent.com/p/AF1QipOPuEpX4lWCSRId0qOmPbjvIvw1QZM9Dqvl0A-K=w408-h306-k-no
118,Rumah Makan Pulen Ciampel,4.3,Sundanese,"Padalarang, Kabupaten Bandung Barat","Rumah Makan Pulen Ciampel, dengan rating 4,3 yang mengesankan, menonjol sebagai Sundanese restaurant. Terletak di Jalan Batujajar, dikenal dengan masakan Sunda, restoran ini memastikan pengalaman kuliner yang beraroma dan otentik di lokasi yang menambah pesonanya.","{'lat': -6.880346097616069, 'lng': 107.5041557075651}",-6.880346098,107.5041557,https://maps.app.goo.gl/rf3kxgji7oVM4uHL7,https://lh5.googleusercontent.com/p/AF1QipOKn9BXa7Wfp2wNGSGuxxWx9xu4fLqP-HObvu9j=w408-h306-k-no
119,RM Nasi Timbel,4.2,Sundanese,"Cipatat, Kabupaten Bandung Barat","RM Nasi Timbel, memiliki rating 4.2, adalah Sundanese restaurant terkenal yang terletak di Jalur Cikampek - Padalarang No.717, Sumurbandung, Kec. Cipatat, Kabupaten Bandung Barat. Mengkhususkan diri pada masakan Sunda, restoran ini menawarkan pengalaman penuh cita rasa di sepanjang jalur Cikampek-Padalarang.","{'lat': -6.776233190159921, 'lng': 107.43657491840399}",-6.77623319,107.4365749,https://maps.app.goo.gl/3UMtaKoiGAY7NEsGA,https://lh5.googleusercontent.com/p/AF1QipMmarqUu9UtcNBgfAGg_xh21fPvS-3jZ6HdNZk=w408-h544-k-no
120,TNT Saung Makan,4.1,Sundanese,"Cisarua, Kabupaten Bandung Barat","TNT Saung Makan, dengan rating 4.1, adalah Sundanese restaurant terkenal lainnya yang terletak di Pasirhalang, Cisarua, Kabupaten Bandung Barat. Dikenal dengan kelezatan kuliner Sunda, restoran ini menyediakan perjalanan yang gurih di lingkungan Pasirhalang yang indah.","{'lat': -6.830855765583905, 'lng': 107.52021420756417}",-6.830855766,107.5202142,https://maps.app.goo.gl/D9nppJCekvo9T24JA,https://lh5.googleusercontent.com/p/AF1QipNGYDppezsd3nZrIMaxfgTt3O7iCHWxh2otAuWf=w408-h544-k-no
121,Warung Nasi Liwet Saung Babakan Cinta,4.2,Sundanese,"Cisarua, Kabupaten Bandung Barat","Warung Nasi Liwet Saung Babakan Cinta, dengan rating 4.2, terletak di Jalan Ciloa No.km 6, Pasirhalang, Kec. Cisarua, Kabupaten Bandung Barat. Sundanese restaurant ini terkenal dengan Nasi Liwetnya yang lezat, menawarkan cita rasa masakan tradisional dalam suasana yang menawan.","{'lat': -6.805815561157234, 'lng': 107.52935016014709}",-6.805815561,107.5293502,https://maps.app.goo.gl/eB9DausKZQzDKhDS7,https://lh5.googleusercontent.com/p/AF1QipO2Lk9Q2jvcFWOc6lq9tUA3gMJJbPgU_lAHqm1o=w424-h240-k-no
122,Saung Pengkolan 1,4.2,Sundanese,"Lembang, Kabupaten Bandung Barat","Saung Pengkolan 1, yang juga memiliki rating 4.2, terletak di Jalan Raya Lembang KM.12,3 No.35, Gudangkahuripan, Kec. Lembang, Kabupaten Bandung Barat. Sundanese restaurant yang terletak di sepanjang jalan Raya Lembang ini memberikan pengalaman kuliner yang menyenangkan di lingkungan Lembang yang asri.","{'lat': -6.820133295270637, 'lng': 107.60076129572734}",-6.820133295,107.6007613,https://maps.app.goo.gl/cAUgq3xwfdppJB1t9,https://lh5.googleusercontent.com/p/AF1QipPUHHGxQA2lqUrqUUYoiDOv73AmxWdQtdM-HbdZ=w408-h306-k-no
123,Xpose Resto & Cafe,4.3,Cafe,"Cililin, Kabupaten Bandung Barat","Xpose Resto & Cafe, dengan rating 4.3 yang mengesankan, adalah restoran serbaguna yang terletak di Jalan Cintakarya, Cililin, Kec. Cililin, Kabupaten Bandung Barat. Menawarkan menu yang beragam, tempat ini menonjol karena keunggulan kulinernya di daerah Cililin yang semarak.","{'lat': -6.925116880582531, 'lng': 107.45931231563573}",-6.925116881,107.4593123,https://maps.app.goo.gl/etbed7kcaaSPXp6D8,https://lh5.googleusercontent.com/p/AF1QipOZBl_ExiKND36FEnWt6zc8HDBoYbr2V85p7RdO=w520-h240-k-no
124,Hawu kebon resto,4.2,Sundanese,"Cisarua, Kabupaten Bandung Barat","Hawu Kebon Resto, dengan rating 4.2, berdiri sebagai restoran serbaguna di Kertawangi, Cisarua, Kabupaten Bandung Barat. Tempat ini menawarkan pengalaman kuliner yang beragam, memenuhi berbagai preferensi dan selera.","{'lat': -6.729447122205451, 'lng': 107.57810199309132}",-6.729447122,107.578102,https://maps.app.goo.gl/V8pJ4i2xfvyL2EFQA,https://lh5.googleusercontent.com/p/AF1QipMz7hIMaB90YM2yxx2nP4nkUgWxsL4FyOdvVZ0J=w408-h271-k-no
125,Dapoer Kayoe,4,Sundanese,"Parongpong, Kabupaten Bandung Barat","Dapoer Kayoe, yang memiliki rating 4, adalah Sundanese restaurant yang terletak di Jalan Kolonel Masturi No.275, Karyawangi, Kec. Parongpong, Kabupaten Bandung Barat. Dikenal dengan masakan Sunda-nya, Dapoer Kayoe menyediakan perjalanan penuh cita rasa melalui hidangan tradisional.","{'lat': -6.783315402282691, 'lng': 107.58016192969457}",-6.783315402,107.5801619,https://maps.app.goo.gl/K7CL8iwjZrbGx4nc7,https://lh5.googleusercontent.com/p/AF1QipOVeCZzxfUm5FD-n0V_XZkiro1ung_td5RGlxq8=w408-h306-k-no
126,Warung Nasi Baheula Ibu Nunung,4.7,Sundanese,"Padalarang, Kabupaten Bandung Barat","Warung Nasi Baheula Ibu Nunung, dengan rating 4.7 yang mengesankan, adalah Sundanese restaurant terkenal yang terletak di Cipeundeuy, Padalarang, Kabupaten Bandung Barat. Restoran ini terkenal karena memberikan pengalaman kuliner yang luar biasa dengan hidangannya yang memiliki rating tinggi.","{'lat': -6.8666657331243925, 'lng': 107.47841526709318}",-6.866665733,107.4784153,https://maps.app.goo.gl/KjDwNHAiVcaqizdL6,https://lh5.googleusercontent.com/p/AF1QipPjtd92No987JbqDellAx3Q8sR8pZ6adLHGIovO=w408-h306-k-no
127,Mie Bakso Mas Ariel,4.6,Bakso,"Ngamprah, Kabupaten Bandung Barat","Mie Bakso Mas Ariel, dengan rating 4.6, adalah restoran bakso yang terletak di Jalan Sumur Bor No.48, Cilame, Kec. Ngamprah, Kabupaten Bandung Barat. Mengkhususkan diri pada hidangan mie dan bakso, restoran ini dipuji karena kelezatannya.","{'lat': -6.816628684125043, 'lng': 107.509173545729}",-6.816628684,107.5091735,https://maps.app.goo.gl/hVVxQ1LbDu8f4d488,https://lh5.googleusercontent.com/p/AF1QipPGJPsfZJBKFtJT9zFSKYYg1u6gYcuyMcvVIQRk=w426-h240-k-no
128,Ten To Ten,4.4,Chinese,"Padalarang, Kabupaten Bandung Barat","Ten To Ten, restoran Cina dengan rating 4.4, terletak di Parahiyangan, Jalan Jingganiaga Kaler No.3 Kotabaru, Cipeundeuy, Kec. Padalarang, Kabupaten Bandung Barat. Menawarkan cita rasa masakan Cina, Ten To Ten memberikan pengalaman kuliner yang menyenangkan.","{'lat': -6.851437663433862, 'lng': 107.46617700846664}",-6.851437663,107.466177,https://maps.app.goo.gl/XF7nXxpdLYh4rHBB7,https://lh5.googleusercontent.com/p/AF1QipNVtWPs0Weo3zwkUURLjRLNaD-uVZ5jKj3CcFAL=w427-h240-k-no
129,Sahabat Floating Resto,4.5,Indonesian,"Batujajar, Kabupaten Bandung Barat","Sahabat Floating Resto dengan rating 4.5 adalah restoran yang terletak di Sagatan, Desa, Pangauban, Kec. Batujajar, Kabupaten Bandung Barat. Restoran terapung ini dikenal dengan suasana yang unik dan pengalaman bersantap dengan nilai tinggi, menambah kenikmatan ekstra dalam perjalanan kuliner Anda.","{'lat': -6.8889887847855045, 'lng': 107.44351946834395}",-6.888988785,107.4435195,https://maps.app.goo.gl/n4rVuP4eZSThAyeb9,https://lh5.googleusercontent.com/p/AF1QipNWoH5r7LKYp235-KzfgRGZ0Po4qQkG9BPeiOtP=w426-h240-k-no
130,Milagros Bandung Barat,4.4,Indonesian,"Ngamprah, Kabupaten Bandung Barat","Milagros Bandung Barat, dengan rating 4.4, adalah restoran yang terletak di Jalan Pinus No.8, Margajaya, Kec. Ngamprah, Kabupaten Bandung Barat. Restoran ini menawarkan menu yang beragam dengan suasana yang santai, melayani berbagai selera dan preferensi.","{'lat': -6.843313480988252, 'lng': 107.5018843387701}",-6.843313481,107.5018843,https://maps.app.goo.gl/cgTwHqMoJ4T6HseN8,https://lh5.googleusercontent.com/p/AF1QipOAKQkCdQVRgyOnM06iGaTRxfPAjpZgPwgPMHA=w408-h510-k-no
131,Dapur Cemara,4.3,Sundanese,"Padalarang, Kabupaten Bandung Barat","Dapur Cemara, dengan rating 4.3, adalah Sundanese restaurant yang terletak di Jalan Parahyangan, Jalan Pita Niaga No.30, Cipeundeuy, Padalarang. Dikenal dengan kelezatan kuliner Sunda, Dapur Cemara menyediakan perjalanan penuh cita rasa melalui hidangan tradisional.","{'lat': -6.861634792304088, 'lng': 107.47251974962244}",-6.861634792,107.4725197,https://maps.app.goo.gl/HfrpNc6yei3mMa2NA,https://lh5.googleusercontent.com/p/AF1QipMO-bHjj-mweu5PHkfgqAO1tm_dErnN_UHI7kRD=w408-h306-k-no
132,Warung nasi Sukahati Padalarang,4.6,Sundanese,"Padalarang, Kabupaten Bandung Barat","Warung Nasi Sukahati Padalarang, dengan rating 4.6 yang mengesankan, adalah Sundanese restaurant yang terletak di Jalan Cijeungjing No.2, Kertamulya, Kec. Padalarang. Restoran ini terkenal karena memberikan pengalaman kuliner yang luar biasa dengan hidangannya yang memiliki rating tinggi.","{'lat': -6.840500773149943, 'lng': 107.48556601477652}",-6.840500773,107.485566,https://maps.app.goo.gl/kZ7eQthpBSCYjeAi8,https://lh5.googleusercontent.com/p/AF1QipM-MoOSjceG3TDHTPlvdFIba7roWZpyrdNNrSvk=w426-h240-k-no
133,Nyonya Delights,4.4,Indonesian,"Padalarang, Kabupaten Bandung Barat","Nyonya Delights, dengan rating 4.4, adalah restoran yang terletak di Ruko Pancawarna, Jalan Parahyangan Raya No.52-53. Menawarkan berbagai macam hidangan lezat, restoran ini telah mendapatkan pujian atas keunggulan kulinernya.","{'lat': -6.864020832362443, 'lng': 107.466168278429}",-6.864020832,107.4661683,https://maps.app.goo.gl/fs9H8LUSKF4vcAAe7,https://lh5.googleusercontent.com/p/AF1QipMh0ly5ym2qjTD_RxTwR29q2tTIQh9eC3BT1YFD=w408-h302-k-no
134,Sa Rang Bang,4.5,Korean,"Padalarang, Kabupaten Bandung Barat","Sa Rang Bang, restoran Korea dengan rating 4,5 ini berlokasi di Kota Baru Parahyangan di Jalan Jingga Niaga Kaler No. 21, Cipeundeuy, Kec. Padalarang. Mengkhususkan diri pada masakan Korea, Sa Rang Bang memberikan pengalaman kuliner yang menyenangkan dengan sentuhan cita rasa Korea.","{'lat': -6.86981545127024, 'lng': 107.46788489226508}",-6.869815451,107.4678849,https://maps.app.goo.gl/re42TvYsez9NWaYBA,https://lh5.googleusercontent.com/p/AF1QipOnzNaxXPWb9_X0KbWK672ELmUn3cu7gSzv420x=w408-h306-k-no
135,RM Setuju Utama,4.2,Sundanese,"Padalarang, Kabupaten Bandung Barat,","RM Setuju Utama, dengan rating 4.2, adalah Sundanese restaurant yang terkenal. Dikenal dengan sajian kuliner Sunda, RM Setuju Utama memberikan pengalaman bersantap yang menyenangkan.","{'lat': -6.82819664280127, 'lng': 107.43169591148597}",-6.828196643,107.4316959,https://maps.app.goo.gl/YKvYub8Wqcf6zdoq6,https://lh5.googleusercontent.com/p/AF1QipNnZ8-0TsWPpjklzBcxen0d4QlAQtXq5TSkzyCD=w426-h240-k-no
136,Waroeng Ethnic,4.4,Western,"Padalarang, Kabupaten Bandung Barat","Waroeng Ethnic, dengan rating 4.4, adalah restoran serbaguna. Restoran ini melayani beragam selera, menawarkan berbagai hidangan kuliner.","{'lat': -6.866710603205794, 'lng': 107.4697234923334}",-6.866710603,107.4697235,https://maps.app.goo.gl/S4DhYGkoTXRSN5uu5,https://lh5.googleusercontent.com/p/AF1QipNHa5W7EdMCNTpRxmlBqNh_LOoW_mRB8x3rTQG6=w408-h544-k-no
137,GH Corner,4.7,Indonesian,"Padalarang, Kabupaten Bandung Barat","GH Corner, dengan rating 4,7 yang mengesankan, adalah restoran Halal. Dikenal dengan sajian Halal, GH Corner telah menuai pujian atas keunggulan kulinernya.","{'lat': -6.857330634137665, 'lng': 107.48187046497989}",-6.857330634,107.4818705,https://maps.app.goo.gl/E8gimqKMZb26nXms6,https://lh5.googleusercontent.com/p/AF1QipPfoEHw2vm2jGs8hxLcqJ64xqG2h59gjoC9ToMB=w408-h282-k-no
138,"Saung Lesehan Ceu Dewi,Ikan-Ayam. Goreng/bakar",4.7,Sundanese,"Padalarang, Kabupaten Bandung Barat","Saung Lesehan Ceu Dewi, yang mengkhususkan diri pada Ikan-Ayam Goreng/Bakar dan memiliki rating 4.7, adalah restoran Ayam. Restoran ini terkenal dengan hidangan ayamnya yang beraroma lezat.","{'lat': -6.862690639091134, 'lng': 107.47917113772512}",-6.862690639,107.4791711,https://maps.app.goo.gl/7mbXBcdPo1XVChmA6,https://lh5.googleusercontent.com/p/AF1QipPBnfAcl0EZJnHgBqMcJVP9aWTUkFVXRL9g-Mpg=w408-h306-k-no
139,Cafe kadempit,4.6,Cafe,"Padalarang, Kabupaten Bandung Barat","Cafe Kadempit, dengan rating 4.6, adalah Sundanese restaurant. Menawarkan cita rasa masakan Sunda, Cafe Kadempit dikenal dengan kreasi kulinernya yang lezat.","{'lat': -6.858467217127703, 'lng': 107.48609189246926}",-6.858467217,107.4860919,https://maps.app.goo.gl/y4jbbikXFjJ6vibN9,https://lh5.googleusercontent.com/p/AF1QipN4SHIdJQnd_RR0jwRTHgaKs3zijLUHaO5pC8Bl=w480-h240-k-no
140,EnakO,4.4,Indonesian,"Padalarang, Kabupaten Bandung Barat","EnakO, restoran sate dengan rating 4.4, dikenal dengan sajian satenya yang lezat. Terletak di Cipeundeuy, Padalarang, restoran ini menawarkan pengalaman kuliner yang memuaskan bagi para penggemar sate.","{'lat': -6.867540003721273, 'lng': 107.4693819213272}",-6.867540004,107.4693819,https://maps.app.goo.gl/FieAPQzCRR1Cuv7S7,https://lh5.googleusercontent.com/p/AF1QipNw5nexlFv56VZpOLfIxSTiknh2he2hIzSNtf6g=w426-h240-k-no
141,Bakso Three In One Mas Maji,4.8,Bakso,"Padalarang, Kabupaten Bandung Timur","Bakso Three In One Mas Maji, yang memiliki rating 4,8, memiliki spesialisasi dalam hal bakso. Terletak di Cimerang, Padalarang, restoran ini terkenal dengan hidangan bakso yang beraroma dan berperingkat tinggi.","{'lat': -6.863639504645552, 'lng': 107.48835993700985}",-6.863639505,107.4883599,https://maps.app.goo.gl/nqPT6BGtuytxNuKXA,https://lh5.googleusercontent.com/p/AF1QipMu13-sP6Ggu-2QrSrQlzjlehSGNF4YXSVGuVXQ=w426-h240-k-no
142,Giggle Box Kota Baru Parahyangan - Bandung,4.4,Western,"Padalarang, Kabupaten Bandung Barat","Giggle Box Kota Baru Parahyangan - Bandung, dengan rating 4.4, adalah restoran Barat yang terletak di Bumi Palangkawati, Cipeundeuy. Restoran yang terletak di Jalan Parahyangan Raya No.6 ini menawarkan beragam menu masakan Barat yang memberikan pengalaman bersantap yang menyenangkan.","{'lat': -6.855409975023942, 'lng': 107.47809753631812}",-6.855409975,107.4780975,https://maps.app.goo.gl/3WVdfdd5GrhBhfpZ6,https://lh5.googleusercontent.com/p/AF1QipMKlDtC38Wj_5PFUc8M2nWsm77ehWMSsm3hNEw=w426-h240-k-no
143,Warung Nasi Khas Sunda Lalaban,4.4,Sundanese,"Padalarang, Kabupaten Bandung Barat","Warung Nasi Khas Sunda Lalaban, juga memiliki rating 4.4, adalah Sundanese restaurant yang terletak di Kertamulya, Padalarang. Terkenal dengan sajian kuliner Sunda, warung ini merupakan pilihan favorit bagi mereka yang mencari cita rasa tradisional Sunda.","{'lat': -6.8358152852020035, 'lng': 107.48796522929094}",-6.835815285,107.4879652,https://maps.app.goo.gl/StdyYdT3RSTo6tvUA,https://lh5.googleusercontent.com/p/AF1QipOH9yx4Hj0n4ec0wamdRR8nzBUwtYd5VjCScvI=w426-h240-k-no
144,Bakso Kerucut,4.3,Bakso,"Padalarang, Kabupaten Bandung Barat","Bakso Kerucut, dengan rating 4.3, adalah restoran bakso yang terletak di Cipeundeuy, Padalarang. Dikenal dengan bakso berbentuk kerucut yang unik, restoran ini telah mendapatkan pujian karena hidangannya yang beraroma dan disiapkan dengan baik.","{'lat': -6.853450542257065, 'lng': 107.48914935244767}",-6.853450542,107.4891494,https://maps.app.goo.gl/8NED8uwuMLZxEWQF8,https://lh5.googleusercontent.com/p/AF1QipM189IY_8z7EccjPeGGzi_8TN3oJzo8v65kR_wd=w408-h544-k-no
145,BAB JIB,4.5,Korean,"Padalarang, Kabupaten Bandung Barat","BAB JIB, restoran Korea dengan rating 4.5, dikenal dengan masakan Korea-nya. Menawarkan menu yang beragam, restoran yang terletak di Cipeundeuy, Padalarang, ini telah dikenal karena hidangannya yang penuh cita rasa.","{'lat': -6.861447818553915, 'lng': 107.46404654682253}",-6.861447819,107.4640465,https://maps.app.goo.gl/r9fLD7pRrFGE14Ht5,https://lh5.googleusercontent.com/p/AF1QipPP8dBSFLj_VLDCIFXRj2FdVxhhyAnqRJFw_PZT=w426-h240-k-no
146,Waroeng Beje Restaurant,4.5,Indonesian,"Padalarang, Kabupaten Bandung Barat","Waroeng Beje Restaurant, juga memiliki rating 4.5, adalah restoran serbaguna yang terletak di Padalarang. Terkenal dengan menu yang bervariasi, restoran yang terletak di Jalan Letkol G.A. Manulang No.20 ini melayani berbagai macam preferensi kuliner.","{'lat': -6.822587756585433, 'lng': 107.48121268518315}",-6.822587757,107.4812127,https://maps.app.goo.gl/Dmqda8Aq5FsUUmeEA,https://lh5.googleusercontent.com/p/AF1QipN6EICc62D8YvAKuZkPO7t6sLmDOVYUdXeYlSV9=w426-h240-k-no
147,Respoegar,4.7,Cafe,"Padalarang, Kabupaten Bandung Barat","Respoegar, yang memiliki rating 4,7, adalah restoran yang terletak di Pondok Padalarang Indah (PPI) Blok A No.7, Padalarang. Restoran ini terkenal dengan keunggulan kulinernya, memberikan pengalaman bersantap yang menyenangkan.","{'lat': -6.834859696629561, 'lng': 107.47571952090776}",-6.834859697,107.4757195,https://maps.app.goo.gl/s7cLJNBUNjuy9vLE8,https://lh5.googleusercontent.com/p/AF1QipMUAU7Pza8XEdWf8eGvV-gY9Tdi6hjGoro67lzf=w408-h306-k-no
148,Wataki,4.5,Sundanese,"Ngamprah, Kabupaten Bandung Barat","Wataki, dengan rating 4.5, adalah Sundanese restaurant yang terletak di Tanimulya, Ngamprah. Berlokasi di Blok C13, Jalan Puri Cipageran Indah 2 No.25, Wataki menawarkan cita rasa masakan Sunda yang terkenal dengan hidangannya yang beraroma dan otentik.","{'lat': -6.841677305005357, 'lng': 107.53065116366177}",-6.841677305,107.5306512,https://maps.app.goo.gl/onoaUfNq7BawLe2M7,https://lh5.googleusercontent.com/p/AF1QipOM8af4TL-1Gd4JXIksUyHBgZMxetgGgw0EToZd=w408-h678-k-no
149,Warung Nasi Ampera Padalarang,4.3,Sundanese,"Ngamprah, Kabupaten Bandung Barat","Warung Nasi Ampera Padalarang, dengan rating 4.3, adalah Sundanese restaurant lainnya yang terletak di Gadobangkong, Ngamprah. Berlokasi di Jalan Raya Gadobangkong No.148, warung ini terkenal dengan sajian kuliner tradisional Sunda.","{'lat': -6.848494816051269, 'lng': 107.51554496190442}",-6.848494816,107.515545,https://maps.app.goo.gl/iUpwANkeYdziyuSG6,https://lh3.googleusercontent.com/gps-proxy/AFm_dcSdJMErhJpPybfyph_GfIzIMRUzXQuffGsl-irnOMnQkwkLv4LBrQiS-aVz2-seMy0mlqc_RQRXTJS3pdCgd1j-yEMCtWTAsNd4IGT2ZboNlKPXujRTJH6nfebGC0sd5-pPogCpb7bdnN4-mM_6viBC9O4bkIVkMm8VWKB3LMouV6zEnjEOq4Z-nVJbuIjb0k9Otw=w408-h306-k-no
150,Saung Apung Pangaisan,4.3,Sundanese,"Batujajar, Kabupaten Bandung Barat","Saung Apung Pangaisan, sebuah Sundanese restaurant dengan rating 4.3, menawarkan pengalaman bersantap yang menyenangkan di Waduk, Batujajar. Terkenal dengan kuliner khas Sunda, restoran di Kabupaten Bandung Barat ini memberikan cita rasa yang otentik.","{'lat': -6.88735276583644, 'lng': 107.44276053525536}",-6.887352766,107.4427605,https://maps.app.goo.gl/S8wf7rX1F8vJgqgMA,https://lh5.googleusercontent.com/p/AF1QipPScs_FJThggq5seTsZWYwP5wkMmVqgFpOv7B-y=w533-h240-k-no
151,Dapur Seblak Sodong,4.9,Indonesian,"Padalarang, Kabupaten Bandung Barat","Dapur Seblak Sodong, yang memiliki rating 4,9, adalah restoran yang cocok untuk makan seblak. Terletak di Jalan Sodong Hilir, restoran ini suasananya ramah dan banyak menu seblak yang beragam.","{'lat': -6.843040815003974, 'lng': 107.48601920392413}",-6.843040815,107.4860192,https://maps.app.goo.gl/tkLUmtcQhfFkzZ4q7,https://lh5.googleusercontent.com/p/AF1QipP2c7V1Ze2NVoD6PbTWeROlO9yoeXEAmx-SxG_6=w408-h304-k-no
152,Rumah Makan Roky Minang Masakan Padang,4.6,Indonesian,"Padalarang, Kabupaten Bandung Barat","Rumah Makan Roky Minang Masakan Padang, dengan rating 4.6, adalah restoran Padang yang terletak di Jayamekar, Padalarang. Terletak di Jalan Letkol G.A. Manulang No.39, restoran ini terkenal dengan masakan Padangnya yang beraroma.","{'lat': -6.8321326260481605, 'lng': 107.47228629323563}",-6.832132626,107.4722863,https://maps.app.goo.gl/NuuYABc4o7g7VBPa8,https://lh5.googleusercontent.com/p/AF1QipM6_vwozRcxq7RQTG6aagw4cb-IxUnaXqiqpO2M=w408-h306-k-no
153,Ayam Geprek & Pap's Spaghetti. Food Court ATB Padalarang Kab Bandung Barat,4.1,Chicken,"Padalarang, Kabupaten Bandung Barat","Ayam Geprek & Pap's Spaghetti, dengan rating 4.1, adalah restoran ayam yang terletak di Kertamulya, Padalarang. Berlokasi di Food Court ATB Padalarang Kab Bandung Barat di Jalan Raya Nasional No. 3, restoran ini menawarkan beragam menu hidangan ayam dan pasta.","{'lat': -6.825996660389258, 'lng': 107.49494559587168}",-6.82599666,107.4949456,https://maps.app.goo.gl/s1Qt3jySMtZHDWxw5,https://lh5.googleusercontent.com/p/AF1QipOwC8OE8XI3NCyRbS5cwUFwDQ9S0OleQZ_CvJq1=w408-h725-k-no
154,Pizza Hut Restoran,4.5,Western,"Padalarang, Kabupaten Bandung Barat","Pizza Hut Restoran, dengan rating 4.5, adalah restoran pizza yang terletak di Kertajaya, Padalarang. Berlokasi di Bale Pare unit BPL1H101, Jalan Parahyangan Raya, gerai Pizza Hut ini menjadi pilihan populer bagi Anda yang ingin menikmati pizza di Kabupaten Bandung Barat.","{'lat': -6.838950273329302, 'lng': 107.49219901373397}",-6.838950273,107.492199,https://maps.app.goo.gl/svgLZAfuqEQP8dvYA,https://lh5.googleusercontent.com/p/AF1QipNWvNilY1S4zLfyBax0sqmmvFXA9mlIu8fX-BWm=w408-h306-k-no
155,Toyama - Japanese Restaurant,4.5,Japanese,"Padalarang, Kabupaten Bandung Barat","Toyama - Japanese Restaurant, dengan rating 4.5, adalah restoran Jepang yang berlokasi di Bujanggamanik Ruko Pancawarna Kav 65-67, Kertajaya, Padalarang. Terkenal dengan masakan Jepangnya, Toyama menawarkan beragam menu hidangan otentik.","{'lat': -6.858039167820187, 'lng': 107.46061331915041}",-6.858039168,107.4606133,https://maps.app.goo.gl/n1HPFT6Ho86gxVAJ8,https://lh5.googleusercontent.com/p/AF1QipNxTaYuxkFOfYlz8r2ObcEXwdp3-1tpnUykHuQG=w408-h725-k-no
156,CANTON - Chinese Cuisine,4.1,Chinese,"Padalarang, Kabupaten Bandung Barat","CANTON - Chinese Cuisine, dengan rating 4.1, adalah restoran Cina yang terletak di Cipeundeuy, Padalarang. Restoran ini melayani para pecinta masakan Cina, menyediakan berbagai hidangan beraroma.","{'lat': -6.847813069329245, 'lng': 107.48395926732087}",-6.847813069,107.4839593,https://maps.app.goo.gl/QNRnU6Zw3Pygj8gi9,https://lh5.googleusercontent.com/p/AF1QipPR7SfAPXRMCV13LMEWg1IPhlgimVamltDbJn-c=w408-h306-k-no
157,Gyumbox Kota Baru Parahyangan,4.7,Western,"Padalarang, Kabupaten Bandung Barat","Gyumbox Kota Baru Parahyangan, dengan rating 4.7, adalah restoran yang terletak di Ruko Pancawarna No.9, Kertajaya, Padalarang. Restoran ini menawarkan menu yang beragam, memberikan pengalaman bersantap yang menyenangkan di Kabupaten Bandung Barat.","{'lat': -6.851221793195949, 'lng': 107.46747977449466}",-6.851221793,107.4674798,https://maps.app.goo.gl/uDugaqYoRdzcBW28A,https://lh5.googleusercontent.com/p/AF1QipNcBoBWYfS5KGc08Ocbwn8sXogNc9d-T82U4igg=w408-h272-k-no
158,baso koboy,4.5,Indonesian,"Padalarang, Kabupaten Bandung Barat","Baso Koboy, dengan rating 4.5, adalah restoran bakso yang terletak di Cikamuning Sadang, Ciburuy, Padalarang. Dikenal dengan hidangan bakso yang beraroma, Baso Koboy adalah pilihan populer bagi mereka yang mencari cita rasa bakso.","{'lat': -6.807588291730209, 'lng': 107.47434622983891}",-6.807588292,107.4743462,https://maps.app.goo.gl/ttfL8Rs3KZoRYqP58,https://lh5.googleusercontent.com/p/AF1QipPQRDHEbLJSTu7qnaR7hnJVI13A7AnvOSQLsqwW=w408-h306-k-no
159,Morning Glory,4.6,Cafe,"Padalarang, Kabupaten Bandung Barat","Morning Glory, dengan rating 4,6, adalah restoran yang terletak di Jalan Parahyangan No.22, Kertajaya, Padalarang. Dikenal dengan menu yang beragam, Morning Glory memberikan pengalaman bersantap yang memuaskan di Kabupaten Bandung Barat.","{'lat': -6.847813069329245, 'lng': 107.47228629323563}",-6.847813069,107.4722863,https://maps.app.goo.gl/AX8ASqdo3E39WXp19,https://lh5.googleusercontent.com/p/AF1QipOm_fsgqErlLojFCfiJXlskN76tgC3bH4extoDE=w427-h240-k-no
160,D'plate resto II,4.3,Indonesian,"Padalarang, Kabupaten Bandung Barat","D'plate Resto II, dengan skor 4.3, dikenal sebagai restoran yang mengkhususkan diri pada Nasi Goreng, yang terkenal dengan hidangan nasi gorengnya yang lezat. Terletak di Cipeundeuy, Padalarang, restoran ini menawarkan beragam pilihan Nasi Goreng yang memenuhi berbagai selera.","{'lat': -6.854630492696895, 'lng': 107.46747977449466}",-6.854630493,107.4674798,https://maps.app.goo.gl/WxHDy2BgHH4Jx59L6,https://lh5.googleusercontent.com/p/AF1QipMw-tBJaRQ6dkVCUi4CuJv65kJC4ywEJz7lq__4=w426-h240-k-no
161,Kedai 78 seafood & chinese food,4.4,Seafood,"Ngamprah, Kabupaten Bandung Barat","Kedai 78 Seafood & Chinese Food, dengan rating 4,4 yang mengesankan, terkenal dengan fokusnya pada hidangan laut dan masakan Cina. Terletak di Graha Bukit Raya II Blok I, 13,09, Cilame, Ngamprah, tempat makan ini menyajikan menu bervariasi yang menampilkan hidangan laut dan kuliner Cina.","{'lat': -6.840313791113549, 'lng': 107.52241141724866}",-6.840313791,107.5224114,https://maps.app.goo.gl/jYnPmP7pQ7fcyZ4j7,https://lh5.googleusercontent.com/p/AF1QipMVXf4kkuDGr0nGfms3kDAS-M9orgzx1ExFZ43O=w408-h306-k-no
162,Double Three Cafe,4.4,Cafe,"Padalarang, Kabupaten Bandung Barat","Double Three Cafe, yang juga memiliki rating 4,4, adalah tempat makan serbaguna yang terletak di Kertajaya, Padalarang. Berlokasi di Jalan Pariwarna Niaga Wetan No.26, Cafe ini membanggakan diri karena menawarkan menu yang beragam, memastikan pengalaman bersantap yang menyenangkan.","{'lat': -6.849176561799062, 'lng': 107.47022635663235}",-6.849176562,107.4702264,https://maps.app.goo.gl/hRniQBDhe9b6sZH36,https://lh5.googleusercontent.com/p/AF1QipMQGgSRR7rOY_K7l7XiDZpOJTHyeNZQxxbWsmWX=w408-h306-k-no
163,Rumah Bento Padalarang,4.7,Cafe,"Padalarang, Kabupaten Bandung Barat","Rumah Bento Padalarang, dengan rating 4,7 yang mengesankan, dikenal karena keunggulan kulinernya. Berlokasi di Jalan Bantar Gedang No.rt.04/07, Mekarsari, Padalarang, restoran ini menyediakan berbagai macam hidangan lezat.","{'lat': -6.831791741131901, 'lng': 107.50181205121592}",-6.831791741,107.5018121,https://maps.app.goo.gl/WomGypoGD7BAGoum7,https://lh5.googleusercontent.com/p/AF1QipNMhVMqFoR2KvzxSgzOttpTE2IbcSmD3u4ELpkm=w426-h240-k-no
164,Kedai Dua Putra,4.7,Cafe,"Padalarang, Kabupaten Bandung Barat","Kedai Dua Putra, dengan rating 4.7, merupakan tempat makan siang yang terletak di Kp. Kepuh, Padalarang. Terletak di depan perumahan KPAD, tempat makan yang terletak di Kabupaten Bandung Barat ini menjanjikan pengalaman makan siang yang menyenangkan.","{'lat': -6.839972912032374, 'lng': 107.46644980619301}",-6.839972912,107.4664498,https://maps.app.goo.gl/wysEW757U6EZsmqW7,https://lh5.googleusercontent.com/p/AF1QipP-kA2fzWowBiM3gBiLfltZ7fzWuxOoMfBMxunL=w426-h240-k-no
165,Ayam Penyet Ria Kota Baru Parahyangan,4.1,Chicken,"Padalarang, Kabupaten Bandung Barat","Ayam Penyet Ria Kota Baru Parahyangan, dengan rating 4.1, membedakan dirinya sebagai restoran yang mengkhususkan diri pada ayam penyet, yang terkenal dengan sajian ayam gorengnya yang beraroma. Terletak di Cipeundeuy, Padalarang, restoran ini melayani orang-orang yang menyukai kelezatan gurihnya hidangan Indonesia yang populer ini.","{'lat': -6.8631521347709805, 'lng': 107.4691963883307}",-6.863152135,107.4691964,https://maps.app.goo.gl/mcYXnYZmEM1jHSPu8,https://lh5.googleusercontent.com/p/AF1QipMHA9n2XBLapnSC-tDMxWm2UfHRn6Hzj1_Fpmwh=w408-h544-k-no
166,Rumah Makan Mahkota Minang,4.6,Indonesian,"Padalarang, Kabupaten Bandung Barat","Rumah Makan Mahkota Minang, yang mendapatkan nilai 4,6, adalah restoran Padang yang terkenal dengan masakan Padang yang otentik. Berlokasi di Kertamulya, Padalarang, tempat makan ini mengundang para pengunjung untuk menikmati beragam hidangan yang terinspirasi dari warisan kuliner Sumatera Barat.","{'lat': -6.827019326796779, 'lng': 107.4880791405274}",-6.827019327,107.4880791,https://maps.app.goo.gl/j4LBruge2MrNoW1w8,https://lh5.googleusercontent.com/p/AF1QipN3urYzIHR_dfLrvyHbDA9N0HSDB8r_DlT8uTKm=w408-h544-k-no
167,Sangkan Herang,4.5,Indonesian,"Batujajar, Kabupaten Bandung Barat","Sangkan Herang, dengan rating 4.5, adalah restoran yang terletak di Cikande, Batujajar, menawarkan menu yang bervariasi yang memastikan pengalaman kuliner yang menyenangkan di Kabupaten Bandung Barat.","{'lat': -6.868605905653872, 'lng': 107.44173056695371}",-6.868605906,107.4417306,https://maps.app.goo.gl/BPin6JjBVqrqo8gH7,https://lh5.googleusercontent.com/p/AF1QipPOFk3Nqjwzz45wlmdQDPKQKIVS8gTIIedFtr11=w408-h306-k-no
168,Rumah Makan Sedap Cimareme,4.5,Indonesian,"Ngamprah, Kabupaten Bandung Barat","Rumah Makan Sedap Cimareme, juga dengan rating 4,5, adalah tempat makan yang terletak di Cimareme, Ngamprah. Berlokasi di Jalan Raya Cimareme No.368 A, tempat makan ini menjanjikan berbagai macam hidangan yang lezat, memastikan pengalaman bersantap yang menyenangkan.","{'lat': -6.853948754746535, 'lng': 107.49837882354379}",-6.853948755,107.4983788,https://maps.app.goo.gl/vcYFiNzzVUyzUSR89,https://lh5.googleusercontent.com/p/AF1QipMh27RuOD-7-Eyf87_XOIMVbiN_eIkZhkaZv9Dj=w408-h544-k-no
169,Oleh - Oleh Khas Bandung Oncom Wendy,4.6,Sundanese,"Padalarang, Kabupaten Bandung Barat","Oleh - Oleh Khas Bandung Oncom Wendy, yang memiliki rating 4.6, adalah tempat makan cepat saji yang dikenal dengan hidangan lokalnya yang khas. Berlokasi di Kertamulya, Padalarang, restoran yang terletak di Jalan Raya Padalarang No.512 ini memberikan pilihan yang nyaman bagi mereka yang ingin menikmati makanan khas setempat di mana saja.","{'lat': -6.837245870626405, 'lng': 107.48567588115691}",-6.837245871,107.4856759,https://maps.app.goo.gl/AcbrbKGoGk76sjTT9,https://lh5.googleusercontent.com/p/AF1QipOvN7Oi0a4MUSkr-8TjJySLXDCVZH92J4QP6vTd=w426-h240-k-no
170,RM. tarako minang,4.3,Indonesian,"Ngamprah, Kabupaten Bandung Barat","RM. Tarako Minang, dengan skor 4.3, menonjol sebagai restoran Padang yang terkenal dengan sajian kuliner Padang yang otentik. Berlokasi di Cilame, Ngamprah, tempat makan ini menyajikan menu yang bervariasi dengan cita rasa yang tinggi, menyoroti tradisi kuliner Sumatera Barat yang kaya.","{'lat': -6.8542896238436075, 'lng': 107.51554496190442}",-6.854289624,107.515545,https://maps.app.goo.gl/Fp2QQRo53FmJcxbA8,https://lh5.googleusercontent.com/p/AF1QipNUjU8iT56uIYjlV2I-bt57xUNQH7DYy-x_m3GV=w408-h408-k-no
171,Food Court Tjap Subur,4.4,Cafe,"Padalarang, Kabupaten Bandung Barat","Food Court Tjap Subur, dengan rating 4.4, memiliki spesialisasi dalam masakan Cina dan terletak di Kota Baru Parahyangan, Cipeundeuy. Berlokasi di Jalan Jingga Niaga Kaler No. 27, food court ini melayani berbagai macam selera dengan beragam pilihan hidangan Cina.","{'lat': -6.865538167223434, 'lng': 107.4657631606586}",-6.865538167,107.4657632,https://maps.app.goo.gl/etjk3pHFfbWNGh3ZA,https://lh5.googleusercontent.com/p/AF1QipOHv62FJl9iSGYqhh7yYJfjmYC5QmTa-bJn9-sQ=w426-h240-k-no
172,Baso Semar,4.2,Bakso,"Padalarang, Kabupaten Bandung Barat","Baso Semar, dengan rating 4.2, dikenal dengan keahliannya dalam hal bakso dan berlokasi di Jayamekar, Padalarang. Terkenal dengan hidangan bakso yang lezat, restoran bakso di Jalan GA Manulang Rt 03 Rw 03 ini menawarkan pengalaman kuliner yang menyenangkan.","{'lat': -6.842699937869349, 'lng': 107.47503287537333}",-6.842699938,107.4750329,https://maps.app.goo.gl/dPXUQmxsd1C9XmuP6,https://streetviewpixels-pa.googleapis.com/v1/thumbnail?panoid=otph6acCvfrspOBOYo_cgw&cb_client=search.gws-prod.gps&w=408&h=240&yaw=147.35155&pitch=0&thumbfov=100
173,"Warung Nasi Barokah, Lebak Sari",4.4,Sundanese,"Padalarang, Kabupaten Bandung Barat","Warung Nasi Barokah, Lebak Sari, dengan rating 4.4, merupakan Sundanese restaurant yang terletak di Kertajaya, Padalarang. Terletak di Jalan Lebaksari, warung ini dikenal karena komitmennya terhadap masakan tradisional Sunda, memberikan pelanggan rasa otentik dari cita rasa lokal.","{'lat': -6.835200579358451, 'lng': 107.50181205121592}",-6.835200579,107.5018121,https://maps.app.goo.gl/8LLoxqD8RbJxh7W58,https://lh5.googleusercontent.com/p/AF1QipOge5DoRbgFJE4lFQCOteJA38uVO28F8MLSLOkd=w493-h240-k-no
174,Restoran IKEA - Kota Baru Parahyangan,4.6,Western,"Padalarang, Kabupaten Bandung Barat","Restoran IKEA - Kota Baru Parahyangan, dengan rating 4.6 yang mengesankan, adalah tempat makan yang terletak di Kertajaya, Padalarang. Berlokasi di Jalan Parahyangan No. 9, restoran IKEA ini menyajikan menu yang beragam, memastikan pengalaman bersantap yang memuaskan di Kabupaten Bandung Barat.","{'lat': -6.855653097794073, 'lng': 107.46679312896022}",-6.855653098,107.4667931,https://maps.app.goo.gl/5pSKr5kXGtn4kxih7,https://lh5.googleusercontent.com/p/AF1QipPKpg4eQ9ZIA2VlXb7T7xflmcM9hMYD7TAUuPmi=w408-h612-k-no
175,Bakso mas gimin padalarang,4.1,Bakso,"Padalarang, Kabupaten Bandung Barat","Bakso Mas Gimin Padalarang, dengan skor 4.1, adalah restoran yang terkenal dengan hidangan baksonya. Berlokasi di Kertamulya, Padalarang, restoran ini menawarkan menu bakso yang beragam.","{'lat': -6.831791741131901, 'lng': 107.48258597625201}",-6.831791741,107.482586,https://maps.app.goo.gl/Yxsg5K2Ncb8J25fr7,https://lh5.googleusercontent.com/p/AF1QipOWO_yMyX7HUAa0ch5v5J8h31QCpVHnIBTlcg3Q=w426-h240-k-no
176,Resto Ayam Belgia Padalarang,5,Chicken,"Padalarang, Kabupaten Bandung Barat","Resto Ayam Belgia Padalarang, dengan nilai sempurna 5, mengkhususkan diri pada masakan Barat. Berlokasi di Kertamulya, Padalarang, restoran yang terletak di Jalan Taman Akasia ini menjanjikan pengalaman bersantap yang luar biasa dengan hidangan yang terinspirasi dari masakan Barat.","{'lat': -6.836564107842975, 'lng': 107.48498923562248}",-6.836564108,107.4849892,https://maps.app.goo.gl/uVD3zn8eTG8vRyXK9,https://lh5.googleusercontent.com/p/AF1QipO6AJTUTd_d669_VYKZcKBU2ntFVFqhC9IbDWwi=w408-h567-k-no
177,"Warung Nasi Barokah, Caringin",4.4,Indonesian,"Padalarang, Kabupaten Bandung Barat","Warung Nasi Barokah, Caringin, dengan rating 4.4, adalah restoran nasi yang terletak di Kertajaya, Padalarang. Berlokasi di Jalan Raya Caringin No.351, warung ini terkenal dengan hidangan tradisional yang menawarkan cita rasa lokal yang otentik.","{'lat': -6.845426948131263, 'lng': 107.498722146311}",-6.845426948,107.4987221,https://maps.app.goo.gl/AxjhpUZDEZjssFWw7,https://lh5.googleusercontent.com/p/AF1QipOOCb5m8TSZtOCDNS7nzh0jH_OzaNCWdW4yuFpD=w426-h240-k-no
178,Obos Dimsum,5,Cafe,"Padalarang, Kabupaten Bandung Barat","Obos Dimsum, yang mendapatkan nilai sempurna 5, adalah kedai pangsit yang terletak di Perum Baloper Blok D 37, Padalarang. Dikenal dengan pangsitnya yang lezat, Obos Dimsum memberikan pengalaman kuliner yang menyenangkan.","{'lat': -6.838268512977737, 'lng': 107.47743613474381}",-6.838268513,107.4774361,https://maps.app.goo.gl/pCqgqtuyabFgg45H9,https://lh5.googleusercontent.com/p/AF1QipNcic6h1sEl7NGzOWwTobmFEr9QfhvyHxXvULo8=w408-h725-k-no
179,Kwetiau & Baso 28,4.5,Bakso,"Padalarang, Kabupaten Bandung Barat","Kwetiau & Baso 28, dengan rating 4.5, adalah kedai mie yang terletak di Cipeundeuy, Padalarang. Dikenal dengan hidangan mie yang lezat.","{'lat': -6.863179446046872, 'lng': 107.46885941861521}",-6.863179446,107.4688594,https://maps.app.goo.gl/qFBDrrRwqpPkTowE9,https://lh5.googleusercontent.com/p/AF1QipMy8n4Qnh1bADnnyjLZVKOtFK2LZYj5VgvbY4ir=w408-h543-k-no
180,Baso Bandung Gede Rasa,4.1,Bakso,"Padalarang, Kabupaten Bandung Barat","Baso Bandung Gede Rasa, dengan skor 4.1, adalah restoran bakso yang terletak di Kertamulya, Padalarang. Terletak di Jalan Raya Tagog Padalarang No.579, restoran ini terkenal dengan hidangan baksonya yang penuh cita rasa, memberikan cita rasa kuliner lokal yang nikmat.","{'lat': -6.837193326381234, 'lng': 107.4855698464759}",-6.837193326,107.4855698,https://maps.app.goo.gl/BhLJVce4YoKuTogD7,https://lh5.googleusercontent.com/p/AF1QipP9cJnNntarKTU9s0t2OZZlWs7GTTU6LPxhS4Ym=w408-h725-k-no
181,Richeese Factory Cimareme,4.4,Chicken,"Ngamprah, Kabupaten Bandung Barat","Richeese Factory Cimareme, dengan rating 4.4, adalah restoran ayam yang terletak di Cimareme, Ngamprah. Berlokasi di Jalan Raya Cimareme No.324, gerai Richeese Factory ini menawarkan menu ayam yang beragam, memastikan pengalaman bersantap yang memuaskan.","{'lat': -6.853384844147853, 'lng': 107.50066963068736}",-6.853384844,107.5006696,https://maps.app.goo.gl/GuFMPs9bp9QwQ1bN7,https://lh5.googleusercontent.com/p/AF1QipNp0XB3JsTYkArYxcn7JlvwUCSRyT6FocCqRO-M=w426-h240-k-no
182,Baso Abah UU,4.2,Bakso,"Padalarang, Kabupaten Bandung Barat","Baso Abah UU, yang memiliki rating 4,2, adalah restoran bakso lain yang terletak di Cipeundeuy, Padalarang. Berlokasi di Kota Baru Parahyangan di Jalan Niaga Kulon No.2, restoran ini terkenal dengan hidangan bakso yang lezat.","{'lat': -6.865378206540169, 'lng': 107.46362482675524}",-6.865378207,107.4636248,https://maps.app.goo.gl/oPv4trjEv8NRK1fe6,https://lh5.googleusercontent.com/p/AF1QipN_kziWk5VC_gtpJc8JmpV_3HG7yFnizVO2SmyZ=w408-h544-k-no
183,Ayam Larisa,4.7,Chicken,"Padalarang, Kabupaten Bandung Barat","Ayam Larisa, dengan rating 4,7, adalah restoran ayam yang terletak di Kertamulya, Padalarang. Restoran ini dikenal dengan hidangan ayamnya yang lezat.","{'lat': -6.836267847249023, 'lng': 107.48248497770187}",-6.836267847,107.482485,https://maps.app.goo.gl/qvSWgm1BPxa92f3v5,https://lh5.googleusercontent.com/p/AF1QipM2v7wQ_tqf8OCx2gwTa1L4Y2RWODLtd3azxfv8=w408-h306-k-no
184,Dimsum Fen's Ceu,4.8,Cafe,"Padalarang, Kabupaten Bandung Barat","Dimsum Fen's Ceu, dengan rating 4.8 di TripAdvisor, adalah restoran dimsum di Cipeundeuy, Padalarang. Cafe yang terletak di Jalan Cipeundeuy ini terkenal dengan pilihan dimsumnya yang luar biasa dan menjamin pengalaman bersantap yang luar biasa.","{'lat': -6.860134036151484, 'lng': 107.48862225928397}",-6.860134036,107.4886223,https://maps.app.goo.gl/qT3dKAfYcH73aLCu6,https://lh5.googleusercontent.com/p/AF1QipOvo5qvVGQoACO0esLT1rnpEV_4hWgk49zvRUym=w408-h725-k-no
185,Warteg Bahari,4.6,Indonesian,"Padalarang, Kabupaten Bandung Barat","Warteg Bahari adalah lokasi makan siang di Kertajaya, Padalarang, dengan rating 4.6. Warung yang berlokasi di Jalan Raya Caringin No.335 ini memiliki menu yang beragam dan cocok untuk para penggemar masakan rumahan.","{'lat': -6.849978357027601, 'lng': 107.49654958132754}",-6.849978357,107.4965496,https://maps.app.goo.gl/71bb5RCbJYkuEuqr6,https://lh3.googleusercontent.com/gps-proxy/AFm_dcQsIJxKiqHyCNXzn-RM5ya3MxBuukHJDWuhgng8hPDBjEULZZxXwu9quVXhn-ZzwjnVaOxj561lqhN_IGB7Ru5a62ilC4931ZzWdvBhqshBD2uusg2v_zy6cjm2XIfUhHxSyV4madu-LKjV28XcLLsKyS8KrFfSc5DRk2fi1mu_zVBhV1DaoH2H8ihuTeKgHnYdO5k=w408-h306-k-no
186,Mie Baso Metro,4.5,Bakso,"Padalarang, Kabupaten Bandung Barat","Mie Baso Metro, dengan skor 4.5, adalah restoran bakso yang terletak di Kertajaya, Padalarang. Restoran ini terkenal dengan hidangan baksonya.","{'lat': -6.850232251642505, 'lng': 107.49833962178899}",-6.850232252,107.4983396,https://maps.app.goo.gl/q5HeFZnVwGJnUouK6,https://lh3.googleusercontent.com/gps-proxy/AFm_dcQ7fgLb9QWXgsHV264fvuAawRvsDZL5pek0ss_ulF57G_NF5fe0jtWNTH_dtxoLbQ2bR5SxwIhNTJYwxHVLg0y8__vH_Tre9pOBROaxEC4HAZXZm1MLbgYBJKSAQrJm4HFCWcE578r1a1FdeyDkIBE004sGKESunCY2Y2bDSXdTFwLNdu-K8Bhf1b-KxivDnIxzo7E=w408-h306-k-no
187,Driws,4.5,Cafe,"Padalarang, Kabupaten Bandung Barat","Driws, dengan rating 4.5, adalah sebuah bar makanan ringan yang terletak di Padalarang. Berlokasi di Jalan Rancabali, tempat ini menyediakan berbagai macam makanan ringan, memastikan pengalaman bersantap yang menyenangkan.","{'lat': -6.838806860239796, 'lng': 107.47992777704265}",-6.83880686,107.4799278,https://maps.app.goo.gl/CHVxSLyA12g34FLM6,https://lh5.googleusercontent.com/p/AF1QipN-Wd1fG3KEx3XjlL6X540AmYuaWxeyPuV_m90G=w408-h306-k-no
188,Beintema's Pizza and Artisan Bread,4.7,Western,"Padalarang, Kabupaten Bandung Barat","Beintema's Pizza and Artisan Bread, dengan rating 4.7, adalah restoran yang menwarkan makanan pizza dan roti dan terletak di Cipeundeuy, Padalarang.","{'lat': -6.864704021123341, 'lng': 107.46765321387844}",-6.864704021,107.4676532,https://maps.app.goo.gl/GimpKZVFLZ81cjGVA,https://lh5.googleusercontent.com/p/AF1QipPbAtI1SZDcTeha0d71CMvQb6rnyP6Hu2uorClt=w533-h240-k-no
189,Ikan Bakar Biota Laut,4.8,Indonesian,"Padalarang, Kabupaten Bandung Barat","Ikan Bakar Biota Laut, dengan rating 4,8, adalah restoran ikan bakar yang terletak di Kertajaya, Padalarang. Berlokasi di Jalan Raya Nasional, restoran ini terkenal dengan hidangan ikan bakarnya yang lezat, menjanjikan pengalaman bersantap hidangan laut yang menyenangkan.","{'lat': -6.839314661218875, 'lng': 107.49092373987727}",-6.839314661,107.4909237,https://maps.app.goo.gl/z5np3hzXqAnJmYmu6,https://lh5.googleusercontent.com/p/AF1QipM2FD7xcDaftkD4NJaTLtUwDCqY38TlMdS9j_-i=w408-h306-k-no
190,Angkringan Danbam Saeroun,4.6,Cafe,"Padalarang, Kabupaten Bandung Barat","Angkringan Danbam Saeroun, dengan skor 4.6, adalah restoran Korea yang terkenal dengan masakan Korea yang lezat.","{'lat': -6.835252238275566, 'lng': 107.48197353757001} ",-6.835252238,107.4819735,https://maps.app.goo.gl/HPYPts33jXik6QLT8,https://lh5.googleusercontent.com/p/AF1QipMACtvYjLcU7hoNzlFk8ahguiAMyR06RlboIaff=w408-h408-k-no
191,Bakso Trisnoroso,4.4,Bakso,"Ngamprah, Kabupaten Bandung Barat","Bakso Trisnoroso, yang memiliki rating 4,4, adalah restoran bakso yang terletak di Tanimulya, Ngamprah. ","{'lat': -6.850993934676234, 'lng': 107.52800314943583}",-6.850993935,107.5280031,https://maps.app.goo.gl/ABDVkZcAAz95KgWe8,https://lh5.googleusercontent.com/p/AF1QipMmEfE5FCHN02mVIXp6GeJ3yT80QjN_wLYbrbCL=w408-h544-k-no
192,RM Teladan Baru,4.7,Indonesian,"Ngamprah, Kabupaten Bandung Barat","RM Teladan Baru, dengan rating 4,7, adalah restoran Padang yang terletak di Mekar Rahayu, Cilame. Dikenal dengan masakan Padang otentiknya.","{'lat': -6.848454986500153, 'lng': 107.51879722706269}",-6.848454987,107.5187972,https://maps.app.goo.gl/T2ZwzDNyTY7avpEU6,https://lh5.googleusercontent.com/p/AF1QipMSH8fRroAN0lC8B0RKvTFkMrQmLZHMwOswaNKb=w480-h240-k-no
193,Ramen Aboy Padalarang,4.6,Japanese,"Padalarang, Kabupaten Bandung Barat","Ramen Aboy Padalarang, dengan skor 4,6, adalah kedai mie yang terletak di Kertamulya, Padalarang. Berlokasi di Jalan Letkol G.A. Manulang No.73, restoran ini menawarkan berbagai hidangan ramen yang lezat.","{'lat': -6.838806860239796, 'lng': 107.47941633691082}",-6.83880686,107.4794163,https://maps.app.goo.gl/sJm44veDD3EiPCtbA,https://lh5.googleusercontent.com/p/AF1QipMgaZbghYGK2GmCOL7qEhttBy8xdpC9RiYpups=w408-h306-k-no
194,SANTAI - All Day Dining,4.5,Western,"Padalarang, Kabupaten Bandung Barat","SANTAI - All Day Dining, dengan rating 4.5, adalah restoran all you can eat yang terletak di Cipeundeuy, Padalarang.","{'lat': -6.859626257335984, 'lng': 107.47992777704265}",-6.859626257,107.4799278,https://maps.app.goo.gl/bsgYnXNbfQtw9mkq8,https://lh5.googleusercontent.com/p/AF1QipNdbkzKg1-g4w9-EoFM6Du4fn7Q1yoVNIzREi4W=w408-h306-k-no
195,Hamasah Resto - Raja Kambing & Bebek Bakar Madu,4.6,Indonesian,"Padalarang, Kabupaten Bandung Barat","Hamasah Resto - Raja Kambing & Bebek Bakar Madu, dengan rating 4.6, adalah sebuah restoran yang terletak di Cipeundeuy, Padalarang. Terkenal dengan daging kambing bakar dan bebek bakar madunya, restoran yang terletak di Ruko Bumi Palangkawati 19, Jalan Parahyangan Raya ini menjanjikan pengalaman kuliner yang menyenangkan.","{'lat': -6.855399032004796, 'lng': 107.47893640449846}",-6.855399032,107.4789364,https://maps.app.goo.gl/kQhakxhmocLDvK3X8,https://lh5.googleusercontent.com/p/AF1QipOJSQiWo1Lupk2l2SRfJG1482YQeqesiOP4pwOX=w408-h544-k-no
196,Rokzy minang,4.5,Indonesian,"Padalarang, Kabupaten Bandung Barat","Rokzy Minang, yang memiliki rating 4,5, adalah restoran Padang yang terletak di Padalarang. Berlokasi di Jalan Letkol G.A. Manulang No.93, restoran ini menawarkan hidangan khas Minangkabau yang otentik dan memastikan pengalaman bersantap yang penuh cita rasa.","{'lat': -6.8342647366185485, 'lng': 107.48030969556731}",-6.834264737,107.4803097,https://maps.app.goo.gl/QzgirA2boyDVgCqQA,https://lh5.googleusercontent.com/p/AF1QipPV2AHXpHo3hcTEDkMEGT-1oFq6FFx4OU63lWw9=w408-h307-k-no
197,Rumah Makan Teladan Baru,4.5,Indonesian,"Ngamprah, Kabupaten Bandung Barat","Rumah Makan Teladan Baru, dengan rating 4.5, adalah restoran Padang lainnya yang terletak di Gadobangkong, Ngamprah. Terletak di Jalan Raya Gadobangkong No.144, restoran ini terkenal dengan masakan Padangnya yang kaya rasa dan gurih, menjanjikan pengalaman kuliner yang memuaskan.","{'lat': -6.857103369865751, 'lng': 107.51464197228856}",-6.85710337,107.514642,https://maps.app.goo.gl/SyDnA9gMcgmMQRdB7,https://lh5.googleusercontent.com/p/AF1QipP4LY9doUGzXuYhcEggEMot1h_ZQ083U3UVghYO=w480-h240-k-no
198,Saung Apung Mutiara Nugraha,4.4,Sundanese,"Batujajar, Kabupaten Bandung Barat","Saung Apung Mutiara Nugraha, dengan skor 4.4, adalah restoran yang terletak di Pangauban, Batujajar. Restoran yang terletak di kp cibogo ds ini terkenal dengan pengalaman bersantap di atas air yang indah dan terapung, memberikan suasana yang unik dan menyenangkan.","{'lat': -6.884371945496618, 'lng': 107.43430444476081}",-6.884371945,107.4343044,https://lh5.googleusercontent.com/p/AF1QipNVF_79FxvMzaig5ViPbGWNDPJi8RO5rMMrcxSH=w408-h306-k-no,https://lh5.googleusercontent.com/p/AF1QipNVF_79FxvMzaig5ViPbGWNDPJi8RO5rMMrcxSH=w408-h306-k-no
199,Dapur Kabitha,4.2,Sundanese,"Ngamprah, Kabupaten Bandung Barat","Dapur Kabitha, dengan rating 4.2, adalah restoran yang terletak di Tanimulya, Ngamprah. Berlokasi di Kabupaten Bandung Barat, restoran ini menawarkan menu yang beragam, memastikan pengalaman bersantap yang memuaskan bagi para pengunjungnya.","{'lat': -6.856421635452869, 'lng': 107.51635858612462}",-6.856421635,107.5163586,https://maps.app.goo.gl/5adUKoqjEotMaXTv7,https://lh5.googleusercontent.com/p/AF1QipP8ELl9JdqQvGpRnZBEYLHO0rNcVhwn6ApuV_lQ=w408-h306-k-no
200,Bakso Ecco,4.9,Bakso,"Ngamprah, Kabupaten Bandung Barat","Bakso Ecco, yang memiliki rating 4,9, adalah restoran bakso terkenal di Gadobangkong, Ngamprah.","{'lat': -6.864943245479303, 'lng': 107.52322504146888}",-6.864943245,107.523225,https://maps.app.goo.gl/za4PCTjYtJDCTg6Y9,https://lh5.googleusercontent.com/p/AF1QipPrZeXYRgGahxNt-A6L0OB0PxTHZqMgKpxaL-e2=w426-h240-k-no
201,Seafood Abah Laut,4.5,Seafood,"Ngamprah, Kabupaten Bandung Barat","Seafood Abah Laut, dengan rating 4.5, menawarkan pengalaman kuliner laut yang lezat di Jalan Somawinata No.185, Tanimulya, Ngamprah. Dengan beragam menu hidangan laut yang menggugah selera, pengunjung dapat menikmati hidangan laut yang memuaskan dalam suasana yang menyenangkan.","{'lat': -6.852672078750114, 'lng': 107.53386804725247}",-6.852672079,107.533868,https://maps.app.goo.gl/H7NVZkG2CwB9uW258,https://lh5.googleusercontent.com/p/AF1QipMbO1WrbrrusQJkmNQELNNDvQA2TlY-HPguO15a=w408-h306-k-no
202,Simplisio Menya (Ramen Bar) Kota Baru Parahyangan,4.6,Japanese,"Padalarang, Kabupaten Bandung Barat","Simplisio Menya (Ramen Bar) Kota Baru Parahyangan, dengan rating 4.6, adalah surga Ramen yang terletak di Bujanggamanik Ruko Pancawarna, Jl. Parahyangan Raya No.62, Kec. Padalarang. Tempat makan ini menjanjikan pengalaman menyantap Ramen yang penuh cita rasa dan otentik dalam suasana yang nyaman.","{'lat': -6.858125969656058, 'lng': 107.46314355720668}",-6.85812597,107.4631436,https://maps.app.goo.gl/6v3wAm7NieSV3j6y9,https://lh5.googleusercontent.com/p/AF1QipNaLw7ELppDgqd6A1y7zLzsKBBdelhOMiWEgaDq=w408-h544-k-no
203,KKOKIYO Authentic Korean Chicken [Kota Baru Parahyangan],4.7,Korean,"Padalarang, Kabupaten Bandung Barat","KKOKIYO Authentic Korean Chicken [Kota Baru Parahyangan], dengan skor 4,7, adalah restoran Korea yang terletak di Ruko Pancawarna Kota Baru Parahyangan, Jl. Bujanggamanik No.20, Kertajaya, Kec. Padalarang. Terkenal dengan hidangan ayam Korea yang otentik","{'lat': -6.861875483437902, 'lng': 107.46520349380997}",-6.861875483,107.4652035,https://maps.app.goo.gl/KWYFmF6hnrth7jM17,https://lh5.googleusercontent.com/p/AF1QipOA4t_41Z0Up0WKTE9_WtH7I1GYwKup6wk0EAya=w426-h240-k-no
204,Bakso Mas Jon Cabang 2,4.2,Bakso,"Padalarang, Kabupaten Bandung Barat","Bakso Mas Jon Cabang 2, dengan rating 4.2, adalah restoran bakso populer yang terletak di Jalan Letkol G.A. Manulang No.64, Padalarang. Dengan berbagai pilihan bakso yang enak.","{'lat': -6.836650913585687, 'lng': 107.47962305003288}",-6.836650914,107.4796231,https://maps.app.goo.gl/BR5HqGKfBhPGHrxC9,https://lh5.googleusercontent.com/p/AF1QipML4cFmeIRiNWlsCcbAjQQLRGSMi65HHolX54TB=w408-h541-k-no
205,Ayam Geprek Mekarsari,4.5,Chicken,"Ngamprah, Kabupaten Bandung Barat","Ayam Geprek Mekarsari, dengan nilai 4.5, adalah restoran ayam yang terletak di Jl Ciloa No.3 di Mekarsari, Ngamprah. Dikenal dengan ayam gorengnya yang beraroma dan renyah, restoran ini menjanjikan hidangan yang lezat dan sambal pedasnya.","{'lat': -6.827908794849055, 'lng': 107.49833877264595}",-6.827908795,107.4983388,https://maps.app.goo.gl/tdKKUMc54i6FU6hg6,https://lh5.googleusercontent.com/p/AF1QipNaR2kWfURdKLd7kLirpKwi2b8ggl0bASDsCxUl=w408-h306-k-no
206,Ten House,4.7,Cafe,"Ngamprah, Kabupaten Bandung Barat","Ten House, dengan rating 4.7, adalah restoran seblak yang terletak di Kampung Cinangela. Dengan berbagai pilihan seblak, pengunjung dapat menikmati pengalaman bersantap yang pedas dan gurih dalam suasana yang nyaman.","{'lat': -6.826545241687626, 'lng': 107.51413161993773}",-6.826545242,107.5141316,https://maps.app.goo.gl/wsr2ibeURVdSXuB88,https://lh5.googleusercontent.com/p/AF1QipO1AJX9s-aENjX4ezTI6L87JGrtLd4UPJXsig_3=w408-h306-k-no
207,Warteg Bahari 786,4.4,Indonesian,"Ngamprah, Kabupaten Bandung Barat","Warteg Bahari 786, dengan rating 4.4, adalah restoran Tegal yang terletak di Jalan Raya Gadobangkong di Gadobangkong, Ngamprah. Terkenal dengan makanan khas Tegal, restoran ini memastikan pengalaman kuliner yang memuaskan.","{'lat': -6.8551790411081495, 'lng': 107.52443130295411}",-6.855179041,107.5244313,https://maps.app.goo.gl/BuPxfZb3rnWQifeGA,https://lh5.googleusercontent.com/p/AF1QipNXaT_SmihpS9kGLrwNEZ3tJbMpKb_d-uBJv3-q=w408-h306-k-no
208,Daily Escape Cafe & Saung Pangaisan,4.4,Cafe,"Batujajar, Kabupaten Bandung Barat","Daily Escape Cafe & Saung Pangaisan, dengan skor 4.4, adalah restoran yang terletak di Pangauban, Batujajar. Menawarkan perpaduan antara kelezatan Cafe dan masakan lokal, tempat makan ini memberikan suasana yang santai dan menyenangkan.","{'lat': -6.889138440130022, 'lng': 107.44549504682257}",-6.88913844,107.445495,https://maps.app.goo.gl/Ev2117yNtv7dJd8G9,https://lh5.googleusercontent.com/p/AF1QipMaF8m8URiQ_GjUzWK0k6U3fBtoqIneb93zjZAo=w408-h271-k-no
209,Seblakengineer,4.6,Indonesian,"Padalarang, Kabupaten Bandung Barat","Seblakengineer, dengan skor 4.6, adalah restoran Asia Tenggara yang terletak di Kp.Ciampel Rt09/Rw03 No :28.Ds.Laksana Mekar Kec. Padalarang Kab. Bandung Barat. Dikenal dengan hidangan Seblak yang beraroma.","{'lat': -6.867323923519425, 'lng': 107.50935308152408}",-6.867323924,107.5093531,https://maps.app.goo.gl/1QBXxGJoiKJgtktp7,https://lh5.googleusercontent.com/p/AF1QipOUOgoqOdtKKU5zIjqWvYFxew72swBX1Gr3YXd0=w408-h306-k-no
210,Shinju ramen Cimareme,4.5,Japanese,"Ngamprah, Kabupaten Bandung Barat","Shinju Ramen Cimareme, dengan skor 4.5, adalah sebuah kedai mie yang terletak di Jalan Raya Cimareme No.276 di Cimareme, Ngamprah. Dengan berbagai pilihan mie ramennya yang lezat.","{'lat': -6.844144903635361, 'lng': 107.51003972705851}",-6.844144904,107.5100397,https://maps.app.goo.gl/fJyD3SHpc73WM8RR8,https://lh5.googleusercontent.com/p/AF1QipPv3aNNLyCrcN0gANp2WSgIoJ9R9Bs5Kqzprk6r=w408-h725-k-no
211,"Lesehan Ikan Bakar ""Arga""",4.1,Indonesian,"Cipatat, Kabupaten Bandung Barat","Lesehan Ikan Bakar ""Arga"", dengan rating 4.1, adalah restoran Ikan Bakar yang terletak di Jalan Raya Bandung - Cianjur di Mandalawangi, Cipatat. Terkenal dengan hidangan ikan bakarnya, restoran ini dinikmati dengan duduk lesahan sambil menyantap hidangan ikan bakar yang lezat.","{'lat': -6.81414685473419, 'lng': 107.3411249255899}",-6.814146855,107.3411249,https://maps.app.goo.gl/HsxqFPhvmkGeAvEm9,https://lh5.googleusercontent.com/p/AF1QipNILtVvMKoaEehkXpnmQqcXkY6Vxd8urMWdCR27=w408-h306-k-no
212,Steak Ranjang Ujung Berung,4.5,Steak,"Ujung Berung, Kota Bandung","Sejak munculnya tren kuliner pedas di Bandung, Steak Ranjang telah berinovasi dengan menghadirkan steak berlevel pertama di kota ini. Steak Ranjang menawarkan enam tingkatan kepedasan yang diberi nama unik, termasuk level PDKT, level PHP, level HTS, level CLBK, level TTM, & level Plus-Plus.","{'lat':-6.912232727346393, 'lng':107.69448496014628}",-6.912232727,107.694485,https://maps.app.goo.gl/BQRa7dSLTFHi4f4EA,https://lh5.googleusercontent.com/p/AF1QipP3P0XtwVeKL-loXmFO8dfKT5-ToXdGfmP4xO4=w163-h92-k-no
213,Waroeng Steak And Shake Ujung Berung Bandung,4.3,Steak,"Ujung Berung, Kota Bandung","Restoran ini menawarkan beragam jenis makanan dan minuman, termasuk Burger, Sandwich, dan Steak dengan cita rasa yang lezat dan harga yang terjangkau, cocok untuk dinikmati bersama keluarga. Anda dapat mencoba seluruh menu yang disajikan, yang dirancang untuk memanjakan lidah Anda. Restoran ini juga menyediakan berbagai kategori kuliner, memberikan variasi pilihan yang beragam bagi para pengunjung.","{'lat':-6.916791271353245, 'lng':107.70663000266654}",-6.916791271,107.70663,https://maps.app.goo.gl/3cfmEhLsZ59ikXSm6,https://lh5.googleusercontent.com/p/AF1QipOTbcjMKxW5cmYMlwTD8WDkE7EzjfWsTNmAxjJh=w122-h92-k-no
214,BaseCamp Cafe,4.1,Cafe,"Ujung Berung, Kota Bandung","Cafe ini menawarkan ruang yang sangat luas dengan spot-spot menarik yang cocok untuk diabadikan dalam foto Instagram. Fasilitas parkir yang tersedia lebih dari cukup, dan Cafe ini juga dilengkapi dengan lapangan untuk berlatih panahan dan berbagai olahraga ketangkasan lainnya. Tempat ini sangat cocok untuk mengadakan acara dengan jumlah peserta mulai dari 50 orang ke atas.","{'lat':-6.9112528476586395, 'lng':107.69160963205844}",-6.911252848,107.6916096,https://maps.app.goo.gl/2dKjB3iD8tMhcicR7,https://lh5.googleusercontent.com/p/AF1QipMS4OExEtzQLADXGFntzoyjp3EEPvkVpKTyH6xL=w122-h92-k-no
215,Ayam Bakar KQ5 Ujung Berung,4.4,Chicken,"Ujung Berung, Kota Bandung","Di Ayam Bakar KQ5, Anda dapat memilih antara ayam bakar Bandung dan pejantan. Harga per porsi mulai dari Rp 19.000-25.000, yang sudah termasuk nasi putih, tahu goreng, dan lalapan, memberikan nilai tambah yang ekonomis. Lokasinya terletak di Jalan Soekarno-Hatta Nomor 620, Manjahlega, Rancasari, Kota Bandung. Restoran ini buka setiap hari dari pukul 08.00 hingga 22.00 WIB.","{'lat':-6.918384639275307, 'lng':107.70864161549424}",-6.918384639,107.7086416,https://maps.app.goo.gl/oSS53gfhtxsHUnmWA,https://lh5.googleusercontent.com/p/AF1QipNPNyJ-pxtdqrb7a41BYFFUlGyL_LlqnjrT4qYO=w122-h92-k-no
216,Sensei Ramen ujung berung,4.2,Japanese,"Cinambo, Kota Bandung","Jika Anda penggemar ramen, sangat direkomendasikan untuk mengunjungi Sensei Ramen di Ujung Berung. Mereka menawarkan beragam pilihan mie, termasuk ramen dan udon, serta opsi untuk nasi. Menu ini dilengkapi dengan berbagai pilihan topping, seperti sosis, jamur enoki, beef, seafood, dan lainnya. Anda juga dapat memilih kuah sesuai selera, seperti Original, Oriental, Kari, dan Suju (Susu Keju). Sensei Ramen memberikan kebebasan untuk menyesuaikan level kepedasan sesuai preferensi Anda. Selain itu, variasi minuman yang ditawarkan meliputi teh manis, coklat, yoghurt, hingga boba. Pastikan untuk mencoba pengalaman kuliner yang menyenangkan di sana!","{'lat':-6.9140817302359485, 'lng':107.69945777633107}",-6.91408173,107.6994578,https://maps.app.goo.gl/bfhiHVF4VG9X73Pa9,https://lh5.googleusercontent.com/p/AF1QipNPnqyVRJwxOlxYBEiDNWxBfhaAWjIVlGFh24Km=w80-h106-k-no
217,Kresna Seafood Resto,4.3,Seafood,"Ujung Berung, Kota Bandung",Restaurant yang berlokasi di area Ujungberung dan menyajikan berbagai hidangan laut yang lezat,"{'lat':-6.906923009433791, 'lng':107.68775793877124}",-6.906923009,107.6877579,https://maps.app.goo.gl/cCHbVjtfhvvgmTi19,https://lh5.googleusercontent.com/p/AF1QipPfvpKKq64nJyXafz_0FegcKsBBdBuKqUFjz8Yk=w80-h142-k-no
218,Sambal Ndower Ujungberung,4.5,Indonesian,"Ujung Berung, Kota Bandung","Hanya dari namanya, mungkin kita sudah dapat menebak bahwa restoran ini menawarkan hidangan pedas. Cocok untuk dinikmati di tengah udara sejuk Bandung, Sambal Ndower terletak di Jalan AH.Nasution No.45, Ujung Berung. Restoran ini menyajikan berbagai hidangan pedas yang memuaskan bagi para penggemar rasa pedas. Jam operasionalnya biasanya dimulai dari pukul 09.00 pagi hingga 21.00 malam. Dengan konsep makanan desa yang dihadirkan secara modern, tempat ini menjadi favorit kalangan muda Bandung yang gemar menjelajahi berbagai kuliner.","{'lat':-6.912333673647936, 'lng':107.69342276425769}",-6.912333674,107.6934228,https://maps.app.goo.gl/tjZfhdLusXtX82B9A,https://lh5.googleusercontent.com/p/AF1QipPfXcjsKnqwg4LLlIHBzEb-MuKpltIQgeo3YDy9=w80-h106-k-no
219,Rully Bistro Cafe & Roastery,4.2,Cafe,"Cileunyi, Kabupaten Bandung","Rully Bistro Cafe telah berdiri sejak tahun 2013 dan terletak di Cibiru. Meskipun bersaing dengan bisnis-bisnis lainnya, Rully Bistro Cafe berhasil mempertahankan posisinya. Cafe ini menonjol dengan menyajikan beragam makanan, minuman, dan kopi untuk memuaskan seluruh pelanggan setianya.","{'lat':-6.929032033549411, 'lng':107.72483553538184}",-6.929032034,107.7248355,https://maps.app.goo.gl/MJzd9yMRYzBxL9Gr9,https://lh5.googleusercontent.com/p/AF1QipP1w9nXIkw95JHLjx5P9BEArUp0sfTjwMZOwwLp=w80-h106-k-no
220,Shifu Ramen,4.5,Japanese,"Panyileukan, Kota Bandung","Shifu Ramen menghadirkan pengalaman kuliner yang unik dengan menyatukan cita rasa Jepang dan sentuhan Nusantara, disajikan dalam suasana makan dengan warna khas. Tempat ini menawarkan dua pilihan tempat duduk, yaitu dengan kursi atau lesehan, dan menyediakan akses wifi gratis. Shifu Ramen menonjolkan berbagai varian ramen, dengan empat opsi porsi, termasuk reguler, remix, bigger, dan yamien. Selain itu, Shifu Ramen juga menawarkan lima varian kuah yang telah disesuaikan dengan selera orang Indonesia. Level kepedasan dapat disesuaikan sesuai keinginan pelanggan, dan mereka juga menyajikan sambel rempah beraroma khas dari Shifu Ramen.","{'lat':-6.918125819957969, 'lng':107.70955767270618}",-6.91812582,107.7095577,https://maps.app.goo.gl/5p6aJu6v3MTA5YD88,https://lh5.googleusercontent.com/p/AF1QipOf0waBFagxBE-rjIim8E8qAC8652_n5ByyWurI=w163-h92-k-no
221,Saung Legit,4.1,Sundanese,"Cibiru, Kota Bandung","Spesialisasi di tempat ini adalah Gurame Bakar yang disajikan dengan sambal cobek, menghasilkan citarasa yang sangat istimewa. Meskipun ukurannya besar, gurame ini matang merata, empuk, dan memiliki rasa gurih yang khas. Saat dicocol dengan sambal, pengalaman kuliner ini semakin memikat. Bagi mereka yang tidak terlalu menyukai makanan pedas, sambalnya masih memberikan kesan yang pas di lidah. Sambal ini merupakan kombinasi harmonis antara bahan-bahan seperti cabai, cacahan jahe, dan kemangi, memberikan sensasi pedas yang nikmat setiap kali cabai atau jahe tergigit.","{'lat':-6.9254534600048565, 'lng':107.71161760924672}",-6.92545346,107.7116176,https://maps.app.goo.gl/8q6iC9ivAdv4xiJh6,https://lh5.googleusercontent.com/p/AF1QipPpsWKKy4_EegjPYtSwDPnZ9nZcZaMHH9cN2XbO=w122-h92-k-no
222,Baso Mantep Cilengkrang,4.4,Bakso,"Cibiru, Kota Bandung","Restoran ini menawarkan berbagai jenis makanan dan minuman, termasuk Soto, Bakso, dan Sop, yang sangat lezat dinikmati bersama keluarga Anda. Anda dapat menikmati hidangan makanan yang lezat dengan harga terjangkau di restoran ini.","{'lat':-6.919148288188805, 'lng':107.71196093200348}",-6.919148288,107.7119609,https://maps.app.goo.gl/sRAhYsiw1gygB1A26,https://lh5.googleusercontent.com/p/AF1QipMxhVzD3dueHgMFrdSrL5v3h83j9-noDVkGhCT9=w122-h92-k-no
223,Ayam Penyet Esti,4.3,Chicken,"Cibiru, Kota Bandung","Ayam Penyet Esti adalah sebuah perusahaan kuliner yang beroperasi di Indonesia, menghadirkan berbagai hidangan ayam penyet terbaik. Ayam diolah dengan bumbu spesial yang lezat, disajikan dengan kentang goreng, dan disertai kuah kacang yang pedas dan gurih. Hidangan ini sempurna untuk dinikmati bersama nasi, menciptakan pengalaman kuliner yang memuaskan. Ayam Penyet Esti juga menawarkan beragam hidangan Indonesia lainnya, termasuk bakso, sop buntut, dan berbagai menu lainnya. Kelezatan dan kualitas hidangan yang disajikan membuat pengunjung kembali untuk menikmati pengalaman kuliner yang tak terlupakan.","{'lat':-6.930736106643628, 'lng':107.7165957892197}",-6.930736107,107.7165958,https://maps.app.goo.gl/tk9UgfYNKSFSCHBn8,https://lh5.googleusercontent.com/p/AF1QipN_Yswz00HD315V0sx5KHt598zZK6c3EWz4I54c=w153-h92-k-no
224,Ayam Geprek Pangeran Cipadung,4.2,Chicken,"Cibiru, Kota Bandung","Menyajikan paket ayam geprek dengan beragam pilihan sambal, termasuk Sambal Korek, Sambal Cikur, Sambal Daun Jeruk, Sambal Buto Ijo, Sambal Matah, Sambal Tomat, Sambal Teri, Sambal Terasi, dan Saus Keju. Setiap paket sudah termasuk nasi sepuasnya, es teh dengan sistem free refill, dan lalapan sepuasnya.","{'lat':-6.92558979261886, 'lng':107.71109986470708}",-6.925589793,107.7110999,https://maps.app.goo.gl/K1x72qMYn7758c769,https://lh5.googleusercontent.com/p/AF1QipNuvMQby5ApLutuRr8Kzz0RgaSTeODpRSe0d0s8=w184-h92-k-no
225,Ponyo Resto & Wedding,4.5,Sundanese,"Cinunuk, Kabupaten Bandung",Sundanese restaurant yang populer dengan suasana romantis,"{'lat':-6.936556062815672, 'lng':107.72970870138161}",-6.936556063,107.7297087,https://maps.app.goo.gl/Do3Y5uDs4tKLwg6J8,https://lh5.googleusercontent.com/p/AF1QipMXZ-p004eLZAGf9-aC6k8WovFtJEraWnxtI81Z=w408-h306-k-no
226,Dapur Delima Resto,5,Indonesian,"Ciguruwik, Kabupaten Bandung",Tempat brunch yang nyaman dengan menu yang beragam,"{'lat':-6.930937793961144, 'lng':107.73053016441803}",-6.930937794,107.7305302,https://maps.app.goo.gl/E78A4eZz3EiAVRfV9,https://lh5.googleusercontent.com/p/AF1QipOqAjAYb1K-LODmwV1v82VSEE0s9zehFZcnT9Dc=w408-h408-k-no
227,Warung Nasi Balong,4,Sundanese,"Cibiru Hilir, Kabupaten Bandung",Warung nasi Sunda yang menyajikan hidangan khas Sunda dengan harga terjangkau,"{'lat':-6.936752540178901, 'lng':107.72250434722085}",-6.93675254,107.7225043,https://maps.app.goo.gl/ABkBW7VHH72GpKgUA,https://streetviewpixels-pa.googleapis.com/v1/thumbnail?panoid=ZT2L0IEdcA7RkOLcTOVAww&cb_client=search.gws-prod.gps&w=408&h=240&yaw=119.826454&pitch=0&thumbfov=100
228,WN. Ampera Cinunuk,4.4,Sundanese,"Cinunuk, Kabupaten Bandung",Restoran sunda yang terkenal dengan menu nasi liwetnya,"{'lat':-6.937975243227052, 'lng':107.73426010674582}",-6.937975243,107.7342601,https://maps.app.goo.gl/bqt7ReyXpafBtHib9,https://lh5.googleusercontent.com/p/AF1QipNXA1F0YlSodasYKTyNBWMxPX1NIdvSfDLbfFOH=w408-h544-k-no
229,Warung Nasi H Udung,5,Indonesian,"Cileunyi, Kabupaten Bandung",Warung nasi yang sederhana dengan menu nasi gurih yang lezat,"{'lat':-6.933699641539631, 'lng':107.72317578161527}",-6.933699642,107.7231758,https://maps.app.goo.gl/32bDPEkDYsnT93k27,https://lh3.googleusercontent.com/gps-proxy/AFm_dcTneMJ5GJc2ML4PGjIG_Oy88rVPUgo0C7CrXH45HnhLc1E1hyxmVJ9d-eTaiIgBYbPLMKPTA23C4nElsNzRglgq8GpqIWscOx88libeWx9Bh8cc2WT8mW-ybd8lgFS57ucBH4YuzTEA5Ot81jIthm0ID0jDDhvGVcO5EeDK8Y9sKr0i3OfNEARfkk0qPhuH99lZXrs=w408-h306-k-no
230,Restoran Elby,4.3,Indonesian,"Cinunuk, Kabupaten Bandung",Restoran Indonesia yang menyajikan hidangan khas Indonesia dengan harga yang bersahabat,"{'lat':-6.920067679754177, 'lng':107.73533919510693}",-6.92006768,107.7353392,https://maps.app.goo.gl/uCvgVwUaZLweFZCV6,https://lh5.googleusercontent.com/p/AF1QipMX9RnpNNyrbOm1fUmYlDn3R4BHuIEoVBROEreM=w408-h544-k-no
231,Mie Ayam Rancani,4.3,Indonesian,"Cileunyi, Kabupaten Bandung",Mie ayam yang terkenal dengan kuahnya yang gurih dan mienya yang kenyal,"{'lat':-6.942547347804159, 'lng':107.72152816441806}",-6.942547348,107.7215282,https://maps.app.goo.gl/qktLxFNoh5TWSjix7,https://streetviewpixels-pa.googleapis.com/v1/thumbnail?panoid=fmK-ypzQV7R3rbKqiKDKMQ&cb_client=search.gws-prod.gps&w=408&h=240&yaw=263.95078&pitch=0&thumbfov=100
232,Rumah Makan Padang Bagindo,4.8,Indonesian,"Cileunyi, Kabupaten Bandung",Rumah makan Padang yang menyajikan hidangan khas Padang dengan cita rasa yang autentik,"{'lat':-6.946309147784548, 'lng':107.71971096441806}",-6.946309148,107.719711,https://maps.app.goo.gl/iBLUThfpcBKYJQQr5,https://lh5.googleusercontent.com/p/AF1QipNme2YlTGnH-EFrWyg9Eq0MsJAO8myF9Y1vAWmz=w408-h544-k-no
233,Warung Makan Jawa Ngaprak,4.6,Indonesian,"Cipadung, Kabupaten Bandung",Warung makan Jawa Ngapak yang menyajikan hidangan khas Jawa Ngapak dengan harga yang terjangkau,"{'lat':-6.933741490470104, 'lng':107.71638786441804}",-6.93374149,107.7163879,https://maps.app.goo.gl/Bj1hHax7uQ2Fi8HP7,https://lh5.googleusercontent.com/p/AF1QipONJNY6t_4h1223cBLyLlf4TjagoFLFpwZeuBJP=w408-h306-k-no
234,Majas Space & Resto,4.5,Indonesian,"Cinunuk, Kabupaten Bandung",Restoran dengan suasana yang modern dan kekinian,"{'lat':-6.937492544631373, 'lng':107.72875373558193}",-6.937492545,107.7287537,https://maps.app.goo.gl/obbyL1tBZGjhG7JT6,https://lh5.googleusercontent.com/p/AF1QipOdrkoxqnTKaviIxKOA2impBTKhgC-GLLE1oJr-=w408-h408-k-no
235,Mie Baso Berkah,4.4,Indonesian,"Cileunyi, Kabupaten Bandung",Tempat makan yang populer dengan menu mie basonya yang lezat,"{'lat':-6.943778946783984, 'lng':107.72228476441803}",-6.943778947,107.7222848,https://maps.app.goo.gl/qBvbUVSLsSRgQowg8,https://lh3.googleusercontent.com/gps-proxy/AFm_dcQ0r3C09qeqpcTHZounx-oyEWyDlnYIlHWniff4kK3POf1fKY7jBgj8G16uCCp2QyPJTSwMK1QN_GLcSM3jv02nyvbHJaHICiMQD6-VLRlAhPGWQjBNzwr9COXEyBFKUsNvVQHqnwWF8mgIns4NO-dsa5LRW7tRe4wRlYiOYHFZAv7NQXlXoZegowOj9Ahy-ucYNwg=w408-h306-k-no
236,Warung Mamah Maya,4,Indonesian,"Cibiru, Kota Bandung",Warung makan yang menyajikan hidangan rumahan yang lezat,"{'lat':-6.927437333385481, 'lng':107.71282885118123}",-6.927437333,107.7128289,https://maps.app.goo.gl/YzjW1aTkyVtxT9hEA,https://streetviewpixels-pa.googleapis.com/v1/thumbnail?panoid=CU3-GF1AQ_sflFLEKooQZw&cb_client=search.gws-prod.gps&w=408&h=240&yaw=95.52848&pitch=0&thumbfov=100
237,Ichami Dimsum,5,Cafe,"Cileunyi, Kabupaten Bandung",Tempat makan yang menyajikan dimsum yang lezat dan terjangkau,"{'lat':-6.939263488213006, 'lng':107.71860631070399}",-6.939263488,107.7186063,https://maps.app.goo.gl/8g9M3D8Mi54LUtkF8,https://streetviewpixels-pa.googleapis.com/v1/thumbnail?panoid=7-UDaqNP7Rp_Axvmr0m8Zw&cb_client=search.gws-prod.gps&w=408&h=240&yaw=210.39253&pitch=0&thumbfov=100
238,Masakan Padang Ampera,4.3,Indonesian,"Cileunyi, Kabupaten Bandung",Rumah makan Padang yang menyajikan hidangan Padang yang autentik,"{'lat':-6.941903989405379, 'lng':107.72196972419643}",-6.941903989,107.7219697,https://maps.app.goo.gl/sB9fZZVd3frYRrzx5,https://lh3.googleusercontent.com/gps-proxy/AFm_dcSrxiesxnneysnTk4sDlWp3o_UlcPuXDEtNL7qvVLGKFMbW8WJmNRuWyn9cs0YsN2PTd0u1Q-PPN0zVKzA7CxMvGBsZ3xG82Nm44KV9ja9RL6uvPDvNYyeYCPaVbEPf3TIrtMcn3gYF96uvJymA-yHQbaBWkR1T1IOkdqtARwG31_8tT2wfg1es_2Ls-pLWkVQMCOU=w408-h306-k-no
239,Pecel Lele Millenial,4.6,Indonesian,"Cileunyi, Kabupaten Bandung",Tempat makan yang populer dengan menu pecel lelenya yang lezat,"{'lat':-6.933058583135293, 'lng':107.7236090376888}",-6.933058583,107.723609,https://maps.app.goo.gl/M7EAZ2ohvTdzZ5iWA,https://lh5.googleusercontent.com/p/AF1QipP8-WZxOhh3rYwT3nUPlGkqTwH5HR3aFW0nF8VY=w408-h305-k-no
240,Ayam Bersih Berkah Permata Biru,4.4,Chicken,"Cileunyi, Kabupaten Bandung",Tempat makan yang menyajikan ayam goreng yang lezat,"{'lat':-6.928437435755486, 'lng':107.7196656530322}",-6.928437436,107.7196657,https://maps.app.goo.gl/8gAyDMKExBSjSFJp6,https://lh5.googleusercontent.com/p/AF1QipMCVjtDcWDGs3QhPyoahx-it2EQpLvZ9aOmC2k=w408-h306-k-no
241,Taman Peri,4.3,Sundanese,"Cileunyi, Kabupaten Bandung",Tempat makan yang menyajikan hidangan Sunda yang lezat di tengah suasana yang asri,"{'lat':-6.934738035144528, 'lng':107.7228595376888}",-6.934738035,107.7228595,https://maps.app.goo.gl/qodXra69mXRtSjts9,https://lh5.googleusercontent.com/p/AF1QipNCAKLKHCyh11aSDjCMgAgH4WumDQv2Fpa3cYC2=w408-h408-k-no
242,Kedai Sinar,4.9,Cafe,"Cileunyi, Kabupaten Bandung",Restoran sunda dengan suasana nyaman dan menu yang beragam,"{'lat':-6.940109588595013, 'lng':107.72221269536054}",-6.940109589,107.7222127,https://maps.app.goo.gl/9sZH8uRCQqKYAnfW9,https://lh5.googleusercontent.com/p/AF1QipM4TZCCmJ4kmcK2Ep6pMP74ZuxvmIwsKhEN37k7=w408-h408-k-no
243,Nasi Goreng King,4.5,Indonesian,"Cileunyi, Kabupaten Bandung",Tempat makan yang populer dengan menu nasi gorengnya yang lezat,"{'lat':-6.930332434625282, 'lng':107.72690303768879}",-6.930332435,107.726903,https://maps.app.goo.gl/1rTUQ3k9u46g6TQr7,https://lh5.googleusercontent.com/p/AF1QipPx5MqsmtIxN6OnHkqDXaAubrQYfdxCjXJCKyO3=w408-h306-k-no
244,Rumah Audi,4.4,Indonesian,"Cileunyi, Kabupaten Bandung","Tempat makan yang menyajikan seblak, nasi, dan gorengan yang lezat","{'lat':-6.946183491674209, 'lng':107.71848265118147}",-6.946183492,107.7184827,https://maps.app.goo.gl/ygAybU6YwYziTbuM7,https://lh5.googleusercontent.com/p/AF1QipNAQArkcps6yeS3wpHa7mu2vorqvglbXCILDi5x=w427-h240-k-no
245,Warmindo Yayang,4.8,Indonesian,"Cileunyi, Kabupaten Bandung","Tempat makan yang menyajikan mie, bakso, dan gorengan yang lezat","{'lat':-6.93471078615812, 'lng':107.72329685118127}",-6.934710786,107.7232969,https://maps.app.goo.gl/9DtokqfFfRwy5TDJ6,https://lh5.googleusercontent.com/p/AF1QipMDuAYdre3ERTbL8T-FqgtXftwDLDVcfxg6ZBky=w426-h240-k-no
246,Warteg Warung Tegal Berkah Mulya,4.4,Indonesian,"Cileunyi, Kabupaten Bandung",Tempat makan yang menyajikan warteg dengan harga yang terjangkau,"{'lat':-6.9344715860502095, 'lng':107.72321041070386}",-6.934471586,107.7232104,https://maps.app.goo.gl/CKU9PiQcGXVpzuUH9,https://lh5.googleusercontent.com/p/AF1QipNuAlhn2wsOYs4qhAseGpnPQG5Bp11_BucV0AO9=w408-h306-k-no
247,Ayam Goreng Bakar Sari Manis,4.6,Chicken,"Cibiru, Kota Bandung",Tempat makan yang menyajikan ayam goreng bakar yang lezat,"{'lat':-6.925598078760432, 'lng':107.71513643768873}",-6.925598079,107.7151364,https://maps.app.goo.gl/FdeYRa8C9h5CYiyeA,https://lh5.googleusercontent.com/p/AF1QipN2h4QAjONSxc178AP3TDrcT6fl_JI1ju2WqMfU=w408-h408-k-no
248,Nasi Goreng Mas Eko Bahari,4.4,Indonesian,"Cileunyi, Kabupaten Bandung",Tempat makan yang menyajikan nasi goreng dengan harga yang terjangkau,"{'lat':-6.945664591104376, 'lng':107.72052008001721}",-6.945664591,107.7205201,https://maps.app.goo.gl/1VZ9C8MENzwzHjVD8,https://lh5.googleusercontent.com/p/AF1QipM69u40Tpx8_j-KOP6jv2Wt6aPjt0N77WIIMx1a=w408-h271-k-no
249,Kupat Tahu Lontong Kari Singaparna (syamjaya2),4.7,Sundanese,"Cileunyi, Kabupaten Bandung","Tempat makan yang menyajikan kupat tahu, lontong kari, dan berbagai makanan Sunda lainnya","{'lat':-6.937305637613539, 'lng':107.72598799536058}",-6.937305638,107.725988,https://maps.app.goo.gl/cXmVhRvUw4FT7feY7,https://lh5.googleusercontent.com/p/AF1QipMHWkdpwHhO5JpmN_Kpi3x91D3WAAqu95RqnXTt=w408-h306-k-no
250,Rasaruna Resto,4.7,Indonesian,"Panyileukan, Kota Bandung",Restoran yang menyajikan hidangan Indonesia dan internasional dengan suasana yang elegan,"{'lat':-6.924012133089676, 'lng':107.70119579536039}",-6.924012133,107.7011958,https://maps.app.goo.gl/KHCs5AgXyHqEnFJV7,https://lh5.googleusercontent.com/p/AF1QipO-WX6Dx6ZhtGchIZd7R65dsNYu_tF8o6qP1H6u=w408-h306-k-no
251,Saung Kebab,4.3,Western,"Cileunyi, Kabupaten Bandung",Tempat makan yang menyajikan kebab dengan suasana yang asri,"{'lat':-6.932161185809617, 'lng':107.71922435303225}",-6.932161186,107.7192244,https://maps.app.goo.gl/dL8SaojcHHc9iXEr6,https://lh5.googleusercontent.com/p/AF1QipPfmDjDFLvIf-f-7XpJFIuLxghqjAXRY7zCT1S9=w426-h240-k-no
252,McDonald's Cibiru,4.2,Chicken,"Cileunyi, Kabupaten Bandung",Cafe yang menyajikan kopi dan makanan yang lezat,"{'lat':-6.932565285190254, 'lng':107.72570555303226}",-6.932565285,107.7257056,https://maps.app.goo.gl/WkUqvSvzPYJ7JhcGA,https://lh5.googleusercontent.com/p/AF1QipPZaQ9RcxlviFX0oYDdjiX3j_x1dlA6vKLr58_6=w408-h272-k-no
253,Rumah Makan Panyileukan,4.4,Western,"Panyileukan, Kota Bandung","Restoran cepat saji yang menyajikan berbagai makanan dan minuman, dengan harga yang terjangkau","{'lat':-6.932228824043508, 'lng':107.71801266061983}",-6.932228824,107.7180127,https://maps.app.goo.gl/1aA9PNA8r3C3mGr77,https://lh5.googleusercontent.com/p/AF1QipNFiWysi1_ilZwoZRaQGvvx-fhJSz8YICNn0oOW=w408-h306-k-no
254,Bubur Ayam Aqeela,4.8,Indonesian,"Banjaran, Kabupaten Bandung","Tempat makan yang menyajikan bubur ayam yang lezat, dengan kuah yang gurih dan topping yang beragam","{'lat':-7.044690936173564, 'lng':107.57151149536162}",-7.044690936,107.5715115,https://maps.app.goo.gl/8e5iiTbGoQQkYL517,https://streetviewpixels-pa.googleapis.com/v1/thumbnail?panoid=Xxys-CQNiujcJec5PQjWZg&cb_client=search.gws-prod.gps&w=408&h=240&yaw=20.925747&pitch=0&thumbfov=100
255,Mulya Rasa kantin & catering,4.4,Indonesian,"Cibiru, Kota Bandung","Tempat makan yang menyajikan hidangan ayam yang lezat, seperti ayam goreng, ayam bakar, dan ayam penyet","{'lat':-6.933390235189675, 'lng':107.71647465118127}",-6.933390235,107.7164747,https://maps.app.goo.gl/Ee16naiuZoWMrYvG8,https://lh5.googleusercontent.com/p/AF1QipMs3EbjliSN2v3bYgepHiHRIz_7csnuxtmjLgM2=w426-h240-k-no
256,Seblak Kedai Warna,4.7,Cafe,"Bojongsoang, Kabupaten Bandung","Tempat makan yang menyajikan seblak yang lezat dan terjangkau, dengan pilihan topping yang beragam","{'lat':-6.97411350508837, 'lng':107.63287688001752}",-6.974113505,107.6328769,https://maps.app.goo.gl/Cv5uBreZwjDEAh7n6,https://lh5.googleusercontent.com/p/AF1QipNOaZ-4iNFkngNWtteWHszBngeDxB1ApkLxrIIk=w408-h306-k-no
257,Mie Baso Sakrimoro Solo,4.8,Bakso,"Cileunyi, Kabupaten Bandung","Tempat makan yang menyajikan mie baso yang lezat dan autentik, dengan kuah yang gurih dan mie yang kenyal","{'lat':-6.940993537993009, 'lng':107.73015732419644}",-6.940993538,107.7301573,https://maps.app.goo.gl/p4uzCoXHdri1qeAAA,https://lh5.googleusercontent.com/p/AF1QipMj_yCuHQlu0_dP7PMpL7JSdwbJ4dZKbhql62BQ=w408-h544-k-no
258,Mie Baso Mang Iwa,4.7,Bakso,"Cileunyi, Kabupaten Bandung","Tempat makan yang menyajikan mie baso yang lezat dan murah, dengan pilihan topping yang beragam","{'lat':-6.937829687021354, 'lng':107.72190372419644}",-6.937829687,107.7219037,https://maps.app.goo.gl/2fRvTek4kLTmgYRRA,https://lh3.googleusercontent.com/gps-proxy/AFm_dcRie0LDDoXLsUDzUs7cNL6a0VBnAU1gRjCSWvqIOxObQ-S00NhW95h6EPCSwnLPSXbcGasVnA3YcLNHJnktA6N2kyhaaIEARml3dj4fvfwNq2uFQ631W0sboN3A6Et6K7F_GeVvB18mPyJlA7IvP0bPrRC6QsjEVKXgnFv0Bw2ozGMCrhoSJcJsxcgjSOms_dOKVsg=w408-h306-k-no
259,Takoyaki Okasan,4.8,Japanese,"Cileunyi, Kabupaten Bandung","Tempat makan yang menyajikan takoyaki yang lezat dan unik, dengan berbagai pilihan topping","{'lat':-6.938277538030245, 'lng':107.72607505303219}",-6.938277538,107.7260751,https://maps.app.goo.gl/5jPgJZmVqBPBZPVE8,https://lh5.googleusercontent.com/p/AF1QipOZYof2q4U0kqSOumsbUGQFob0d-yaLQK7HJVrp=w427-h240-k-no
260,Dapur Tehusan,4.9,Sundanese,"Cileunyi, Kabupaten Bandung","Tempat makan yang menyajikan hidangan Sunda yang lezat dan nyaman, dengan suasana yang asri","{'lat':-6.947473891922144, 'lng':107.71695075303238}",-6.947473892,107.7169508,https://maps.app.goo.gl/FxjVwmuaYpxYiS8z6,https://lh5.googleusercontent.com/p/AF1QipNbByKK3vcRBXTFk-qEaI6xzJW_ozYxuQfXZvOJ=w408-h544-k-no
261,Pecel Putra Ronggolawe 2,4.8,Indonesian,"Cibiru, Kota Bandung","Tempat makan yang menyajikan pecel yang lezat dan segar, dengan pilihan lauk pauk yang beragam","{'lat':-6.922762081997697, 'lng':107.71569528186791}",-6.922762082,107.7156953,https://maps.app.goo.gl/gq2Uam33CmuWpGFS7,https://lh5.googleusercontent.com/p/AF1QipM0z1TKGJDGXVzh34Olbx7CYfuPFp2_LLvYXcOk=w408-h544-k-no
262,Steak Moen Moen,5,Steak,"Panyileukan, Kota Bandung","Tempat makan yang menyajikan steak yang lezat dan berkualitas, dengan pilihan daging yang beragam","{'lat':-6.927529658006691, 'lng':107.70027204565332}",-6.927529658,107.700272,https://maps.app.goo.gl/asjmNHQMaQbG9WBZ8,https://lh5.googleusercontent.com/p/AF1QipMc0gXBEa1KKOMGOcUv2ETfoAjYjvLOOo0XyoLk=w408-h306-k-no
263,Batagor Mantri,4.2,Cafe,"Cileunyi, Kabupaten Bandung",Tempat makan yang menyajikan batagor yang lezat dan terjangkau,"{'lat':-6.936733636180472, 'lng':107.73103019536053}",-6.936733636,107.7310302,https://maps.app.goo.gl/2B3uboW7ihXvPsnj8,https://lh5.googleusercontent.com/p/AF1QipOqnH5W1bvIWl_I_R7lbP6bdkYRpSqYxostw8j1=w480-h240-k-no
264,Juragan Seafood,4.7,Seafood,"Cileunyi, Kabupaten Bandung","Tempat makan yang menyajikan seafood yang lezat dengan pilihan yang beragam, mulai dari ikan, cumi, hingga udang","{'lat':-6.933506985615026, 'lng':107.72283226652466}",-6.933506986,107.7228323,https://maps.app.goo.gl/QADNkPxVQB8AK2ZT9,https://lh3.googleusercontent.com/gps-proxy/AFm_dcR2zz2zVFyAFN8vwSXKq2zZ4qHiqqyHcWKQUelrlu582M124K2f9qJTsrxSAHD_AVTfP2EFOdwNED2ezOniyRzJWmvMIhOGXFkAIQKb3Yo81Hg3O2_14ZwQMF3twi7rK1XBOvuAvKlDCLOO6YYD0m5wx6eCtuDtLAy6aSKAweeE_jWI0ehXBObn4xMpyPae2RABQl4=w408-h306-k-no
265,Nasi Goreng Sedap Malam,4.7,Indonesian,"Cileunyi, Kabupaten Bandung",Tempat makan yang menyajikan nasi goreng yang lezat dan legendaris,"{'lat':-6.940943088971376, 'lng':107.72245772419642}",-6.940943089,107.7224577,https://maps.app.goo.gl/FEhze4iwNz7RnkkPA,https://lh5.googleusercontent.com/p/AF1QipOGGdeebGGteTnMrSbx-sqwkvaMzMEv7pMdXAGW=w408-h289-k-no
266,Kedai D'Bor Cinunuk,4.7,Indonesian,"Cileunyi, Kabupaten Bandung",Tempat makan yang menyajikan hidangan ayam yang lezat dan terjangkau,"{'lat':-6.941271890291428, 'lng':107.72133756652474}",-6.94127189,107.7213376,https://maps.app.goo.gl/BD3iosiYvwNpaVzY8,https://lh5.googleusercontent.com/p/AF1QipNKFBeCs6OflZRg_Jn0pscE74yn6h4H3X_f_Oxo=w421-h240-k-no
267,Kedai Rakus,4.9,Indonesian,"Cileunyi, Kabupaten Bandung","Tempat makan yang menyajikan hidangan seafood yang lezat dengan harga yang terjangkau, seperti cumi goreng tepung, udang bakar, dan ikan bakar","{'lat':-6.936758836785827, 'lng':107.73097988001716}",-6.936758837,107.7309799,https://maps.app.goo.gl/PaZhip7QqPXxipJy6,https://lh5.googleusercontent.com/p/AF1QipORpcJkUg3UfX3XBalNlFRgHLVH0CiFuGHjaztn=w408-h432-k-no
268,Warung Pondok Sate Cibiru,4.3,Indonesian,"Cileunyi, Kabupaten Bandung",Tempat makan yang menyajikan sate yang lezat dan khas,"{'lat':-6.934983435944494, 'lng':107.7232241530322}",-6.934983436,107.7232242,https://maps.app.goo.gl/ZiTwpkd6jNfMwjJ4A,https://lh5.googleusercontent.com/p/AF1QipNpl8Nm3KeTtPz26oRVfz_3QZvfZBh8ulOatu7R=w408-h272-k-no
269,Djamuan Restoran,4.6,Indonesian,"Cileunyi, Kabupaten Bandung","Tempat makan yang menyajikan hidangan Indonesia yang lezat dan beragam, mulai dari nasi goreng, soto, hingga rendang","{'lat':-6.932651734839871, 'lng':107.72404125118133}",-6.932651735,107.7240413,https://maps.app.goo.gl/geYQhxkeCevCXAJw9,https://lh5.googleusercontent.com/p/AF1QipOohIdcKcbe4rLDVJRQ9ALyxmjFiIxv1WNxqWai=w408-h544-k-no
270,Rumah Makan Dika Baru,4.2,Indonesian,"Soreang, Kabupaten Bandung","Tempat makan yang menyajikan hidangan Padang yang lezat dan autentik, seperti rendang, ayam pop, dan gulai ikan","{'lat':-7.027888924926589, 'lng':107.5420488665256}",-7.027888925,107.5420489,https://maps.app.goo.gl/8HPuuUv8KboRvAWo6,https://lh5.googleusercontent.com/p/AF1QipOG917LUm1oObQbQVxaXc6C2UQE7cwkgFfU_3_y=w426-h240-k-no
271,Warung seblak intan(kameumeut),4.7,Indonesian,"Kutawaringin, Kabupaten Bandung","Tempat makan yang menyajikan seblak yang pedas dan gurih, dengan pilihan topping yang beragam","{'lat':-6.9756889552883345, 'lng':107.53372979351003}",-6.975688955,107.5337298,https://maps.app.goo.gl/soxMQm6FQHyWqYhAA,https://streetviewpixels-pa.googleapis.com/v1/thumbnail?panoid=NDHVRDk7CGpAta3pwVNm5w&cb_client=search.gws-prod.gps&w=408&h=240&yaw=54.891518&pitch=0&thumbfov=100
272,Seblak mommy,4.5,Indonesian,"Cileunyi, Kabupaten Bandung","Tempat makan yang menyajikan seblak yang lezat dan terjangkau, dengan berbagai macam topping","{'lat':-6.93373893535486, 'lng':107.72366165303214}",-6.933738935,107.7236617,https://maps.app.goo.gl/JhbrAT66RZHSqikf7,https://lh5.googleusercontent.com/p/AF1QipM6F_Qckm5NeMml4xxdqs3V-4XfqFHMj02yzYbE=w408-h544-k-no
273,Ayam Goreng & Bakar Pak Dadang,4.8,Chicken,"Cibiru, Kota Bandung","Tempat makan yang menyajikan ayam goreng dan bakar yang lezat, dengan bumbu yang meresap","{'lat':-6.919279279203187, 'lng':107.71372336652449}",-6.919279279,107.7137234,https://maps.app.goo.gl/ERR3hmV6UYxMy2D56,https://streetviewpixels-pa.googleapis.com/v1/thumbnail?panoid=F2XbCQT7wl_idn2MjFL7DA&cb_client=search.gws-prod.gps&w=408&h=240&yaw=92.18103&pitch=0&thumbfov=100
274,Mie Baso Boga Rasa,4.8,Bakso,"Cileunyi, Kabupaten Bandung","Tempat makan yang menyajikan mie baso yang lezat dan kenyal, dengan kuah yang gurih","{'lat':-6.947713441885431, 'lng':107.71572703768895}",-6.947713442,107.715727,https://maps.app.goo.gl/Feoog89ieJctRBcw9,https://lh5.googleusercontent.com/p/AF1QipOhmRIDGPo-E8RVect87nWV0DPqO7p8PC7PMkjc=w408-h272-k-no
275,Warteg Berkah Bahari,4.3,Indonesian,"Rancaekek, Kabupaten Bandung","Tempat makan yang menyajikan warteg yang lezat dan terjangkau, dengan pilihan lauk pauk yang beragam","{'lat':-6.953604444950035, 'lng':107.76754773768901}",-6.953604445,107.7675477,https://maps.app.goo.gl/cfosSvQtcVCxsKVY8,https://lh5.googleusercontent.com/p/AF1QipOv8sBOefbbzKTPvfzCXT9P_xmt6fRzndfKeF5f=w533-h240-k-no
276,Truly Food Rancaekek,4,Indonesian,"Rancaekek, Kabupaten Bandung","Tempat makan yang menyajikan hidangan Indonesia yang lezat, dengan pilihan menu yang beragam","{'lat':-6.957174096974892, 'lng':107.76735192234558}",-6.957174097,107.7673519,https://maps.app.goo.gl/nx8cWKVShrctThk97,https://lh5.googleusercontent.com/p/AF1QipMe1HogITUYpBLfMmdHy-iO1nUNi-IChzMJTsfC=w408-h544-k-no
277,Ayam Geprek Jabrix,5,Chicken,"Rancaekek, Kabupaten Bandung","Tempat makan yang menyajikan ayam geprek yang lezat dan pedas, dengan pilihan level kepedasan yang beragam","{'lat':-6.9571379966239615, 'lng':107.77799279536079}",-6.957137997,107.7779928,https://maps.app.goo.gl/fzjxoF3XWjg4KMik8,https://lh5.googleusercontent.com/p/AF1QipMnmboNWOdAy3HnoItFUb-1MnWpHnyHph6K6Ccm=w408-h725-k-no
278,Baso Ikan Sinar Bahari RR,4.2,Bakso,"Rancaekek, Kabupaten Bandung","Tempat makan yang menyajikan baso ikan yang lezat dan gurih, dengan pilihan kuah yang beragam","{'lat':-6.954296995007872, 'lng':107.76756502419656}",-6.954296995,107.767565,https://maps.app.goo.gl/7f2MR5hr2583SEFM9,https://lh5.googleusercontent.com/p/AF1QipOijlk-McIXa0StQVzU-PxnnVDbMlrIh6ko2_zU=w408-h884-k-no
279,Sari Kedele Rumah Makan Tahu Sumedang,4.7,Sundanese,"Rancaekek, Kabupaten Bandung","Restoran yang menyajikan hidangan khas Sunda dan Jawa yang lezat, dengan harga yang terjangkau","{'lat':-6.957139796294392, 'lng':107.77835752419654}",-6.957139796,107.7783575,https://maps.app.goo.gl/ASRGj1KRq6rC3Xdt6,https://lh5.googleusercontent.com/p/AF1QipMcM-oHKWbydH29ladVC3t3NSZYZbaQYOJR7x3H=w408-h544-k-no
280,Kedai D'kum,4.5,Sundanese,"Jatinangor, Kabupaten Bandung",Tempat makan yang menyajikan hidangan Indonesia yang lezat,"{'lat':-6.928534933855465, 'lng':107.78227765488313}",-6.928534934,107.7822777,https://maps.app.goo.gl/9WS9xtBsKM3UKaxq5,https://lh5.googleusercontent.com/p/AF1QipPW74PhuVScFZxXA2v-wkJ3opiemqlrBMzuhUrV=w408-h544-k-no
281,Sate D'Zael Madura,5,Indonesian,"Rancaekek, Kabupaten Bandung",Tempat makan yang menyajikan sate Madura yang lezat,"{'lat':-6.956274246339773, 'lng':107.77527370885318}",-6.956274246,107.7752737,https://maps.app.goo.gl/VkkuerCbxnS8GaeG8,https://lh5.googleusercontent.com/p/AF1QipOIjttcAr7uGP0J3ELaQj7Qfp8vMnJD_ycRCEVm=w426-h240-k-no
282,"Mie Baso & Mie Ayam Lotus ""B""",4.6,Indonesian,"Jatinangor, Kabupaten Bandung",Tempat makan yang menyajikan hidangan mie yang lezat dan terjangkau,"{'lat':-6.955483595544832, 'lng':107.77436206837577}",-6.955483596,107.7743621,https://maps.app.goo.gl/C1YeaijcirkLAa3V9,https://lh5.googleusercontent.com/p/AF1QipNgVaMbtkPc0JM_yuEYk07DaNuh41owme1gJzyX=w426-h240-k-no
283,Dunkin' Donuts (Rancaekek),4.5,Cafe,"Rancaekek, Kabupaten Bandung",Tempat makan yang menyajikan donat yang lezat dan populer,"{'lat':-6.954523094899365, 'lng':107.77011749536072}",-6.954523095,107.7701175,https://maps.app.goo.gl/dnLPdpviTXW4hbwS9,https://lh5.googleusercontent.com/p/AF1QipNUOhXyDNyA-eVGtOARnjRYHMRPapJvqN5ZrOEK=w408-h544-k-no
284,Soto Ojolali,5,Indonesian,"Jatinangor, Kabupaten Bandung","Soto Bandung yang lezat dan legendaris, dengan kuah yang gurih dan kaldu yang kaya","{'lat':-6.954322544517034, 'lng':107.76450833768905}",-6.954322545,107.7645083,https://maps.app.goo.gl/5gH6xoreeT4M1GP17,https://lh5.googleusercontent.com/p/AF1QipNVsAHG7iEIdYshTIY7-6znHnXFdIBI5iqC1w5M=w408-h306-k-no
285,Ayam Penyet Surabaya,4.5,Chicken,"Jatinangor, Kabupaten Bandung","Ayam penyet yang lezat dan pedas, dengan ayam yang empuk dan bumbu yang meresap","{'lat':-6.954433545800813, 'lng':107.77138819536073}",-6.954433546,107.7713882,https://maps.app.goo.gl/LBGMXi6QzdWdavhG6,https://lh5.googleusercontent.com/p/AF1QipOKuz95ajG7mU7hMdovCignZFpYSXXZfMURHUt1=w408-h725-k-no
286,Kopi Menak Rancaekek,4.1,Cafe,"Rancaekek, Kabupaten Bandung","Kopi yang lezat dan nikmat, dengan aroma yang harum dan rasa yang pahit manis yang pas","{'lat':-6.954949955037242, 'lng':107.77915708270416}",-6.954949955,107.7791571,https://maps.app.goo.gl/9hRqCf9W1XxAtgtF7,https://lh5.googleusercontent.com/p/AF1QipMPOJj9QuJHZpHzH4x4vszMi7hfpjGNMdO9ZDLh=w408-h408-k-no
287,Dzaman Pecel Lele,4.4,Indonesian,"Cimanggung, Kabupaten Bandung","Pecel lele yang lezat dan gurih, dengan lele yang empuk dan bumbu pecel yang gurih","{'lat':-6.96601371799841, 'lng':107.8093788217905}",-6.966013718,107.8093788,https://maps.app.goo.gl/bMF5yiF81qTRsW2X8,https://lh5.googleusercontent.com/p/AF1QipNtKogP2YsSe3mVOzTOVMKvePEqUoTgvWvwQviW=w408-h408-k-no
288,Warung Sate Abeh,4.9,Indonesian,"Jatinangor, Kabupaten Bandung","Sate yang lezat dan empuk, dengan daging yang juicy dan bumbu yang meresap","{'lat':-6.95580909542302, 'lng':107.77423432419661}",-6.955809095,107.7742343,https://maps.app.goo.gl/tMCu3VwrYRiCvJMA7,https://lh5.googleusercontent.com/p/AF1QipN2NtRzyDFNgcRiAvWd1UsH4XIHQ7lIG2Wx4qep=w426-h240-k-no
289,Ayam Geprek Pangeran Cinunuk,4.6,Chicken,"Panyileukan, Kota Bandung","Ayam geprek yang lezat dan pedas, dengan ayam yang empuk dan bumbu geprek yang gurih","{'lat':-6.942085638609848, 'lng':107.71431768186808}",-6.942085639,107.7143177,https://maps.app.goo.gl/VYBfAWW3Cb16u2fo9,https://lh5.googleusercontent.com/p/AF1QipOXQWfCGn0QSHiSBUFdhIHUygwa1kgIrjLiHtF7=w427-h240-k-no
290,Rumah Makan Sunda Sukahati,4.8,Indonesian,"Cileunyi, Kabupaten Bandung","Restoran Sunda yang lezat dan terjangkau, dengan berbagai hidangan Sunda yang menggugah selera","{'lat':-6.929735132548787, 'lng':107.72756671070384}",-6.929735133,107.7275667,https://maps.app.goo.gl/UXnqVhPsWAUf9cwU7,https://lh5.googleusercontent.com/p/AF1QipPkRU9TI32symFLZKY6ioJtaLCMXnDdrZvrMkYr=w408-h725-k-no
291,Steak Roso,4.2,Steak,"Cileunyi, Kabupaten Bandung","Steak yang lezat dan berkualitas, dengan daging yang empuk dan bumbu yang meresap","{'lat':-6.938761987986578, 'lng':107.73736605303225}",-6.938761988,107.7373661,https://maps.app.goo.gl/Rr3oJmskgsUSAxir6,https://lh5.googleusercontent.com/p/AF1QipPl9XA1CzWXtS5Qv9otHp-nXmybzVQ3wFcLn64e=w408-h253-k-no
292,Baso Mantep,4.3,Bakso,"Cileunyi, Kabupaten Bandung",Bakso yang lezat dengan tekstur yang kenyal dan bumbu yang meresap,"{'lat':-6.938822887514637, 'lng':107.73695936652474}",-6.938822888,107.7369594,https://maps.app.goo.gl/LEwpHUDJg63m6fov8,https://lh5.googleusercontent.com/p/AF1QipN94uKtBpEz5MkQ9Tg3YQg1-YblpsF51xfUSQfX=w408-h306-k-no
293,Bakso Idaman permata biru cinunuk,4.2,Bakso,"Cileunyi, Kabupaten Bandung",Bakso yang lezat dengan berbagai pilihan topping,"{'lat':-6.9374406879530035, 'lng':107.73111655303224}",-6.937440688,107.7311166,https://maps.app.goo.gl/rbVHh69wPCdtdNyB6,https://lh5.googleusercontent.com/p/AF1QipMHwg-bi0bU6Dyf-rDQQMAHajsq1NoHQ7M6qVDr=w486-h240-k-no
294,Bakso Benhil Cibiru,4.7,Bakso,"Cileunyi, Kabupaten Bandung",Bakso yang lezat dengan kuah yang gurih dan kaldu yang kaya,"{'lat':-6.933730236080977, 'lng':107.72851481070386}",-6.933730236,107.7285148,https://maps.app.goo.gl/QsXbKyHiFHDQQ43L7,https://lh5.googleusercontent.com/p/AF1QipNoh1r7LEyuQe7zuf9u0kUjeZCTujN5NEidW9fq=w408-h306-k-no
295,Saung Bale,4.5,Sundanese,"Cileunyi, Kabupaten Bandung",Tempat makan Sunda yang nyaman dengan suasana yang asri,"{'lat':-6.939650788387883, 'lng':107.7315237818681}",-6.939650788,107.7315238,https://maps.app.goo.gl/5FRibt1iRba5x7qX7,https://lh5.googleusercontent.com/p/AF1QipMLcTUzeFh6iknxLwnvqlehru9ds_V8DLxM1q6k=w408-h544-k-no
296,Kampoeng Sawah Soreang,4.2,Sundanese,"Cileunyi, Kabupaten Bandung",Tempat makan Sunda yang asri dengan pilihan menu yang beragam,"{'lat':-6.932709993743116, 'lng':107.72485347116415}",-6.932709994,107.7248535,https://maps.app.goo.gl/pRgpDEwgZgKhcbL97,https://lh5.googleusercontent.com/p/AF1QipNDfmY8fEhhSovN8RWaiXYV_cwC4RWlMoXHa6no=w408-h306-k-no
297,Rm Saung Lalakon,4.3,Sundanese,"Margahayu, Kabupaten Bandung",Tempat makan Sunda yang unik dengan konsep yang menarik,"{'lat':-6.956732546265918, 'lng':107.57077755303243}",-6.956732546,107.5707776,https://maps.app.goo.gl/WQSNyNQ6Y8qHQdxK7,https://lh5.googleusercontent.com/p/AF1QipO3W99RQ664Jtq9X8E-oDH4HQVZsX0z64yJ1aXb=w408-h306-k-no
298,Rumah Makan Sindang Kabita 2,4.2,Sundanese,"Cangkuang, Kabupaten Bandung",Tempat makan Sunda yang lezat dengan harga yang terjangkau,"{'lat':-7.033014134617198, 'lng':107.55107109536155}",-7.033014135,107.5510711,https://maps.app.goo.gl/cJmLBSJxRu1pQ8A47,https://lh5.googleusercontent.com/p/AF1QipOT9mBIW2m0RtM0HLfkGsJMLyHUjorFUhVUtD3-=w408-h306-k-no
299,Rumah Makan Panyindangan Pangalengan,4.1,Sundanese,"Kutawaringin, Kabupaten Bandung",Tempat makan Sunda yang lezat dengan pemandangan yang indah,"{'lat':-6.958163597512615, 'lng':107.52637722419662}",-6.958163598,107.5263772,https://maps.app.goo.gl/cP3WJGUoGugWPweU9,https://lh5.googleusercontent.com/p/AF1QipM6TMTZQ7Otpz_H6acmiUIqKIbtNEUt5VFqmyM=w408-h725-k-no
300,Dapur Pasanggrahan,4.5,Sundanese,"Katapang, Kabupaten Bandung",Tempat makan Sunda yang nyaman dengan pilihan menu yang lezat,"{'lat':-7.029741584790933, 'lng':107.54965401070486}",-7.029741585,107.549654,https://maps.app.goo.gl/Kuv9FG9Kjge68ViE9,https://lh5.googleusercontent.com/p/AF1QipOqm8gsKskK4o1qtvGxSaXeCUX08SZTQpqK0TB0=w408-h251-k-no
301,Warung Nasi & Bakso Barokah,4.1,Bakso,"Pangalengan, Kabupaten Bandung",Tempat makan Bakso yang lezat dan terjangkau,"{'lat':-7.155141268754502, 'lng':107.56375232652941}",-7.155141269,107.5637523,https://maps.app.goo.gl/aiZxKAgV8QYC5hz66,https://lh5.googleusercontent.com/p/AF1QipOqDWeDtLjNrCDSWYLcRsxt0NIO9G3yDBLCdN2W=w408-h272-k-no
302,Rumah Makan Erna,4.3,Sundanese,"Pangalengan, Kabupaten Bandung",Tempat makan Sunda yang lezat dan terjangkau,"{'lat':-7.177135407913968, 'lng':107.57092182604971}",-7.177135408,107.5709218,https://maps.app.goo.gl/tC1JV1e67MzLGkvm7,https://lh5.googleusercontent.com/p/AF1QipMQapYTE_5glD8lJfSv_e6a-XKeVAs5Y3KrSYUj=w426-h240-k-no
303,Resto & Cafe Sate Pariss,4.7,Indonesian,"Pangalengan, Kabupaten Bandung",Tempat makan yang menyajikan sate yang lezat dan khas,"{'lat':-7.166414647427419, 'lng':107.57279709536279}",-7.166414647,107.5727971,https://maps.app.goo.gl/jjqXFFj22bGHmd8c9,https://lh5.googleusercontent.com/p/AF1QipOmaJHa1_BjQ-2kyzPmnHs10CzSW_6TuFYO8RZ_=w408-h306-k-no
304,Warung Nasi Ibu Mimin,4.5,Indonesian,"Pangalengan, Kabupaten Bandung",Tempat makan yang menyajikan nasi liwet yang lezat dan legendaris,"{'lat':-7.178865298254431, 'lng':107.58038378001946}",-7.178865298,107.5803838,https://maps.app.goo.gl/L2BPGiBgMnq8ZEmJ6,https://lh5.googleusercontent.com/p/AF1QipMhuJrhaZqvJiqVokqF2H5ZWK4SMkD7swcOIzrW=w533-h240-k-no
305,Warung Kopi,4.3,Cafe,"Pangalengan, Kabupaten Bandung",Tempat makan yang menyajikan kopi yang lezat dan nikmat,"{'lat':-7.186399279975726, 'lng':107.58216879536307}",-7.18639928,107.5821688,https://maps.app.goo.gl/RvwSbZYgKWrrmwacA,https://lh5.googleusercontent.com/p/AF1QipMaIiY74xqa07lZVBE8du8aZygoM6-oEQNz9uO3=w408-h272-k-no
306,Warung Lesehan Teh Nia,4.5,Sundanese,"Pangalengan, Kabupaten Bandung",Tempat makan yang menyajikan hidangan Sunda yang lezat dan nyaman,"{'lat':-7.187503491339374, 'lng':107.55443153769124}",-7.187503491,107.5544315,https://maps.app.goo.gl/MZJrWf9gtBsBWWDG8,https://lh5.googleusercontent.com/p/AF1QipP4Imzwg34Qpom6DF_OANMe8fFMnZGYVxOZyNvJ=w408-h408-k-no
307,Rumah Makan Asti,4.5,Sundanese,"Pangalengan, Kabupaten Bandung",Tempat makan yang menyajikan hidangan Sunda yang lezat dan terjangkau,"{'lat':-7.188638058324675, 'lng':107.55365152419895}",-7.188638058,107.5536515,https://maps.app.goo.gl/QF6YBXkrmRJB65Z89,https://lh5.googleusercontent.com/p/AF1QipMz7a-edsGopDQDX34cq473iAiafe4wUI3g34g3=w408-h306-k-no
308,Warung Makan Tangek,4.4,Sundanese,"Pangalengan, Kabupaten Bandung",Tempat makan yang menyajikan hidangan Sunda yang lezat dan asri,"{'lat':-7.191213081844958, 'lng':107.54776478001969}",-7.191213082,107.5477648,https://maps.app.goo.gl/DUqAwqATxjcH2A8F9,https://lh5.googleusercontent.com/p/AF1QipOILLtq6YVdLUeT5jduQY-Xx86xPW55npPyEi2i=w426-h240-k-no
309,Rumah Makan Uni Jelita,4.3,Sundanese,"Pangalengan, Kabupaten Bandung",Tempat makan yang menyajikan hidangan Padang yang lezat dan autentik,"{'lat':-7.174698896309138, 'lng':107.5708404665271}",-7.174698896,107.5708405,https://maps.app.goo.gl/GWKphcdLAj9Ts6vi6,https://lh5.googleusercontent.com/p/AF1QipOpKSLgFwxXLHFiUtorO3e00I4Ut4njM7Q2Q3Fc=w408-h544-k-no
310,Seblak Balak,4.3,Indonesian,"Pangalengan, Kabupaten Bandung",Tempat makan yang menyajikan seblak yang pedas dan gurih,"{'lat':-7.1311434926856725, 'lng':107.55498872419835}",-7.131143493,107.5549887,https://maps.app.goo.gl/XhtycPcFsmxTEGTP7,https://lh5.googleusercontent.com/p/AF1QipOLYNaXIOczDTRtZAobsfF-eDG5QD1JoH7EK3sQ=w408-h306-k-no
311,Nongki Cafe Pangalengan,4.5,Cafe,"Pangalengan, Kabupaten Bandung",Tempat makan yang menyajikan berbagai hidangan yang lezat dan nyaman,"{'lat':-7.176061183409239, 'lng':107.57377426652705}",-7.176061183,107.5737743,https://maps.app.goo.gl/2LL4eJWXR6ERjPoTA,https://lh5.googleusercontent.com/p/AF1QipNtl3_sOtu__-RNFmEcpTE2wsz_P90TFx9qOuUs=w408-h408-k-no
312,Pia kawitan,4.4,Cafe,"Pangalengan, Kabupaten Bandung",Tempat makan yang menyajikan pia yang lezat dan legendaris,"{'lat':-7.177317267682542, 'lng':107.57726113817745}",-7.177317268,107.5772611,https://maps.app.goo.gl/QiUjLYdGcnQ2SBK17,https://lh5.googleusercontent.com/p/AF1QipOguSPt-0-68ah2su7WengNUxpWmUaU3FRI_e41=w426-h240-k-no
313,Teras Malabar,4.6,Cafe,"Pangalengan, Kabupaten Bandung",Tempat makan yang menyajikan berbagai hidangan yang lezat dan romantis,"{'lat':-7.177148573624545, 'lng':107.56900029536288}",-7.177148574,107.5690003,https://maps.app.goo.gl/h932RSDRzVsPs2Wk8,https://lh5.googleusercontent.com/p/AF1QipOQriARFebZDCv4Bg6wIgP7Avu8qzvMcogk5Abo=w408-h407-k-no
314,Malabar Cafe Indonesia,4.6,Cafe,"Pangalengan, Kabupaten Bandung",Tempat makan yang menyajikan berbagai hidangan yang lezat dan instagramable,"{'lat':-7.1770953497425465, 'lng':107.57068472261389}",-7.17709535,107.5706847,https://maps.app.goo.gl/EfeAydN5n9t3ovNVA,https://lh5.googleusercontent.com/p/AF1QipMVbhxZDiAwRkL-ZoNyNRU2z04k7I1o-aQgg2GN=w408-h725-k-no
315,Kedai Ngopi Hira,4.5,Cafe,"Pangalengan, Kabupaten Bandung",Tempat makan yang menyajikan kopi yang lezat dan nyaman,"{'lat':-7.1627434907333605, 'lng':107.57118126652696}",-7.162743491,107.5711813,https://maps.app.goo.gl/uKGBEJaPt6LPmgwe6,https://lh5.googleusercontent.com/p/AF1QipMeyUaPhfGIGBzs3OG8BITVuX9XsMepHpPzWl01=w408-h408-k-no
316,Bakso Soun & Mie Ayam Podomoro,4.6,Bakso,"Pangalengan, Kabupaten Bandung",Tempat makan yang menyajikan hidangan mie yang lezat dan terjangkau,"{'lat':-7.163009671246272, 'lng':107.5714751241987}",-7.163009671,107.5714751,https://maps.app.goo.gl/4gqPHter35eGakBb7,https://lh5.googleusercontent.com/p/AF1QipPpiwiNv_ZjY78DNIq1VrMQkH7y3XYlYZfopqw-=w408-h306-k-no
317,RM. Ayam Bakar Mamah Haji,4.3,Chicken,"Pangalengan, Kabupaten Bandung",Tempat makan yang menyajikan ayam bakar yang lezat dan populer,"{'lat':-7.1845918671550635, 'lng':107.55840810885545}",-7.184591867,107.5584081,https://maps.app.goo.gl/foTfyxNaeMpvULcZA,https://lh5.googleusercontent.com/p/AF1QipO-rKAxOpqV5fxwbzJroSXupA5CdC7K8sTdeEgN=w408-h306-k-no
318,Kedai CC 168,4.4,Indonesian,"Cimaung, Kabupaten Bandung",Tempat makan yang menyajikan hidangan Sunda yang lezat dan beragam,"{'lat':-7.101252794867514, 'lng':107.55877038001883}",-7.101252795,107.5587704,https://maps.app.goo.gl/FUpr3MZTXo2JWAMw5,https://lh5.googleusercontent.com/p/AF1QipOvWamNuSuRCLdRtMHz1ieHpP-E-4mLYed25tzk=w426-h240-k-no
319,teras pojok kuliner cangkuang,4.8,Indonesian,"Cimaung, Kabupaten Bandung",Tempat makan yang menyajikan berbagai hidangan lezat dan terjangkau,"{'lat':-7.0696074561982085, 'lng':107.56568607948257}",-7.069607456,107.5656861,https://maps.app.goo.gl/yH7gJazySR2EPrkV9,https://lh5.googleusercontent.com/p/AF1QipO-iRTth4kWyGgL-zgB5LHoYeLLfEfcSXm0wuNl=w408-h306-k-no
320,Nasi Goreng Arisman,4.8,Indonesian,"Banjaran, Kabupaten Bandung",Tempat makan yang menyajikan nasi goreng yang lezat dan legendaris,"{'lat':-7.0667433320687145, 'lng':107.56614741943932}",-7.066743332,107.5661474,https://maps.app.goo.gl/QWvR8sNzPDCwUdAGA,https://lh5.googleusercontent.com/p/AF1QipPM57Wvc_Ivj66b7YIAQ3uvUKe1P_xFnoaWKePD=w408-h544-k-no
321,Pondok Sate Pengkolan (Pardi),4.8,Indonesian,"Dayeuhkolot, Kabupaten Bandung",Tempat makan yang menyajikan sate yang lezat dan populer,"{'lat':-6.96965384865924, 'lng':107.59059141222453}",-6.969653849,107.5905914,https://maps.app.goo.gl/vB9WBGV2xsabwAkj7,https://lh5.googleusercontent.com/p/AF1QipNheV3nuZS9n-2gP6CQdj8bR40b7Im0aZYAsxMl=w426-h240-k-no
322,Ayam Gepuk Pak Gembus Cibaduyut,4.8,Chicken,"Dayeuhkolot, Kabupaten Bandung",Tempat makan yang menyajikan ayam gepuk yang lezat dan bikin nagih,"{'lat':-6.970335419731976, 'lng':107.59024808947743}",-6.97033542,107.5902481,https://maps.app.goo.gl/Z3piBqYjywcoyDoV6,https://lh5.googleusercontent.com/p/AF1QipN9lkTahod6u7fVMYrTIPZFE_jbxlJdTMTd_NqC=w408-h408-k-no
323,Rm. Sangkan Hurip 3 Ciwidey,4.6,Sundanese,"Dayeuhkolot, Kabupaten Bandung",Tempat makan yang menyajikan hidangan Sunda yang lezat dan asri,"{'lat':-6.967268342099988, 'lng':107.58973310535676}",-6.967268342,107.5897331,https://maps.app.goo.gl/DRnAAjeDbj1gZAsB8,https://lh5.googleusercontent.com/p/AF1QipPSfJaQHznu3Vkt8PzfHqJZQRhqhe9Gwmn3OoLr=w408-h725-k-no
324,Rumah Nenek - Resto & Cafe,4.9,Sundanese,"Dayeuhkolot, Kabupaten Bandung",Tempat makan yang menyajikan hidangan Sunda yang lezat dan nyaman,"{'lat':-6.9682907035404185, 'lng':107.59059141222453}",-6.968290704,107.5905914,https://maps.app.goo.gl/6ysJHVHZZEekd6D36,https://lh5.googleusercontent.com/p/AF1QipMsFV5CWNtRbqgxQBGoZU73djuSgir_jyECukeq=w408-h544-k-no
325,Saung Gawir Restaurant,4.5,Sundanese,"Ciwidey, Kabupaten Bandung",Tempat makan yang menyajikan hidangan Sunda yang lezat dan romantis,"{'lat':-7.109069282486853, 'lng':107.45232261991234}",-7.109069282,107.4523226,https://maps.app.goo.gl/8uaoATT53Uk74Fy39,https://lh5.googleusercontent.com/p/AF1QipOkhAW8Gl7WQop0r9z_cklkdBNNFe764j9kf0Qp=w408-h306-k-no
326,RM. Saung Andir,4.2,Sundanese,"Ciwidey, Kabupaten Bandung",Tempat makan yang menyajikan hidangan Sunda yang lezat dan terjangkau,"{'lat':-7.112071871066779, 'lng':107.44063248446818}",-7.112071871,107.4406325,https://maps.app.goo.gl/hpe1o6DtSk95qsEM7,https://lh5.googleusercontent.com/p/AF1QipP_ZdoGx8mG3uNLYiZDo9Jg2Ibvgoctl7aia-VR=w408-h272-k-no
327,Sangu Liwet Ibu Ika,4.4,Sundanese,"Rancabali, Kabupaten Bandung",Tempat makan yang menyajikan nasi liwet yang lezat dan legendaris,"{'lat':-7.124008576412928, 'lng':107.42271165536302}",-7.124008576,107.4227117,https://maps.app.goo.gl/B5b6KNjKAzqbdsHn8,https://lh5.googleusercontent.com/p/AF1QipOmS7cDrXrr0IxGF_b6rhP5C5I8KufhoMvspLGd=w426-h240-k-no
328,Saung Injuk Soreang,4.3,Sundanese,"Pasirjambu, Kabupaten Bandung",Tempat makan yang menyajikan hidangan Sunda yang lezat dan asri,"{'lat':-7.076180973736932, 'lng':107.48755512652406}",-7.076180974,107.4875551,https://maps.app.goo.gl/K4huvcAwWWQ1f9hn7,https://lh5.googleusercontent.com/p/AF1QipOmLhn1oeEmY7VivaUMesdIGXVLv8GAVxF6FKev=w408-h306-k-no
329,Rumah Makan Saung Soreang,4.1,Sundanese,"Ciwidey, Kabupaten Bandung",Tempat makan yang menyajikan hidangan Sunda yang lezat dan terjangkau,"{'lat':-7.072619567295392, 'lng':107.4894088999058}",-7.072619567,107.4894089,https://maps.app.goo.gl/DeXkxhSZriksdbwB6,https://lh5.googleusercontent.com/p/AF1QipP7zUft0Vp9Tafd85HEVV8xAfc-gTpay_ZAk_yq=w408-h544-k-no
330,Selera Sunda,4.4,Sundanese,"Soreang, Kabupaten Bandung",Tempat makan yang menyajikan hidangan Sunda yang lezat dan beragam,"{'lat':-7.0193263580555385, 'lng':107.54908104001262}",-7.019326358,107.549081,https://maps.app.goo.gl/GTtD4GVPPTRWUsMk9,https://lh5.googleusercontent.com/p/AF1QipOP8R5McH3hXroKyDxiXsqTbWDws1DtRjv_eHZO=w426-h240-k-no
331,Khabochi Suki & Grill,4.4,Korean,"Soreang, Kabupaten Bandung",Tempat makan yang menyajikan hidangan suki dan grill yang lezat dan unik,"{'lat':-7.026179913065662, 'lng':107.5299791958338}",-7.026179913,107.5299792,https://maps.app.goo.gl/mUh9A52cJSyko1o9A,https://lh5.googleusercontent.com/p/AF1QipPHd3tlWiwgTqzX0bWrrXMAhXypgIc2SYExU29V=w426-h240-k-no
332,Koya Cafe & Resto,4.3,Cafe,"Soreang, Kabupaten Bandung",Tempat makan yang menyajikan hidangan seafood yang lezat dan romantis,"{'lat':-7.028884314419214, 'lng':107.52844865350573}",-7.028884314,107.5284487,https://maps.app.goo.gl/FxPkgUjeccfoEUZo8,https://lh5.googleusercontent.com/p/AF1QipOpfHuis-rzktZ-osYAA5MWix9lzuui5VVkBZ1X=w520-h240-k-no
333,Kampoeng Gombong Resto & Cafe,5,Cafe,"Soreang, Kabupaten Bandung",Tempat makan yang menyajikan hidangan Sunda yang lezat dan asri,"{'lat':-7.026425469772653, 'lng':107.51861717198953}",-7.02642547,107.5186172,https://maps.app.goo.gl/xN1HyCxDQvRET1Vc8,https://lh5.googleusercontent.com/p/AF1QipMlEEOsE6vg7q8mSXzAmZGXMby7MqpYiIoLqkcv=w426-h240-k-no
334,RM Saung Ciwaru,4.3,Sundanese,"Soreang, Kabupaten Bandung",Tempat makan yang menyajikan hidangan Sunda yang lezat dan terjangkau,"{'lat':-7.0289571865582525, 'lng':107.51103237282666}",-7.028957187,107.5110324,https://maps.app.goo.gl/gsUkCJRRWMhyRTep8,https://lh5.googleusercontent.com/p/AF1QipPnde_uwaj84p8pLnCvmzw2iED4fWyoFmnFNBXX=w426-h240-k-no
335,Seafood Abah Laut Soreang,4.4,Seafood,"Soreang, Kabupaten Bandung",Tempat makan yang menyajikan hidangan seafood yang lezat dan segar,"{'lat':-7.052680188001371, 'lng':107.49968330913632}",-7.052680188,107.4996833,https://maps.app.goo.gl/ms37riFK7gd7J3239,https://lh5.googleusercontent.com/p/AF1QipPz2G_UTPOBeo8g9FxNhfYWuB-0HxMYudA1VhKN=w408-h306-k-no
336,SOREKINI,4.3,Cafe,"Soreang, Kabupaten Bandung",Tempat makan yang menyajikan hidangan Sunda yang lezat dan unik,"{'lat':-7.031792115875223, 'lng':107.53842801117764}",-7.031792116,107.538428,https://maps.app.goo.gl/tUommT2VoCrcwcak8,https://lh5.googleusercontent.com/p/AF1QipN1vPW9KXjZKCa5m6CC4hyUnWzQlKpPbSI0IciR=w408-h544-k-no
337,Dapur Sarumpun,4.5,Sundanese,"Soreang, Kabupaten Bandung",Tempat makan yang menyajikan hidangan Sunda yang lezat dan terjangkau,"{'lat':-7.031705164529948, 'lng':107.53572986260085}",-7.031705165,107.5357299,https://maps.app.goo.gl/1ASgru5To2jjaCDt8,https://lh5.googleusercontent.com/p/AF1QipNU4cL7JF-1nJFB-WqX5aOLrF6mFJwhim7hh-Ce=w408-h544-k-no
338,Bumi meloka,4.3,Indonesian,"Soreang, Kabupaten Bandung",Tempat makan yang menyajikan hidangan Sunda yang lezat dan romantis,"{'lat':-7.030110291498331, 'lng':107.53136238751158}",-7.030110291,107.5313624,https://maps.app.goo.gl/Ls3TWehmUTHpAqmM7,https://lh5.googleusercontent.com/p/AF1QipOpzVg62Qd5_Au64Q58zJwsh41efqs_ABVQemzJ=w426-h240-k-no
339,Restoran Bambooberry,4.4,Sundanese,"Soreang, Kabupaten Bandung",Tempat makan yang menyajikan hidangan Sunda yang lezat dan instagramable,"{'lat':-7.034561207829315, 'lng':107.527242514353}",-7.034561208,107.5272425,https://maps.app.goo.gl/ZiGhLaeaw4oLynRD8,https://lh5.googleusercontent.com/p/AF1QipOYAnjec0xQrmzaxVdaqxBRkgunvMqv7EBTRDiJ=w408-h408-k-no
340,Rm. Padang Ampera Alona,4.6,Indonesian,"Ciwidey, Kabupaten Bandung",Tempat makan yang menyajikan hidangan Padang yang lezat dan autentik,"{'lat':-7.112670274590174, 'lng':107.44754571339821}",-7.112670275,107.4475457,https://maps.app.goo.gl/U6nUwtiLwdSroTWN8,https://lh5.googleusercontent.com/p/AF1QipPZlZkxZIhR5NV60l0RQj9spc819j51j9BAJtXJ=w426-h240-k-no
341,Rumah Makan Darma Rasa,4.3,Indonesian,"Ciwidey, Kabupaten Bandung",Tempat makan yang menyajikan hidangan Sunda yang lezat dan terjangkau,"{'lat':-7.121786937576393, 'lng':107.42705061118369}",-7.121786938,107.4270506,https://maps.app.goo.gl/328WVvykMavZmTut9,https://lh5.googleusercontent.com/p/AF1QipOeefjbr9PHEpFT49n595y5qqmh0A0hruzwI68=w408-h306-k-no
342,RM Citra Rasa,4.4,Indonesian,"Ciwidey, Kabupaten Bandung",Tempat makan yang menyajikan hidangan Sunda yang lezat dan beragam,"{'lat':-7.121400296577517, 'lng':107.42495398205511}",-7.121400297,107.424954,https://maps.app.goo.gl/MQdpgoaykFDHT2m29,https://lh5.googleusercontent.com/p/AF1QipNt3s3uWf1RLldBYxgn9NlhE_5xa11pcEGcLINa=w533-h240-k-no
343,Sambal Ndower Majalaya,4.5,Sundanese,"Majalaya, Kabupaten Bandung",Tempat makan yang menyajikan sambal ndower yang lezat dan pedas,"{'lat':-7.047364819563399, 'lng':107.76334231658213}",-7.04736482,107.7633423,https://maps.app.goo.gl/bR3WWLLB8GatY8ym7,https://lh5.googleusercontent.com/p/AF1QipPZmtByIbnRgEVlywye7ikDbJ8-2mrTN3Yhs3QO=w480-h240-k-no
344,You N Me Cafe And Resto,4.5,Cafe,"Majalaya, Kabupaten Bandung","Sebuah Cafe dan restoran yang menyajikan berbagai menu ramen, minuman, dan makanan ringan","{'lat':-7.047961094871568, 'lng':107.7585357981225}",-7.047961095,107.7585358,https://maps.app.goo.gl/6PVmZcG3BSycYAzu8,https://lh3.googleusercontent.com/gps-proxy/AFm_dcSlt85CE6lIl4gDO8aOq5mv4tYNKRWGruw-vRRmrZ7jRIECN5Q-oOC0D4vR5H5ocHnw9QK6Ih2ZB2ioxOmCYWtd2WEacG7JATVya29nzBpWxLVy8IrRii4ekWpq4rim3dCuxW0HPDF25qOkkOnogXH8UtNXfZDXbzXI18kx1bDDM0R62RMiyMBVn4ghzlqmNnxL9v0=w408-h306-k-no
345,Ramen AA Majalaya,4.6,Japanese,"Majalaya, Kabupaten Bandung",Restoran ramen dengan cita rasa autentik Jepang,"{'lat':-7.049238825091285, 'lng':107.75209849661408}",-7.049238825,107.7520985,https://maps.app.goo.gl/CMr7AbyHBVSarLJg7,https://lh5.googleusercontent.com/p/AF1QipOWshORuO03YCf7JEbaUnW0-x2geDp286i6AIOb=w408-h306-k-no
346,Mario Solo,4.4,Indonesian,"Majalaya, Kabupaten Bandung",Tempat makan bakso yang populer dengan baksonya yang lembut dan kuahnya yang gurih,"{'lat':-7.046427813957784, 'lng':107.76102488803909}",-7.046427814,107.7610249,https://maps.app.goo.gl/5JPwUmYhk8rto7nQ7,https://lh5.googleusercontent.com/p/AF1QipPzQakt8oWDMx-zfLL8kzwKs-3hdNBMlbO-780v=w408-h510-k-no
347,Warung Nasi Bu Oo,4.3,Indonesian,"Paseh, Kabupaten Bandung",Warung makan Sunda yang menyajikan berbagai macam hidangan Sunda dengan harga yang terjangkau,"{'lat':-7.043872334497904, 'lng':107.7671188668004}",-7.043872334,107.7671189,https://maps.app.goo.gl/un7vFUg39hDw236j8,https://lh5.googleusercontent.com/p/AF1QipOd55InVm5gbev4BUFrafB04a2VwbfuRuBj0BZd=w408-h306-k-no
348,RM. Dapur Nini Majalaya,4.3,Sundanese,"Majalaya, Kabupaten Bandung",Restoran seafood dengan pilihan menu yang beragam dan harga yang terjangkau,"{'lat':-7.047364819563399, 'lng':107.7589649515564}",-7.04736482,107.758965,https://maps.app.goo.gl/KnRFBRQykdtWvayN9,https://lh5.googleusercontent.com/p/AF1QipNCzYuSM77HM6MUsb-RyKTL7S3c-E0e8rB_PmQ=w426-h240-k-no
349,Warung Nasi Ciwalengke,4.4,Sundanese,"Majalaya, Kabupaten Bandung",Warung makan Sunda yang menyajikan hidangan Sunda yang lezat dan otentik,"{'lat':-7.0483870053362745, 'lng':107.74634784059988}",-7.048387005,107.7463478,https://maps.app.goo.gl/SUXxhSnrPqqP99Vx7,https://lh5.googleusercontent.com/p/AF1QipNmShc35RqVmDCwJwZCoyXsHe2LcjogRQ6QUoYV=w425-h240-k-no
350,D'Winner Ayam Geprek,4.2,Chicken,"Majalaya, Kabupaten Bandung",Tempat makan ayam geprek yang populer dengan ayam gepreknya yang pedas dan gurih,"{'lat':-7.075318154272745, 'lng':107.73161659924627}",-7.075318154,107.7316166,https://maps.app.goo.gl/426DwWD6nEPwbh3V7,https://lh5.googleusercontent.com/p/AF1QipMZvtJ7im1AwF3fJCc7C-gj7LgzgrhC8BWVo2Sl=w408-h304-k-no
351,Baso Goreng Fenyen,4.3,Bakso,"Majalaya, Kabupaten Bandung",Tempat makan bakso goreng yang menyajikan bakso goreng dengan berbagai macam topping,"{'lat':-7.0509639070351104, 'lng':107.75563491117882}",-7.050963907,107.7556349,https://maps.app.goo.gl/ejW2Gc6ScJWWyZLy5,https://lh5.googleusercontent.com/p/AF1QipN7cBlFo36uFrIISiITC4_-cocmrVi93JdsOqFu=w408-h306-k-no
352,Mie Bakso Solo Mas Yanto,4.3,Bakso,"Majalaya, Kabupaten Bandung",Tempat makan bakso Solo yang menyajikan bakso Solo dengan cita rasa autentik,"{'lat':-7.047692428313355, 'lng':107.76428753816373}",-7.047692428,107.7642875,https://maps.app.goo.gl/JHnPR4myuJPR2NGK9,https://lh5.googleusercontent.com/p/AF1QipMw64vclQ34UOLuSahbgbDOA22ut9sdfsmzkkKV=w426-h240-k-no
353,Mie Baso Mas Eko,4.7,Bakso,"Margahayu, Kota Bandung",Tempat makan bakso yang menyajikan bakso dengan berbagai macam pilihan topping,"{'lat':-6.956289278219767, 'lng':107.57269363327785}",-6.956289278,107.5726936,https://maps.app.goo.gl/CvLUSWj2XTyKwZoi7,https://lh5.googleusercontent.com/p/AF1QipM5OrTxD0F7u33KnbpPKAIuB9YHDtfNHdovr3x-=w408-h408-k-no
354,Mie Baso Mas Kiran,4.5,Bakso,"Margahayu, Kabupaten Bandung",Tempat makan bakso yang menyajikan bakso dengan kuahnya yang gurih dan lezat,"{'lat':-6.966233333567354, 'lng':107.57225719768083}",-6.966233334,107.5722572,https://maps.app.goo.gl/JbTb4bg1HYfvBLf88,https://lh5.googleusercontent.com/p/AF1QipNCgFVSHNeKCZcoNLrzDkoiub_vOs6J2vFhj6yr=w408-h544-k-no
355,Mie Ayam Bakso Mas Budi,4.6,Bakso,"Margahayu, Kabupaten Bandung",Tempat makan bakso yang menyajikan bakso dengan mie ayam yang lezat,"{'lat':-6.965026079848946, 'lng':107.56520352651658}",-6.96502608,107.5652035,https://maps.app.goo.gl/awP6BhETa9PdQqjh8,https://lh5.googleusercontent.com/p/AF1QipMHJSI01NFszQsuaL8HnYGbYATljK0CpSjmX6RD=w408-h306-k-no
356,Baso Doraemon,4.6,Bakso,"Margahayu, Kabupaten Bandung",Tempat makan bakso yang menyajikan bakso dengan berbagai macam topping unik,"{'lat':-6.965662831121019, 'lng':107.5713417976807}",-6.965662831,107.5713418,https://maps.app.goo.gl/faGaMUdq8frXEPJw8,https://lh5.googleusercontent.com/p/AF1QipMUHu5kxmspikzyFTJKLo9j2xkWkXqWwB4NIY4q=w408-h544-k-no
357,Dr.Ribs Steak House,4.6,Steak,"Margahayu, Kabupaten Bandung",Steak restaurant yang menyajikan steak dengan kualitas premium,"{'lat':-6.960892779546398, 'lng':107.57937406884473}",-6.96089278,107.5793741,https://maps.app.goo.gl/J18SohGfPv5Yf7ci6,https://lh5.googleusercontent.com/p/AF1QipNpln7eLa3gJ0-cjUiM-p2twUehNmdBBxemINnU=w426-h240-k-no
358,Steak O Steak,4.5,Steak,"Margahayu, Kabupaten Bandung",Steak restaurant yang menyajikan steak dengan harga terjangkau,"{'lat':-6.964840430277577, 'lng':107.56746610852198}",-6.96484043,107.5674661,https://maps.app.goo.gl/YUDyzzHjArXBKzds8,https://lh5.googleusercontent.com/p/AF1QipNmuxwYOVu_de2h7hnSnf3xdUT_C9vP4A7ZceDM=w408-h408-k-no
359,Zona Nyaman Cafe and Resto,4.7,Cafe,"Margaasih, Kabupaten Bandung",Cafe yang menyajikan berbagai macam hidangan dan minuman dengan suasana yang nyaman,"{'lat':-6.9664994404488585, 'lng':107.56125353896142}",-6.96649944,107.5612535,https://maps.app.goo.gl/GbDQ7NGvZfFtMACA8,https://lh5.googleusercontent.com/p/AF1QipPuzAZv3YAemxFZIy5pgRwM9NX_K7zcupKylERc=w408-h305-k-no
360,Pohon Mangga Resto,4.3,Sundanese,"Margaasih, Kabupaten Bandung",Sundanese restaurant dengan suasana alam yang asri,"{'lat':-6.9682888800422775, 'lng':107.55265201117336}",-6.96828888,107.552652,https://maps.app.goo.gl/ZA4BCM9sFWB8yUDD9,https://lh5.googleusercontent.com/p/AF1QipPGDYkyRhN7qaQOVt2eb0kuop8KK-HZOpYR7mkf=w408-h725-k-no
361,Rumah Makan Rencong Banjaran,4.8,Sundanese,"Baleendah, Kabupaten Bandung",Restoran Sunda dengan cita rasa autentik,"{'lat':-6.984772295770301, 'lng':107.59444665759631}",-6.984772296,107.5944467,https://maps.app.goo.gl/SNDXumLipc4doxc69,https://lh5.googleusercontent.com/p/AF1QipPSb04zsvJEM-EH9G7bH_K8UYW0I29nUzQG2bbl=w426-h240-k-no
362,RM Riung Panyaungan,4.2,Sundanese,"Baleendah, Kabupaten Bandung","Sundanese restaurant yang terletak di kawasan Panyaungan, dengan menu yang variatif, mulai dari hidangan tradisional hingga hidangan modern","{'lat':-6.995623695727004, 'lng':107.59951742651862}",-6.995623696,107.5995174,https://maps.app.goo.gl/D99bky1XVrtwfBAx8,https://lh5.googleusercontent.com/p/AF1QipOrAQroSJNtle_eQdCn-WSuROkG7BKiFk_6ByUl=w408-h306-k-no
363,Dahan Kopi,4.5,Cafe,"Baleendah, Kabupaten Bandung",Cafe dengan suasana yang nyaman dan asri,"{'lat':-7.008112677593727, 'lng':107.61202562195979}",-7.008112678,107.6120256,https://maps.app.goo.gl/MRZDqNyfnnUT7KpJ8,https://lh5.googleusercontent.com/p/AF1QipPCIxYy0_laq005fvr4RhJfKBaV7_fHRsDHjJIy=w426-h240-k-no
364,Rumah Makan Bugel,4.4,Sundanese,"Banjaran, Kabupaten Bandung",Sundanese restaurant dengan harga yang terjangkau,"{'lat':-7.044316513534878, 'lng':107.56609208604468}",-7.044316514,107.5660921,https://maps.app.goo.gl/bDhS4GyyCBipbFA67,https://lh5.googleusercontent.com/p/AF1QipOzKXV4p-1X4yeMD5kywq0DhBrujlol37jTj9xe=w408-h272-k-no
365,Rumah Makan Sawala,4.6,Sundanese,"Banjaran, Kabupaten Bandung",Sundanese restaurant dengan menu tradisional,"{'lat':-7.044444287757336, 'lng':107.56921417732894}",-7.044444288,107.5692142,https://maps.app.goo.gl/qV4uqV21h8ML67RK7,https://lh5.googleusercontent.com/p/AF1QipNLiWSe_82-_TwOIUrXAu_ufDWr_a7e32C3p02z=w426-h240-k-no
366,Rolun Coffee And Roastery,4.4,Cafe,"Banjaran, Kabupaten Bandung",Cafe dengan konsep roastery dan resto,"{'lat':-7.05092308672494, 'lng':107.57654078186926}",-7.050923087,107.5765408,https://maps.app.goo.gl/zDtesfTEPZhWVBHj6,https://lh5.googleusercontent.com/p/AF1QipNkCBspd5KsZMdIuYbGp5Hv3PYwyc1KbL_67pPH=w426-h240-k-no
367,Ngopi Di Kebon,4.3,Cafe,"Banjaran, Kabupaten Bandung",Cafe dengan suasana alam yang sejuk,"{'lat':-7.0454657712673745, 'lng':107.57523896652575}",-7.045465771,107.575239,https://maps.app.goo.gl/1v36mNHW3QxhmGsL9,https://lh5.googleusercontent.com/p/AF1QipOrDbCHp2uSoYJbqF1yi06E9akeB61cFti2lDnt=w408-h306-k-no
368,De'Pinus Bandung,4.6,Cafe,"Banjaran, Kabupaten Bandung",Cafe dengan pemandangan hutan pinus yang indah,"{'lat':-7.031045458743913, 'lng':107.59406714851691}",-7.031045459,107.5940671,https://maps.app.goo.gl/xTwBn9GWcry66K6S7,https://lh5.googleusercontent.com/p/AF1QipOXN5fyS_GxAAmf0p7zyxv4ciG338jFOpY_WcrM=w408-h510-k-no
369,Ipok Aleuh,4.6,Sundanese,"Cimenyan, Kabupaten Bandung",Rumah makan dengan masakan rumahan khas sunda,"{'lat':-6.867232608947461, 'lng':107.67481182000242}",-6.867232609,107.6748118,https://maps.app.goo.gl/DopMM3m4fQk2uHRJA,https://lh5.googleusercontent.com/p/AF1QipMJFjZoooTGKuh4nJH2WVDwG9GW3f-YLAaZjIVG=w408-h306-k-no
370,waroeng lereng keraton,4.5,Sundanese,"Cimenyan, Kabupaten Bandung",Menyediakan makanan khas sunda,"{'lat':-6.846344138197318, 'lng':107.6687271130163}",-6.846344138,107.6687271,https://maps.app.goo.gl/Yba37G7qjfxnSQQV7,https://lh5.googleusercontent.com/p/AF1QipMORGRDbZzPdY_WpSgtVlD2ihwxwQ94nnFZxnPK=w426-h240-k-no
371,Cascara Coffee Tebing Keraton,4.4,Cafe,"Cimenyan, Kabupaten Bandung",Cafe dengan konsep industrial yang unik,"{'lat':-6.841646436135051, 'lng':107.65938229685196}",-6.841646436,107.6593823,https://maps.app.goo.gl/dCuFeQsNkYnQxECD8,https://lh5.googleusercontent.com/p/AF1QipPg1Xzd1IZneELO4wy-70bMrK5RVRa3Sz2HTOU=w408-h306-k-no